,id,alias,name,is_closed,phone,address1,address2,address3,city,zip_code,country,state,display_address,latitude,longitude
0,E4vlHpkjAZ9L5aj1btMNQw,pubs;beergardens;gastropubs,Route 2 Taproom,False,+13608632036,19837 State Rt 2,,,Monroe,98272,US,WA,"['19837 State Rt 2', 'Monroe, WA 98272']",47.859177,-121.965226
1,F7Isj2PDnj7wMC_6W2y3mA,bbq;bars;steak,The Amarillo,False,+13602178484,116 E Main St,,,Monroe,98272,US,WA,"['116 E Main St', 'Monroe, WA 98272']",47.85582,-121.96985
2,PLq1ktJeMKHofRg40__eBg,pubs;pizza;pastashops,Harry's on Tye,False,+13608632439,14286 169th Dr SE,Ste 3,,Monroe,98272,US,WA,"['14286 169th Dr SE', 'Ste 3', 'Monroe, WA 98272']",47.8686943054199,-122.004661560059
3,5hpEsRDUdz30xwR6ZYQsBg,sportsbars;karaoke,JR Phinickeys,False,+13607946026,18960 State Rt 2,Ste 194,,Monroe,98272,US,WA,"['18960 State Rt 2', 'Ste 194', 'Monroe, WA 98272']",47.859261,-121.974298
4,DtUtKrUQbfl2-bKdj5hFQg,steak;breakfast_brunch;bars,Buzz Inn Steakhouse,False,+13607943838,18960 State Rt 2,,,Monroe,98272,US,WA,"['18960 State Rt 2', 'Monroe, WA 98272']",47.85956,-121.974565
5,m3bd3oKS3ro6e221v0eW9Q,mexican;bars,El Paraiso Mexican Grill,False,+13602948579,14090 Fryelands Blvd,,,Monroe,98272,US,WA,"['14090 Fryelands Blvd', 'Monroe, WA 98272']",47.86999,-122.0101
6,pSavnTl_oIhyhbQhqmbZ_A,whiskeybars;cocktailbars;salad,Burnt Barrel Whisky Bar,False,,102 E Main St,Ste 2,,Monroe,98272,US,WA,"['102 E Main St', 'Ste 2', 'Monroe, WA 98272']",47.85553,-121.97044
7,imAdL8nSdVabbsIfWm-6nA,sportsbars,Papa's Tavern,False,+13602822628,120 E Main St,,,Monroe,98272,US,WA,"['120 E Main St', 'Monroe, WA 98272']",47.8561151625449,-121.969889950182
8,LxwlZA6cjhWw6GGql7GIEA,pizza;italian;sportsbars,Gepetto's Italian Restaurant & Sports Bar,False,+13602494445,126 E Pioneer Ave,,,Montesano,98563,US,WA,"['126 E Pioneer Ave', 'Montesano, WA 98563']",46.9798199,-123.59983
9,szMwC2rGbvjqDztmP6cnWA,tradamerican;bars;breakfast_brunch,Rusty Tractor Family Restaurant,False,+13604823100,602 E Young St,,,Elma,98541,US,WA,"['602 E Young St', 'Elma, WA 98541']",47.0061201585465,-123.391160353774
10,mnSWguSxnMOVbw0p3yYxRg,sportsbars;divebars,Charlie's Sports Bar,False,+13602495000,313 Main St S,,,Montesano,98563,US,WA,"['313 Main St S', 'Montesano, WA 98563']",46.9790545422821,-123.601113938033
11,N5ZFnjLVDX0I1P5_GLfq1w,bars;tradamerican,Shujacks,False,+13604821276,326 W Main St,,,Elma,98541,US,WA,"['326 W Main St', 'Elma, WA 98541']",47.00439,-123.40491
12,T4mIZF_a79WO3z2Qc9uwrg,pubs,Artic Tavern,False,+13605918246,905 US-101,,,Cosmopolis,98537,US,WA,"['905 US-101', 'Cosmopolis, WA 98537']",46.89056,-123.714101
13,ZR8rhPRTHymIz4lHaE3f_A,bowling;sportsbars;poolhalls,Elma Lanes,False,+13604822111,605 E Main St,,,Elma,98541,US,WA,"['605 E Main St', 'Elma, WA 98541']",47.0066108703613,-123.390327453613
14,-59JB3kP930lowk9RxziTA,sportsbars,New Alibi Station,False,+13608618357,314 W Main St,,,Elma,98541,US,WA,"['314 W Main St', 'Elma, WA 98541']",47.00437,-123.40432
15,_C3swJZ692t9FHT3pM3c9g,lounges;newamerican;breakfast_brunch,Papa Bears Restaurant and Lounge,False,+13604966411,207 Main Ave,,,Morton,98356,US,WA,"['207 Main Ave', 'Morton, WA 98356']",46.5582633570594,-122.27549681527
16,K3LrNdxofSaRBKkKe3ROMA,bars;restaurants,Bucksnort,False,+13604965355,198 Main Ave,,,Morton,98356,US,WA,"['198 Main Ave', 'Morton, WA 98356']",46.55841,-122.274877
17,kHQsQTy3ahC7Fiw6MBs_iA,pubs,Elbe Tavern,False,+13605692545,54312 182nd Ave Ct E,,,Elbe,98330,US,WA,"['54312 182nd Ave Ct E', 'Elbe, WA 98330']",46.763384,-122.192091
18,sMosipAXYQ2luiLp_5hNqg,tradamerican;bars;burgers,Pioneer Bar & Grill,False,+13609833983,148 State St,,,Mossyrock,98564,US,WA,"['148 State St', 'Mossyrock, WA 98564']",46.5290997185234,-122.482151985168
19,iBVt_t1yPlxpe3JrJsWiDQ,burgers;pizza;bars,Base Camp Grill,False,,300027 Sr 706 E,,,Ashford,98304,US,WA,"['300027 Sr 706 E', 'Ashford, WA 98304']",46.76033,-122.035569
20,UN3rGSzh4U51HtohbIe4vA,tradamerican;bars,Bruno's Family Restaurant & Bar,False,+13608327866,204 Ctr St E,,,Eatonville,98328,US,WA,"['204 Ctr St E', 'Eatonville, WA 98328']",46.8669000533421,-122.264889354253
21,NXohhYR4GcRFwRt-zKh37w,lounges,Uptown Lounge,False,+13604003457,201 Prairie Park St,,,Yelm,98597,US,WA,"['201 Prairie Park St', 'Yelm, WA 98597']",46.9400140584777,-122.599394559807
22,PxVZh8T-21XCcRlwkzqdjw,divebars,Headquarters Tavern,False,+13604923261,112 E Front St,,,Mineral,98355,US,WA,"['112 E Front St', 'Mineral, WA 98355']",46.7167129516602,-122.177841186523
23,yyVX03Cw8w0uwyMjBy9caw,newamerican;bars,The Branch Bar & Public Room,False,+13606695127,202 W Centralia College Blvd,,,Centralia,98531,US,WA,"['202 W Centralia College Blvd', 'Centralia, WA 98531']",46.7154403,-122.9561865
24,uXSpyhYwrZg034jTS0LFlw,tradamerican;pubs;breweries,Olympic Club Pub,False,+13607365164,112 N Tower Ave.,,,Centralia,98531,US,WA,"['112 N Tower Ave.', 'Centralia, WA 98531']",46.7166,-122.95382
25,G00GU8jtoCyK2aM_gLysSw,newamerican;cocktailbars,Mackinaws,False,+13607408000,545 N Market Blvd,,,Chehalis,98532,US,WA,"['545 N Market Blvd', 'Chehalis, WA 98532']",46.66549,-122.97088
26,GR0DC9yZzfhdXzFDJy4XmA,burgers;pubs,The Pour House,False,+13608324782,119 Mashell Ave N,,,Eatonville,98328,US,WA,"['119 Mashell Ave N', 'Eatonville, WA 98328']",46.868148,-122.266499
27,RucjyhLr6QiHdlQH1eKaoA,steak;bars;brasseries,Cascadia Grill,False,+13606288731,200 4th Ave W,,,Olympia,98501,US,WA,"['200 4th Ave W', 'Olympia, WA 98501']",47.0449039,-122.9031322
28,5iLUs4t6viV25md6HuhHjw,pizza;pubs,Tiki Tap House,False,+13606690161,404 N Tower Ave,,,Centralia,98531,US,WA,"['404 N Tower Ave', 'Centralia, WA 98531']",46.719205,-122.952693
29,0RirIkN4gy1UJl-1DxpkcQ,tradamerican;diners;bars,King Solomon's Reef,False,+13607423199,212 4th Ave E,,,Olympia,98501,US,WA,"['212 4th Ave E', 'Olympia, WA 98501']",47.045170389825,-122.89979013497
30,CvtgXzasxaxjR8ybB866-A,gourmet;cocktailbars,Chelsea Farms Oyster Bar,False,+13609157784,222 Capitol Way N,Ste 114,,Olympia,98501,US,WA,"['222 Capitol Way N', 'Ste 114', 'Olympia, WA 98501']",47.04639,-122.90149
31,K61sxpb0kvkkjzr_CA2SwA,pubs;gastropubs;cocktailbars,State & Central,False,+13604890824,1415 State Ave NE,,,Olympia,98501,US,WA,"['1415 State Ave NE', 'Olympia, WA 98501']",47.0467,-122.88207
32,eIS9FwrUmSquCKq2VErl4A,tacos;bars,Tacos Gaby,False,+13604582342,307 E Yelm Ave,,,Yelm,98597,US,WA,"['307 E Yelm Ave', 'Yelm, WA 98597']",46.94003,-122.60369
33,zPaUpvj0qt46UzR_k9PEmw,bars;burgers,All In,False,+13609784631,1783 Hwy 508,,,Onalaska,98570,US,WA,"['1783 Hwy 508', 'Onalaska, WA 98570']",46.575817,-122.7214
34,o2SZ0vaoaUXeO980ti7JGw,cocktailbars;newamerican,Dillinger's Cocktails and Kitchen,False,+13605150650,404 Washington St SE,,,Olympia,98501,US,WA,"['404 Washington St SE', 'Olympia, WA 98501']",47.0448436,-122.9002015
35,hkTnpSYCACbUzgya4LiwZg,newamerican;seafood;wine_bars,Dockside Bistro & Wine Bar,False,+13609561928,501 Columbia St NW,Ste B,,Olympia,98501,US,WA,"['501 Columbia St NW', 'Ste B', 'Olympia, WA 98501']",47.048279,-122.903941
36,o36VFJLQIbhXmu353nB1Wg,tradamerican;bars,Blue Spruce Saloon & Grill,False,+13604945605,13019 US 12,,,Packwood,98361,US,WA,"['13019 US 12', 'Packwood, WA 98361']",46.60747,-121.67106
37,IzEPI_HLWoRPRQc0sBa-kQ,wine_bars;beergardens,Northwest Beerwerks,False,+13603502051,420 Steele St SE,,,Olympia,98501,US,WA,"['420 Steele St SE', 'Olympia, WA 98501']",47.0453408750761,-122.866291590035
38,hii9OMJnjsFDRvAwdTLG2g,pizza;gluten_free;sportsbars,Farrelli's Wood Fire Pizza,False,+12539125200,1590 Wilmington Dr,,,Dupont,98327,US,WA,"['1590 Wilmington Dr', 'Dupont, WA 98327']",47.0920671,-122.6452244
39,QSFsQymXke38dPaWyZkv8Q,pizza;gluten_free;sportsbars,Farrelli's Pizza,False,+12536555191,5612 176th St E,,,Puyallup,98375,US,WA,"['5612 176th St E', 'Puyallup, WA 98375']",47.094834,-122.355064
40,1V8rDlu0_kXqa5ASUnj18A,bars;bbq;burgers,Hub Bar & Grill,False,+13607362229,110 S Tower Ave,,,Centralia,98531,US,WA,"['110 S Tower Ave', 'Centralia, WA 98531']",46.71567,-122.95423
41,WTLwsHYOCIeUPEZpSI8KiA,bars;newamerican,The Shire Bar & Bistro,False,+13607483720,465 NW Chehalis Ave,,,Chehalis,98532,US,WA,"['465 NW Chehalis Ave', 'Chehalis, WA 98532']",46.66455,-122.97057
42,2s9osEaVRdLAfimJsJZVNA,italian;bars,Basilico Ristorante Italiano,False,+13605708777,507 Capitol Way S,,,Olympia,98501,US,WA,"['507 Capitol Way S', 'Olympia, WA 98501']",47.0437515,-122.9019171
43,N_ZpAPaI-Id6hq8gLjJ90w,pubs,Skep & Skein,False,+13602924400,2106 Harrison Ave NW,,,Olympia,98502,US,WA,"['2106 Harrison Ave NW', 'Olympia, WA 98502']",47.046395,-122.9279136
44,lGNfyrYz_Ra3LavAdHVVxA,sportsbars;tradamerican;irish,O'Blarney's At The Gibson House,False,+13608074581,221 N Tower Ave,,,Centralia,98531,US,WA,"['221 N Tower Ave', 'Centralia, WA 98531']",46.7179817,-122.9535884
45,kSgBMvz80krH-t6ua91SzQ,pizza;bars;tradamerican,The Rock Wood Fired Pizza,False,+13604120300,5400 Martin Way E,,,Lacey,98503,US,WA,"['5400 Martin Way E', 'Lacey, WA 98503']",47.05042,-122.81337
46,ZBp5SiXpapzCKm-GLsbirw,newamerican;cocktailbars;wine_bars,Swing Wine Bar & Cafe,False,+13603579464,825 Columbia St SW,,,Olympia,98501,US,WA,"['825 Columbia St SW', 'Olympia, WA 98501']",47.04068,-122.902667
47,kKTttKT91A1HsFaTkaFnJQ,irish;pubs;tradamerican,McNamara's Pub & Eatery,False,+12539649200,1595 Wilmington Dr,,,DuPont,98327,US,WA,"['1595 Wilmington Dr', 'DuPont, WA 98327']",47.091661,-122.6455284
48,sv-4hi5tP6egOW3thkSgdA,cafes;pubs;tradamerican,Spar Caf√©,False,+13603576444,114 4th Ave. E.,,,Olympia,98501,US,WA,"['114 4th Ave. E.', 'Olympia, WA 98501']",47.045051,-122.90095912888
49,qEKmPBwlpicswX4IvLEP5Q,pubs;divebars,The Brotherhood Lounge,False,+13603524153,119 Capitol Way N,,,Olympia,98501,US,WA,"['119 Capitol Way N', 'Olympia, WA 98501']",47.0454099,-122.90214
50,ZztiONHrKI895SONXtfGag,beerbar;cideries;pizza,Oly Taproom,False,+13605150661,312 Columbia St NW,,,Olympia,98501,US,WA,"['312 Columbia St NW', 'Olympia, WA 98501']",47.0468184087427,-122.90310917791
51,BxkR1P2XYcXXy_zPWtEZzQ,bars,The Lakehouse Restaurant & Bar,False,+13609850071,350 Hadaller Rd,,,Mossyrock,98564,US,WA,"['350 Hadaller Rd', 'Mossyrock, WA 98564']",46.5024299,-122.57304
52,EpXCy_SSO-x8BjRLc_xUcg,bars;burgers;newamerican,The Westside Tavern,False,+13609157839,1815 Harrison Ave NW,,,Olympia,98502,US,WA,"['1815 Harrison Ave NW', 'Olympia, WA 98502']",47.0457916,-122.9243317
53,mRZgAu9vn1Xx58CzWHT_kw,pizza;gluten_free;sportsbars,Farrelli's Pizza & Pool Company,False,+13604932090,4870 Yelm Hwy SE,,,Lacey,98503,US,WA,"['4870 Yelm Hwy SE', 'Lacey, WA 98503']",46.996583,-122.819949
54,maNDatzNGe6xSk1fgE1ktg,lounges;asianfusion;thai,Lemon Grass Restaurant & Lounge,False,+13604599511,8101 Quinault Dr NE,,,Lacey,98516,US,WA,"['8101 Quinault Dr NE', 'Lacey, WA 98516']",47.0607967147134,-122.768547534943
55,b5VVaKzeGQtP8F5oHWoquw,wine_bars,Uncork & Unwind,False,+13609439463,324 Custer Way SW,,,Tumwater,98501,US,WA,"['324 Custer Way SW', 'Tumwater, WA 98501']",47.0167149,-122.9050675
56,O_J2HEIEvJ4aizaVh9UnXA,tradamerican;bars;seafood,Tugboat Annies,False,+13609431850,2100 W Bay Dr,,,Olympia,98502,US,WA,"['2100 W Bay Dr', 'Olympia, WA 98502']",47.063867,-122.916423
57,BMvk7GajniNgbW5O23EHzg,bars,Eastside Club Tavern,False,+13603579985,410 4th Ave E,,,Olympia,98501,US,WA,"['410 4th Ave E', 'Olympia, WA 98501']",47.0448809,-122.905892
58,HeieXG-dNUTb9aRNP-tPxw,tapas;tapasmallplates;cocktailbars,Octapas Cafe,False,+13608789333,414 4th Ave E,,,Olympia,98501,US,WA,"['414 4th Ave E', 'Olympia, WA 98501']",47.0453016,-122.8972794
59,sVTK41c0fU4J5rfpPUZ8hA,italian;wine_bars,Mercato Ristorante,False,+13605283663,111 Market St NE,,,Olympia,98501,US,WA,"['111 Market St NE', 'Olympia, WA 98501']",47.050239654148,-122.9014479069
60,XoQcuahyYJTDNdzfEy4PoA,cocktailbars;newamerican;tradamerican,Lady of the Lake,False,+13602642438,4005 120th Ave SE,,,Tenino,98589,US,WA,"['4005 120th Ave SE', 'Tenino, WA 98589']",46.912406,-122.831722
61,EfQyouIu1oSkeIgooEY8ew,bars;musicvenues;tradamerican,Quarter Mile Bar And Grill,False,+13609608366,404 1st St S,,,Yelm,98597,US,WA,"['404 1st St S', 'Yelm, WA 98597']",46.93987,-122.60928
62,GGytoEvI7ackE_iMd9pkSQ,breakfast_brunch;bars;tradamerican,Martin Way Diner,False,+13607051438,2423 4th Ave,,,Olympia,98506,US,WA,"['2423 4th Ave', 'Olympia, WA 98506']",47.0457600261887,-122.866883001178
63,Njn9M5180tiJW7OyuwmkQA,irish_pubs,O'Blarney's Irish Pub,False,+13604598084,4411 Martin Way E,,,Olympia,98516,US,WA,"['4411 Martin Way E', 'Olympia, WA 98516']",47.04737,-122.8271281
64,guGRUPCBYBfCknykV7ODbg,bars;breakfast_brunch,Galloping Gertie's Bar and Grill,False,+12535844848,15417 Union Ave SW,,,Lakewood,98498,US,WA,"['15417 Union Ave SW', 'Lakewood, WA 98498']",47.1194196,-122.5574917
65,Qp--amv8YhuSZg1VLSVDhw,newamerican;bars;venues,Water Street Cafe,False,+13607099090,610 Water St SW,,,Olympia,98501,US,WA,"['610 Water St SW', 'Olympia, WA 98501']",47.042807,-122.903606
66,ke46IeC-5c4535OE4bZVJg,tobaccoshops;lounges,Cigar Daddies,False,+13604915400,4511 Lacey Blvd SE,,,Lacey,98503,US,WA,"['4511 Lacey Blvd SE', 'Lacey, WA 98503']",47.036276,-122.826035
67,9bTn9zao_eCIR-P2_vlGug,diners;breakfast_brunch;bars,Red Kitchen Cocktails + Taps,False,+13604251765,848 15th Ave,,,Longview,98632,US,WA,"['848 15th Ave', 'Longview, WA 98632']",46.13002,-122.93957
68,0B12NJuamZQ9JWciv_BqdA,newmexican;bars,Mazatlan Grill Canyon,False,+12532710531,5620 176th St E,Ste 102,,Puyallup,98375,US,WA,"['5620 176th St E', 'Ste 102', 'Puyallup, WA 98375']",47.0962656,-122.3539875
69,NQMsZz1rFQMNjbbadp49lA,tradamerican;pubs,Cooper Point Public House,False,+13609157880,3002 Harrison Ave,,,Olympia,98502,US,WA,"['3002 Harrison Ave', 'Olympia, WA 98502']",47.04755,-122.93951
70,m2_bKpSK2KAloY7sc0Hqqg,tradamerican;beerbar;cocktailbars,Hops n Drops,False,+12532016446,5314 176th St E,,,Tacoma,98446,US,WA,"['5314 176th St E', 'Tacoma, WA 98446']",47.095884,-122.358085
71,RYaIq94KYb3HDOKNQN_etg,breakfast_brunch;beerbar,Frosty's,False,+13602623980,113 W Front Ave,,,Napavine,98565,US,WA,"['113 W Front Ave', 'Napavine, WA 98565']",46.5747799,-122.91038
72,Xa2Mpyzq9wGCb90lOUpxLQ,mexican;bars,Puerto Del Sol,False,+13605849639,9018 Martin Way E,,,Olympia,98516,US,WA,"['9018 Martin Way E', 'Olympia, WA 98516']",47.0603070283279,-122.748463153839
73,ml8jj1bg-xknVnsHoyBV0A,golf;newamerican;bars,Riverside Golf Club,False,+13607488182,1451 NW Airport Rd,,,Chehalis,98532,US,WA,"['1451 NW Airport Rd', 'Chehalis, WA 98532']",46.67582559793,-122.989711761475
74,J5fHFB3nmscmYawzFleBQw,wine_bars;beerbar,J Squared Barrel House,False,+13607033939,1520 Commerce Ave,,,Longview,98632,US,WA,"['1520 Commerce Ave', 'Longview, WA 98632']",46.1400069,-122.9330358
75,Giql5BwKsINcMGAIl-eoTA,mexican;wine_bars,Dos Hermanos Mexican Kitchen,False,+13603598131,222 Capitol Way N,,,Olympia,98501,US,WA,"['222 Capitol Way N', 'Olympia, WA 98501']",47.04639,-122.90149
76,RSvFM0-2-GCIWHSCrMCdrw,asianfusion;tradamerican;beerbar,Elvie's Bistro,False,+13607363926,105 E Center St,,,Centralia,98531,US,WA,"['105 E Center St', 'Centralia, WA 98531']",46.720307,-122.952386
77,7fY-yU_ejXLJV_2dvHWsEg,pizza;burgers;pubs,Kapowsin Ale House & Grill,False,+13608795333,14912 Kapowsin Hwy E,,,Kapowsin,98344,US,WA,"['14912 Kapowsin Hwy E', 'Kapowsin, WA 98344']",46.984718,-122.235577
78,7_MQPKrlM4KWqmKFYClTAQ,tradamerican;bars,The Cougar Bar & Grill,False,+13602385252,16849 Lewis River Rd,,,Cougar,98616,US,WA,"['16849 Lewis River Rd', 'Cougar, WA 98616']",46.05181,-122.30073
79,t1s_-zE1mHeT6oqOFKHVbw,mexican;bars,Viva Mexican Restaurant,False,+12539124730,1455 Wilmington Dr,,,DuPont,98327,US,WA,"['1455 Wilmington Dr', 'DuPont, WA 98327']",47.0903860988531,-122.642499492174
80,R9dPfBI1bY7Pqyr9wkLrBA,italian;bars,Flying Tomato Bar and Grill,False,+12538750770,10224 198th St E,,,Graham,98338,US,WA,"['10224 198th St E', 'Graham, WA 98338']",47.0762148090326,-122.293800631769
81,fsyB-dXUFGUFCTORRnlZRg,bars,Cryptatropa Bar,False,+13607543867,421 4th Ave E,,,Olympia,98501,US,WA,"['421 4th Ave E', 'Olympia, WA 98501']",47.045022016597,-122.89685070285
82,TlmYHQA86pIsV4B3ESUBmQ,burgers;whiskeybars,Stack 571 Burger & Whiskey Bar,False,+13608102675,625 Black Lake Blvd SW,Suite 530,,Olympia,98502,US,WA,"['625 Black Lake Blvd SW', 'Suite 530', 'Olympia, WA 98502']",47.04191,-122.93396
83,Ki-a1KilSacdiSSaPMn7xA,lounges;burgers;pizza,Ricky J's,False,+12535078182,6805 176th St E,,,Puyallup,98375,US,WA,"['6805 176th St E', 'Puyallup, WA 98375']",47.0971199,-122.33834
84,wW2jfrBvhl6NcKIaA7XLFQ,pubs;tradamerican;cocktailbars,Market Street Pub & Grill,False,+13607486777,523 N Market Blvd,,,Chehalis,98532,US,WA,"['523 N Market Blvd', 'Chehalis, WA 98532']",46.6653022766113,-122.970367431641
85,uBen_lH25ytIp11ldjUcLQ,bars;tradamerican,Fatso's Bar and Grill,False,+13604919066,3205 Martin Way E,,,Olympia,98506,US,WA,"['3205 Martin Way E', 'Olympia, WA 98506']",47.0464737,-122.8522123
86,b117T0gp1ubHw_woQVLuzA,bbq;wine_bars;beerbar,Hops on the Hill,False,+13609158780,1870 Barnes Blvd,,,Tumwater,98512,US,WA,"['1870 Barnes Blvd', 'Tumwater, WA 98512']",47.01913,-122.92252
87,5hYNvTMPFRdk1HnuhrW7tg,tradamerican;bars,Big Bottom Bar & Grill,False,+13604970561,9791 US Hwy 12,,,Randle,98377,US,WA,"['9791 US Hwy 12', 'Randle, WA 98377']",46.535504,-121.957978
88,JzSYvvor-d0em-Vz3h8VxA,pubs;sportsbars;tradamerican,Pints and Quarts,False,+13604389183,1230 College St SE,,,Lacey,98503,US,WA,"['1230 College St SE', 'Lacey, WA 98503']",47.0361649429805,-122.822721652955
89,xa-4jHVGJyZhdBvzsrLnOg,italian;lounges,The Mark Restaurant,False,+13607544414,407 Columbia St SW,,,Olympia,98502,US,WA,"['407 Columbia St SW', 'Olympia, WA 98502']",47.04451,-122.90322
90,TzPph9Xj2l6C3UP3GOIFAg,tradamerican;cocktailbars;seafood,Nisqually Bar & Grill,False,+13604916123,10323 Martin Way E.,,,Olympia,98516,US,WA,"['10323 Martin Way E.', 'Olympia, WA 98516']",47.066691,-122.720187
91,1JCsnRdOSygUhxA0Zj7crA,sportsbars;burgers;tradamerican,The Hideaway Sports Pub & Eatery,False,+12536555298,23227 Mountain Hwy E,,,Spanaway,98387,US,WA,"['23227 Mountain Hwy E', 'Spanaway, WA 98387']",47.04521,-122.3894
92,lEAbSR0o-9f2C3ec6U90sA,bars;mexican,The Port taco truck + bar,False,+13606887687,2521 Marvin Rd NE,,,Lacey,98516,US,WA,"['2521 Marvin Rd NE', 'Lacey, WA 98516']",47.0691692683112,-122.771817725604
93,KLUaalcPtEJTa135EckvYw,tradamerican;pubs,FireCreek Grill & Ale House,False,+13604915111,5225 Yelm Hwy SE,,,Olympia,98503,US,WA,"['5225 Yelm Hwy SE', 'Olympia, WA 98503']",46.995590502366,-122.81235455205
94,Tob2kYmHB07kzbSKTm-Iwg,sportsbars;tradamerican,Pints Barn,False,+13606288838,114 E St SW,,,Tumwater,98501,US,WA,"['114 E St SW', 'Tumwater, WA 98501']",47.012012,-122.905609
95,OwFx99t6f8CZ3DtgriPAQA,bars;latin;mexican,Equal Latin Restaurant and Bar,False,+13608194817,520 4th Ave E,,,Olympia,98501,US,WA,"['520 4th Ave E', 'Olympia, WA 98501']",47.04558,-122.89575
96,5TFqeKy7EE2lUf1QV0ldrA,sportsbars;pizza;italian,The Brick on Trosper,False,+13607536626,707 Trosper Rd SW,,,Tumwater,98512,US,WA,"['707 Trosper Rd SW', 'Tumwater, WA 98512']",46.9998151,-122.9177053
97,Kied5Z1t2dIcaGqj6c5Kkg,bars;tradamerican,Silvers Saloon,False,+13604890255,2752 Pacific Ave SE,,,Olympia,98501,US,WA,"['2752 Pacific Ave SE', 'Olympia, WA 98501']",47.0436707,-122.8611603
98,7hXZ388070C-wOiyI1xX9Q,bars;tradamerican,Tahoma Valley Bar & Grill,False,+13609608180,15425 Mosman Ave SW,,,Yelm,98597,US,WA,"['15425 Mosman Ave SW', 'Yelm, WA 98597']",46.9415814011356,-122.611886299003
99,t7-BE-OcghVniAsJ1shlGw,divebars,Brown Shack Tavern,False,+13609852603,155 Salkum Rd,,,Salkum,98582,US,WA,"['155 Salkum Rd', 'Salkum, WA 98582']",46.5319728592835,-122.6263549
100,3hEX2fztLrx-rXB15J4v8w,sportsbars;tradamerican,Culpepper's Bar & Grill,False,+12532716527,9807 224th St E,Ste 120,,Graham,98338,US,WA,"['9807 224th St E', 'Ste 120', 'Graham, WA 98338']",47.0544843074636,-122.299499417224
101,TQRd4vblGTP7qHom1uZZrw,tradamerican;sportsbars;burgers,Applebee's Grill + Bar,False,+12537707300,16518 Meridian E,,,Puyallup,98375,US,WA,"['16518 Meridian E', 'Puyallup, WA 98375']",47.1049728342228,-122.293963
102,2unI_iYycv9jq5d0E4vCRw,bars,Pastime Tavern,False,+13602746822,127 Front Ave NW,,,Castle Rock,98611,US,WA,"['127 Front Ave NW', 'Castle Rock, WA 98611']",46.275737,-122.908302
103,yud9Hps59KucMbGkiQrLWA,bars;musicvenues,Rhythm & Rye,False,,311 Capitol Way,,,Olympia,98501,US,WA,"['311 Capitol Way', 'Olympia, WA 98501']",47.046869,-122.902563
104,fAhr-HiYKG2gh_Jk0CssAg,tradamerican;bars,Lodge Wood Fired Grill,False,+13602737718,Great Wolf Lodge,,20500 Old Hwy 99 SW,Centralia,98531,US,WA,"['Great Wolf Lodge', '20500 Old Hwy 99 SW', 'Centralia, WA 98531']",46.7907340232573,-123.010740280151
105,TFTHovqRMxL903gzIBpzDg,musicvenues;bars;tradamerican,McFilers,False,+13609964400,543 NW Pacific Ave,,,Chehalis,98532,US,WA,"['543 NW Pacific Ave', 'Chehalis, WA 98532']",46.6650779,-122.9712242
106,r1jdYMPnvkXdhpqVDyVi7Q,tradamerican;sportsbars;burgers,Applebee's Grill + Bar,False,+13607481800,1670 NW Louisiana Ave,,,Chehalis,98532,US,WA,"['1670 NW Louisiana Ave', 'Chehalis, WA 98532']",46.677658,-122.975489
107,F6K-75_3EbOF0eKRhijsSw,pubs;pizza,Snorting Elk,False,+13606637798,33818 Crystal Moutain Blvd,,Alpine Inn,Crystal Mountain,98022,US,WA,"['33818 Crystal Moutain Blvd', 'Alpine Inn', 'Crystal Mountain, WA 98022']",46.9358213856,-121.478018861
108,OceWOIT0lC2lnIK2xKsg8g,wine_bars;beerbar;pubs,Ahles Point Cabin,False,+13606739208,215 Hendrickson Dr,,,Kalama,98625,US,WA,"['215 Hendrickson Dr', 'Kalama, WA 98625']",45.998826,-122.844347
109,YP86nyaO6JKChK4zu36TeA,sushi;steak;wine_bars,Kyoto Sushi Steakhouse,False,+13604259696,760 Ocean Beach Hwy,Ste J,,Longview,98632,US,WA,"['760 Ocean Beach Hwy', 'Ste J', 'Longview, WA 98632']",46.1474922622659,-122.924604825675
110,o0FPr29xBvxSI9FSvdkUNw,tradamerican;bars,Oly Underground,False,+13603527343,109 Legion Way SW,,,Olympia,98501,US,WA,"['109 Legion Way SW', 'Olympia, WA 98501']",47.0430478,-122.901834
111,7UNCNNPgyv2a3JHKoHJjRg,lounges;tradamerican,Pick & Shovel Restaurant & Lounge,False,+13607617021,527 Church St,,,Wilkeson,98396,US,WA,"['527 Church St', 'Wilkeson, WA 98396']",47.1048851013184,-122.045463562012
112,arwOOqaQWKVlSqFXoeImew,sportsbars,The Y Sports Bar & Grill,False,+12536555350,19306 Mountain Hwy E,,,Spanaway,98387,US,WA,"['19306 Mountain Hwy E', 'Spanaway, WA 98387']",47.081302,-122.433059
113,lKq2Yv9kZ7tlIqzl-DtMWA,steak;japanese;bars,Fujiyama Japanese Steakhouse and Bar,False,,2930 Capital Mall Dr NW,,,Olympia,98502,US,WA,"['2930 Capital Mall Dr NW', 'Olympia, WA 98502']",47.0400449,-122.9394537
114,_MFvWLweaSPbjrI930H1YQ,pizza;sportsbars;italian,Infernos Brick Oven Pizza,False,+13609234722,8825 Tallon Ln NE,Ste K,,Lacey,98516,US,WA,"['8825 Tallon Ln NE', 'Ste K', 'Lacey, WA 98516']",47.05971,-122.75286
115,H3cOCMWthswFgYy2OxIsbA,divebars;newamerican;pubs,Cedar Inn Tavern,False,+13604595509,9030 Martin Way E,,,Olympia,98516,US,WA,"['9030 Martin Way E', 'Olympia, WA 98516']",47.0607261657715,-122.747673034668
116,Sdhok70KO3uqqWgvKcq2hw,pubs,Old Hwy 99 Company Bar & Grill,False,+13602645076,12743 Old Hwy 99 SE,,,Tenino,98589,US,WA,"['12743 Old Hwy 99 SE', 'Tenino, WA 98589']",46.90291,-122.85941
117,iAiAB-RFX9gr9rUrgVTamQ,sportsbars;karaoke,Roadhouse Tavern,False,+12538413082,15518 Meridian E,,,Puyallup,98375,US,WA,"['15518 Meridian E', 'Puyallup, WA 98375']",47.11509,-122.29399
118,so0T8-jQU0pgeo1zbQrSBg,cideries;pubs,Whitewood Cider Co Tasting Room,False,+13608901852,728 4th Ave E,,,Olympia,98506,US,WA,"['728 4th Ave E', 'Olympia, WA 98506']",47.0455999467869,-122.89318653274
119,lTeSBcnp_T1mq4xzJ1wiOg,bars;beergardens,Carbonado Saloon,False,+13608294347,101 Pershing Ave,,,Carbonado,98323,US,WA,"['101 Pershing Ave', 'Carbonado, WA 98323']",47.0769068,-122.056006
120,w1gbFDONLu3E6acCIYf9PA,bars;breakfast_brunch;tradamerican,South Bay Pub & Eatery,False,+13604560809,3323 S Bay Rd NE,,,Olympia,98506,US,WA,"['3323 S Bay Rd NE', 'Olympia, WA 98506']",47.0790924,-122.8481194
121,1nVsrYn9DfRdHBg_QJ_gPg,sportsbars;burgers;gastropubs,Porky's Public House & Eatery,False,+13606361616,561 Industrial Way,,,Longview,98632,US,WA,"['561 Industrial Way', 'Longview, WA 98632']",46.11543,-122.93175
122,dhPEwRjSfyd9q0i9Xk7Pgw,beerbar,Puget Sound Taps,False,+13604891399,4250 Martin Way E,Ste 101,,Olympia,98516,US,WA,"['4250 Martin Way E', 'Ste 101', 'Olympia, WA 98516']",47.04849,-122.83041
123,Be7kuXcLN5vbDUHPmVOclw,tradamerican;sportsbars;burgers,Applebee's Grill + Bar,False,+13604919400,525 Sleater Kinney Rd SE,,,Lacey,98503,US,WA,"['525 Sleater Kinney Rd SE', 'Lacey, WA 98503']",47.044143,-122.834217
124,VL2v7et-rWr0a7GB6_Lu9w,sportsbars;tradamerican,Mary's Bar & Grill,False,+13604251637,4503 Ocean Beach Hwy,Ste 107,,Longview,98632,US,WA,"['4503 Ocean Beach Hwy', 'Ste 107', 'Longview, WA 98632']",46.1625781,-122.9986088
125,74s-QNINV75yymVXF13BOw,bars,Bigfoot Tavern,False,+13608324121,112 Mashell Ave N,,,Eatonville,98328,US,WA,"['112 Mashell Ave N', 'Eatonville, WA 98328']",46.8679618835449,-122.267059326172
126,rquipJQX7zGsDzQzK4ktbA,bars;tradamerican,Top Gun Bar & Grill,False,+12538480555,16807 103rd Ave Ct E,,,Puyallup,98374,US,WA,"['16807 103rd Ave Ct E', 'Puyallup, WA 98374']",47.102978,-122.290265
127,yc_5Q_P45ym8tuXS9Dcgzg,sportsbars;diners,Charlie's Bar & Grill,False,+13607868181,620 4th Ave E,,,Olympia,98501,US,WA,"['620 4th Ave E', 'Olympia, WA 98501']",47.04565,-122.89456
128,FbdLgI84PW-gZ4Zyxzt5mw,sportsbars;chicken_wings;tradamerican,Buffalo Wild Wings,False,+13609430718,1614 Black Lake Blvd SW,,,Olympia,98502,US,WA,"['1614 Black Lake Blvd SW', 'Olympia, WA 98502']",47.0328618732964,-122.939798533916
129,6CA5Lw4trE9IMcLr7RJpAg,tradamerican;bars,Buzz's Tavern,False,+13608668335,5018 Mud Bay Rd NW,,,Olympia,98502,US,WA,"['5018 Mud Bay Rd NW', 'Olympia, WA 98502']",47.046771,-122.987697
130,vdW-q4_Nz2y3zzNNd8JQuw,gaybars,Jakes On Fourth,False,+13609563247,311 4th Ave E,,,Olympia,98501,US,WA,"['311 4th Ave E', 'Olympia, WA 98501']",47.04488,-122.8986
131,LCh9KoCCh49bBAX-BYzlKw,beerbar;cideries,Crosscut Taproom,False,+13609678100,21 W Cowlitz St,,,Castle Rock,98611,US,WA,"['21 W Cowlitz St', 'Castle Rock, WA 98611']",46.275347,-122.907956
132,mDEmH85Y22fYxycmdDn3FA,sportsbars;karaoke,White Horse Tavern,False,+13604584555,107 E Yelm Ave,,,Yelm,98597,US,WA,"['107 E Yelm Ave', 'Yelm, WA 98597']",46.9414291,-122.6062698
133,ybYR9HtBwJTyAKXNU3E1ZQ,bars;newamerican,Hannah's Bar & Grille,False,+13603579890,123 5th Ave SW,,,Olympia,98501,US,WA,"['123 5th Ave SW', 'Olympia, WA 98501']",47.043834478671,-122.90261994582
134,wb1jIY9Q9IvIvaz0TOng-A,wine_bars;beerbar,Rumors Wine Bar,False,+13604805030,430 Washington St SE,,,Olympia,98501,US,WA,"['430 Washington St SE', 'Olympia, WA 98501']",47.0442477,-122.9001943
135,PhmBvHhKUsTm36pzpYnXyg,cideries;beerbar;wine_bars,507 Taproom and Filling Station,False,+13609601729,106 Prairie Park St,,,Yelm,98597,US,WA,"['106 Prairie Park St', 'Yelm, WA 98597']",46.93909,-122.599785
136,0n6ITZ2a3Xaoe1pTrm4R-g,sportsbars;tradamerican;pizza,Junction Sports Bar and Grill,False,+13602737586,21000 Old Hwy 99 SW,,,Centralia,98531,US,WA,"['21000 Old Hwy 99 SW', 'Centralia, WA 98531']",46.7830933,-123.0108251
137,bzBwcBYqxgrMxk0MIkz_CQ,lounges;karaoke,The Viking Lounge,False,+13604561555,6318 Martin Way E,,,Lacey,98516,US,WA,"['6318 Martin Way E', 'Lacey, WA 98516']",47.0507354736328,-122.797653198242
138,tFIUuFD2YdzNlxYpVDu7CA,bars;tradamerican;breakfast_brunch,Roundup Restaurant & Lounge,False,+12538479110,30411 Mountain Hwy E,,,Graham,98338,US,WA,"['30411 Mountain Hwy E', 'Graham, WA 98338']",46.979549407959,-122.357284545898
139,YJH3MdA10UEYCZoi2Hhf4g,bars;tradamerican,Bob's Bar & Grill,False,+13604584004,108 E Yelm Ave,,,Yelm,98597,US,WA,"['108 E Yelm Ave', 'Yelm, WA 98597']",46.9417724609375,-122.605804443359
140,yCX4CawZQiORSKPzBUfEZg,divebars,Frank's Hide Away,False,+13607850331,108 E Walnut St,,,Winlock,98596,US,WA,"['108 E Walnut St', 'Winlock, WA 98596']",46.491174,-122.9363744
141,aKJOx3YsOqtHHfTKx5sunw,bars;newamerican,The Log Cabin Tavern,False,+13604383651,7035 Pacific Ave SE,,,Lacey,98503,US,WA,"['7035 Pacific Ave SE', 'Lacey, WA 98503']",47.0408913652102,-122.790482730663
142,rKa4pxCbAYg-YMRXL3rPBg,divebars,Walt's Place,False,+13604583221,35711 Hwy 507 S,,,McKenna,98558,US,WA,"['35711 Hwy 507 S', 'McKenna, WA 98558']",46.93395,-122.5586
143,N9xz3Kl7QreSlOXe7XQtuA,pubs,Shamrock Tavern,False,+13605777444,1131 15th Ave,,,Longview,98632,US,WA,"['1131 15th Ave', 'Longview, WA 98632']",46.1350158,-122.9382418
144,WFxdvXI1I8scsGd7m5yTLg,bars;tradamerican;seafood,The 4th Ave Tavern,False,+13607861444,210 E 4th Ave,,,Olympia,98501,US,WA,"['210 E 4th Ave', 'Olympia, WA 98501']",47.04528,-122.89996
145,AY3TpBJGOGNGxttQ5jG3qw,sportsbars;burgers;tradamerican,Applebee's Grill + Bar,False,+13603528500,2500 Capitol Mall Dr SW,,,Olympia,98502,US,WA,"['2500 Capitol Mall Dr SW', 'Olympia, WA 98502']",47.040158,-122.933172
146,YLqekwQL1QrnslJ2U0hOqQ,bars;newamerican,Scooters Bar and Grill,False,+13604252223,1107 Pacific Ave N,,,Kelso,98626,US,WA,"['1107 Pacific Ave N', 'Kelso, WA 98626']",46.1524595399951,-122.90983176056
147,nVQB6OOzJ2bTLIkJXtrm3A,beerbar,Antidote Tap House,False,+13602328283,1335 14th Ave,,,Longview,98632,US,WA,"['1335 14th Ave', 'Longview, WA 98632']",46.1382087,-122.9356606
148,AENPJznCp4V4jyHvPWJgWw,lounges,The Side Track Room,False,+13605692500,54106 Mt Hwy,,,Elbe,98330,US,WA,"['54106 Mt Hwy', 'Elbe, WA 98330']",46.765282,-122.194439
149,v10V-PCZdHb2L-Yn1FXJOQ,bars,McCoy's Tavern,False,+13603520696,418 4th Ave E,,,Olympia,98501,US,WA,"['418 4th Ave E', 'Olympia, WA 98501']",47.045440566668,-122.89723166437
150,m-E18TxW8rd9JviL9k4okA,sportsbars;tradamerican,The Office Bar & Grill,False,+13607545760,2030 Mottman Rd SW,,,Tumwater,98512,US,WA,"['2030 Mottman Rd SW', 'Tumwater, WA 98512']",47.02565,-122.92819
151,qDnmjpXHPQVYVd8Pxl-GOw,bars;newamerican,The Limit Bar & Grill,False,+13603308049,1500 S Gold St,,,Centralia,98531,US,WA,"['1500 S Gold St', 'Centralia, WA 98531']",46.6990933,-122.9568444
152,aq6afvb5gNoPAVw1eLCk2w,bars;burgers;fishnchips,Masthead Castaways,False,+13602328500,1124 Washington Way,,,Longview,98632,US,WA,"['1124 Washington Way', 'Longview, WA 98632']",46.142728,-122.931748
153,e0ZslFvYF0RwKRTZhS_1pw,tradamerican;sportsbars;burgers,Applebee's Grill + Bar,False,+13604148989,400 Triangle Ctr,,,Longview,98632,US,WA,"['400 Triangle Ctr', 'Longview, WA 98632']",46.14494,-122.932061
154,WJ81X6Qc9VoeRo7wA-G30Q,tradamerican;sportsbars,Silver Star Sports Bar & Grill,False,+13604238007,1032 Vandercook Way,,,Longview,98632,US,WA,"['1032 Vandercook Way', 'Longview, WA 98632']",46.14273,-122.92918
155,1MUrB1dPnnu01UR1OnnNMQ,tradamerican;breakfast_brunch;lounges,The Restaurant by Hotel RL Olympia,False,+13602520960,2300 Evergreen Park Dr SW,,Hotel RL Olympia,Olympia,98502,US,WA,"['2300 Evergreen Park Dr SW', 'Hotel RL Olympia', 'Olympia, WA 98502']",47.027596,-122.912318
156,bHb9oZa1SBkdpjnhAzJD5w,tradamerican;steak;cocktailbars,Newaukum Grill,False,+13607486895,153 Newaukum Golf Dr,,,Chehalis,98532,US,WA,"['153 Newaukum Golf Dr', 'Chehalis, WA 98532']",46.608673,-122.891687
157,2hDngIPxLmR3pnUxx7a10w,beer_and_wine;wine_bars;winetastingroom,Grand Vin Wine Merchants,False,+13603504896,1003 4th Ave E,,,Olympia,98506,US,WA,"['1003 4th Ave E', 'Olympia, WA 98506']",47.0456311582606,-122.889607558839
158,rdUhqYSwa7Mhm4flgMvVuw,tradamerican;bars,Uncle Sam's American Bar & Grill,False,+12534482390,16003 Pacific Ave,,,Spanaway,98387,US,WA,"['16003 Pacific Ave', 'Spanaway, WA 98387']",47.11151,-122.43436
159,YN3f_yBUJYwlwpmOAZEsOw,divebars,Landmark Tavern,False,+13602642155,313 Sussex Ave W,,,Tenino,98589,US,WA,"['313 Sussex Ave W', 'Tenino, WA 98589']",46.85686,-122.85376
160,tpyh7UdFQH_Qeh7nmXSRiw,sportsbars;pubs,Spar Pole,False,+13608938937,120 Washington Ave S,,,Orting,98360,US,WA,"['120 Washington Ave S', 'Orting, WA 98360']",47.097584,-122.203255
161,barzd4d6_s49mNmpjAD2Lw,comedyclubs;divebars,Union Square,False,+13603535940,1132 Washington Way,,,Longview,98632,US,WA,"['1132 Washington Way', 'Longview, WA 98632']",46.1425626422546,-122.932034379762
162,-SRBmIbdnwppOVesrS0fXg,newamerican;pubs,Cloud Bar,False,+13606736970,215 Hendrickson Dr,,,Kalama,98625,US,WA,"['215 Hendrickson Dr', 'Kalama, WA 98625']",46.0049729994526,-122.847152366667
163,yV-CN2haZmdV3J2RiCq-zg,bars,Goble Tavern,False,+15035564090,70255 Columbia River Hwy,,,Rainier,97048,US,OR,"['70255 Columbia River Hwy', 'Rainier, OR 97048']",46.013998,-122.875448
164,KEKNTULfl5wCUNu-UN3q9g,pubs;karaoke,Triangle Tavern ,False,+13603535229,934 Washington Way,,,Longview,98632,US,WA,"['934 Washington Way', 'Longview, WA 98632']",46.1442,-122.92846
165,G21uLwPa3MmWczhmhqw-5g,pubs;tradamerican,Littlerock Tavern,False,+13607539952,6520 128th Ave SW,,,Olympia,98512,US,WA,"['6520 128th Ave SW', 'Olympia, WA 98512']",46.9020652770996,-123.021430969238
166,gAKaQEcwTTKB1EpvbKpcFA,divebars;hotdogs,China Clipper Cafe,False,+13609436300,402 4th Ave E,,,Olympia,98501,US,WA,"['402 4th Ave E', 'Olympia, WA 98501']",47.045444,-122.897758
167,EYUB3SoD_xyP4o318pZHoA,bars;newamerican,2 Mile House Pub & Eatery,False,+13607539964,4221 Harrison Ave NW,,,Olympia,98502,US,WA,"['4221 Harrison Ave NW', 'Olympia, WA 98502']",47.0469134,-122.955577
168,7cwB0lno2yWYG0TTMtHb5Q,divebars,Oaktree II,False,+12538473818,18299 Pacific Ave S,,,Spanaway,98387,US,WA,"['18299 Pacific Ave S', 'Spanaway, WA 98387']",47.0909192,-122.4348369
169,G2dagBmJweKyOjwXSwl8dA,pubs,The Oasis Bar,False,+13609672341,123 Front St,,,Castle Rock,98611,US,WA,"['123 Front St', 'Castle Rock, WA 98611']",46.27496,-122.9082
170,choA_uRRwjsxSlX_YajsWQ,burgers;pubs,TJ's Pub,False,+12535350218,16701 Pacific Ave S,,,Spanaway,98387,US,WA,"['16701 Pacific Ave S', 'Spanaway, WA 98387']",47.10483,-122.43442
171,0UcbzCL-6BVokJslHDlGqQ,wine_bars;beerbar,The Twisted Grapevine,False,+13606739300,134 A North First St,,,Kalama,98625,US,WA,"['134 A North First St', 'Kalama, WA 98625']",46.00818,-122.84415
172,_4dexB04sss1saWMrOjiXA,bars,Exchange Tavern,False,+12535318833,16117 Park Ave S,,,Spanaway,98387,US,WA,"['16117 Park Ave S', 'Spanaway, WA 98387']",47.1100982,-122.4393976
173,JHn2MyaScHRAVZKRbz-vgQ,lounges;newamerican,Character's Corner,False,+13608669904,6620 Sexton Dr NW,,,Olympia,98502,US,WA,"['6620 Sexton Dr NW', 'Olympia, WA 98502']",47.0796585083008,-123.02123260498
174,rymfBsyiXTFstp5IrcFUAA,sportsbars;tradamerican,Bub's Pub Sports Bar & Grill,False,+13607368024,537 N Tower Ave,,,Centralia,98531,US,WA,"['537 N Tower Ave', 'Centralia, WA 98531']",46.72129,-122.95261
175,m9b60iV6RnewDO-Dn8tN_g,beerbar,Dooby's Restaurant,False,+13604948100,12970 US Hwy 12,,,Packwood,98361,US,WA,"['12970 US Hwy 12', 'Packwood, WA 98361']",46.59971,-121.677461
176,dXENpCsdPkGiGrsTneVujw,bars;tradamerican,Frankie's Sports Bar & Grill,False,+13604121330,3663 Pacific Ave SE,Ste D,,Olympia,98501,US,WA,"['3663 Pacific Ave SE', 'Ste D', 'Olympia, WA 98501']",47.0408096313477,-122.842079162598
177,iSVQnC1FtEzD4vJkx_Taog,tradamerican;bars,Joe's Place,False,+13602783599,118 Main St,,,Bucoda,98530,US,WA,"['118 Main St', 'Bucoda, WA 98530']",46.7988962671513,-122.868728041649
178,6ok4O1PxKYj5403FHIsP-w,comfortfood;bars;tradamerican,Bullwheel,False,+13606633085,33916 Crystal Mountain Blvd,,,Enumclaw,98022,US,WA,"['33916 Crystal Mountain Blvd', 'Enumclaw, WA 98022']",46.935312,-121.4747533
179,FfXLNZ4s6kL_oBFYn7RNSQ,divebars,Tim's Bar And Grill,False,+13606362627,213 Allen St,,,Kelso,98626,US,WA,"['213 Allen St', 'Kelso, WA 98626']",46.14503,-122.91042
180,1J5-DovnECy1B4uaNzRX1g,chinese;lounges;tradamerican,The Regent,False,+13604238680,3353 Washington Way,,,Longview,98632,US,WA,"['3353 Washington Way', 'Longview, WA 98632']",46.13117,-122.97493
181,8kHY-IYlG_qCfXPUYkHVDA,seafood;tradamerican;bars,Seventeen51 Restaurant & Bistro,False,+13604386623,1751 Circle Ln SE,,,Lacey,98503,US,WA,"['1751 Circle Ln SE', 'Lacey, WA 98503']",47.03088,-122.8318
182,WIyFAiFWi2ZPx3S26b-usw,newamerican;bars,Blue Sky Bar & Grill,False,+13605783889,360 Oregon Way,,,Longview,98632,US,WA,"['360 Oregon Way', 'Longview, WA 98632']",46.120647,-122.946244
183,RRushHsqapBOjzIA3zIPlA,lounges;tradamerican;karaoke,O'Malley's Lounge,False,+13609438807,2200 Garfield Ave NW,,,Olympia,98502,US,WA,"['2200 Garfield Ave NW', 'Olympia, WA 98502']",47.0473,-122.92812
184,3rGZiih9J0Utl8jPC-1SHQ,divebars,Maltease Bar,False,,1st & Pacific,,,Kelso,98626,US,WA,"['1st & Pacific', 'Kelso, WA 98626']",46.1429881805519,-122.91270449222
185,Qme01jjev6b__KvpLPdEkA,bars,Boulevard Tavern,False,+13609437080,2221 Pacific Ave SW,,,Olympia,98501,US,WA,"['2221 Pacific Ave SW', 'Olympia, WA 98501']",47.04557,-122.86947
186,LliSkPR8Ge1Rd-sND3CqZQ,bars,Samuel Adams Brewhouse,False,+12539642012,2414 S 7th St,,,Joint Base Lewis-McChord,98433,US,WA,"['2414 S 7th St', 'Joint Base Lewis-McChord, WA 98433']",47.0853278097215,-122.604719003952
187,juf8gOxDCJOFMZxcGfdW_g,pubs;beer_and_wine;newamerican,Roy Pub And Eatery,False,,104 McNaught Rd S,,,Roy,98580,US,WA,"['104 McNaught Rd S', 'Roy, WA 98580']",47.004068121314,-122.542838975787
188,2JkGP4RrDfpwHDagvRqvOA,bars;tradamerican,Evergreen Cafe,False,+15035569935,115-117 1st St East,,,Rainier,97048,US,OR,"['115-117 1st St East', 'Rainier, OR 97048']",46.0893927916625,-122.935754993604
189,7RbaIqMxksfPj-75yXWl_A,lounges,The Lounge by Hotel RL,False,+13609434000,2300 Evergreen Park Dr,,,Olympia,98502,US,WA,"['2300 Evergreen Park Dr', 'Olympia, WA 98502']",47.027622,-122.912321
190,woavXALmhEP69eQEFvQ0xA,bars;danceclubs,The Society,False,+13603521230,120 4th Ave E,,,Olympia,98501,US,WA,"['120 4th Ave E', 'Olympia, WA 98501']",47.0450429576389,-122.900902479887
191,a-JdULRrEGgmZ2nuqkJdFw,cocktailbars,Rooftop Bar,False,,1451 NW Airport Rd,,,Chehalis,98532,US,WA,"['1451 NW Airport Rd', 'Chehalis, WA 98532']",46.6749572753906,-122.99047088623
192,DQYtqq_j4HXHf-JQjhD3JQ,burgers;bars,Coho Sports Pub,False,+13604125000,12819 Yelm Hwy SE,,,Olympia,98513,US,WA,"['12819 Yelm Hwy SE', 'Olympia, WA 98513']",47.00177,-122.67035
193,bDJRrLU-W8ClW9fVmJlVew,newamerican;bars,Alston Pub & Grub,False,+15035569753,25196 Alston Rd,,,Rainier,97048,US,OR,"['25196 Alston Rd', 'Rainier, OR 97048']",46.0991593,-123.0490775
194,vgoUlZAkm10XkzIac_v7sQ,tradamerican;beerbar,Ol'pastime Tavern,False,+15035562442,105 A St E,,,Rainier,97048,US,OR,"['105 A St E', 'Rainier, OR 97048']",46.090046,-122.9353329
195,orzEbKA7fVuWnflLLLIcyA,bars;communitycenters;bingo,Orting Eagles,False,+13608933480,112 Bridge St S,,,Orting,98360,US,WA,"['112 Bridge St S', 'Orting, WA 98360']",47.09528,-122.20193
196,tSy0L6KIzTf2gxF8cpAHdQ,sportsbars,Cue & Cushion Sports Bar,False,+12535361531,14905 Pacific Ave S,,,Tacoma,98444,US,WA,"['14905 Pacific Ave S', 'Tacoma, WA 98444']",47.1215515136719,-122.434196472168
197,isLwQFTeb8eoTTHsgwJqAA,bars;seafood;chicken_wings,Nicole's Bar,False,+13609157968,109 Legion Way SW,,,Olympia,98501,US,WA,"['109 Legion Way SW', 'Olympia, WA 98501']",47.042924,-122.901893
198,VQENaibMaZVb_NFas59pjQ,wine_bars;seafood;steak,Michaels on the Lake,False,+15097651611,910 W Broadway Ave,,,Moses Lake,98837,US,WA,"['910 W Broadway Ave', 'Moses Lake, WA 98837']",47.12614,-119.28955
199,cipeLPH5zugBAMxkzf_Urw,bars,Ripple Tavern,False,+15097653942,518 E Wheeler Rd,,,Moses Lake,98837,US,WA,"['518 E Wheeler Rd', 'Moses Lake, WA 98837']",47.13147,-119.26916
200,4App7xpZKhHslzGLN6E3NQ,divebars,Broadway Bar,False,+15097645535,302 W Broadway Ave,,,Moses Lake,98837,US,WA,"['302 W Broadway Ave', 'Moses Lake, WA 98837']",47.129902,-119.282017
201,8RHpNEFwiQIn67ApBBs0PQ,whiskeybars,Moses Hole,False,,210 S Gumwood St,,,Moses Lake,98837,US,WA,"['210 S Gumwood St', 'Moses Lake, WA 98837']",47.1262540129824,-119.287112272422
202,7YesSH1x-HlJFCsur4yiGg,bars,Danny's Tavern,False,+15097641906,120 W Broadway Ave,,,Moses Lake,98837,US,WA,"['120 W Broadway Ave', 'Moses Lake, WA 98837']",47.130844,-119.280143
203,shD2f4V5WWE868Dk0WzHNQ,pubs;poolhalls,Midway Pub,False,+15097640190,204 W Broadway Ave,,,Moses Lake,98837,US,WA,"['204 W Broadway Ave', 'Moses Lake, WA 98837']",47.13058,-119.28082
204,qwhi0Yojw8B_JuujJ9Beyw,pubs,Neppel's Dockside Pub,False,+15097640190,204 W Broadway,,,Moses Lake,98837,US,WA,"['204 W Broadway', 'Moses Lake, WA 98837']",47.1305217,-119.2806873
205,nA2E3nbqtj84MqSgScQkDA,lounges;steak,Paradise Lake Front Restaurant & Lounge,False,+15097659211,3000 W Marina Dr,,,Moses Lake,98837,US,WA,"['3000 W Marina Dr', 'Moses Lake, WA 98837']",47.10307,-119.31734
206,TW62K1LhF4q84pmrRltiBQ,lounges,Paradise Lakefront Restaurant & Lounge,False,,2928 W Marina Dr,,,Moses Lake,98837,US,WA,"['2928 W Marina Dr', 'Moses Lake, WA 98837']",47.104194,-119.316452
207,sMosipAXYQ2luiLp_5hNqg,tradamerican;bars;burgers,Pioneer Bar & Grill,False,+13609833983,148 State St,,,Mossyrock,98564,US,WA,"['148 State St', 'Mossyrock, WA 98564']",46.5290997185234,-122.482151985168
208,_C3swJZ692t9FHT3pM3c9g,lounges;newamerican;breakfast_brunch,Papa Bears Restaurant and Lounge,False,+13604966411,207 Main Ave,,,Morton,98356,US,WA,"['207 Main Ave', 'Morton, WA 98356']",46.5582633570594,-122.27549681527
209,kHQsQTy3ahC7Fiw6MBs_iA,pubs,Elbe Tavern,False,+13605692545,54312 182nd Ave Ct E,,,Elbe,98330,US,WA,"['54312 182nd Ave Ct E', 'Elbe, WA 98330']",46.763384,-122.192091
210,zPaUpvj0qt46UzR_k9PEmw,bars;burgers,All In,False,+13609784631,1783 Hwy 508,,,Onalaska,98570,US,WA,"['1783 Hwy 508', 'Onalaska, WA 98570']",46.575817,-122.7214
211,K3LrNdxofSaRBKkKe3ROMA,bars;restaurants,Bucksnort,False,+13604965355,198 Main Ave,,,Morton,98356,US,WA,"['198 Main Ave', 'Morton, WA 98356']",46.55841,-122.274877
212,BxkR1P2XYcXXy_zPWtEZzQ,bars,The Lakehouse Restaurant & Bar,False,+13609850071,350 Hadaller Rd,,,Mossyrock,98564,US,WA,"['350 Hadaller Rd', 'Mossyrock, WA 98564']",46.5024299,-122.57304
213,PxVZh8T-21XCcRlwkzqdjw,divebars,Headquarters Tavern,False,+13604923261,112 E Front St,,,Mineral,98355,US,WA,"['112 E Front St', 'Mineral, WA 98355']",46.7167129516602,-122.177841186523
214,t7-BE-OcghVniAsJ1shlGw,divebars,Brown Shack Tavern,False,+13609852603,155 Salkum Rd,,,Salkum,98582,US,WA,"['155 Salkum Rd', 'Salkum, WA 98582']",46.5319728592835,-122.6263549
215,bHb9oZa1SBkdpjnhAzJD5w,tradamerican;steak;cocktailbars,Newaukum Grill,False,+13607486895,153 Newaukum Golf Dr,,,Chehalis,98532,US,WA,"['153 Newaukum Golf Dr', 'Chehalis, WA 98532']",46.608673,-122.891687
216,iSVQnC1FtEzD4vJkx_Taog,tradamerican;bars,Joe's Place,False,+13602783599,118 Main St,,,Bucoda,98530,US,WA,"['118 Main St', 'Bucoda, WA 98530']",46.7988962671513,-122.868728041649
217,AENPJznCp4V4jyHvPWJgWw,lounges,The Side Track Room,False,+13605692500,54106 Mt Hwy,,,Elbe,98330,US,WA,"['54106 Mt Hwy', 'Elbe, WA 98330']",46.765282,-122.194439
218,gzTnGcpzw8m0luuY6Sck8A,mexican;beerbar;beergardens,Jorge's Kitchen,False,+13604246838,1725 E Blackburn Rd,,,Mount Vernon,98274,US,WA,"['1725 E Blackburn Rd', 'Mount Vernon, WA 98274']",48.40665,-122.31953
219,4auLqiU6UGuDs3zRE3FW-A,coffee;wine_bars;wraps,Ristretto Coffee Lounge & Wine Bar,False,+13603360951,416 S 1st St,,,Mount Vernon,98273,US,WA,"['416 S 1st St', 'Mount Vernon, WA 98273']",48.41957,-122.33738
220,siOYuCiZFg1gPkmLmCeU8A,distilleries;newamerican;cocktailbars,Valley Shine Distillery,False,+13605884086,320 S1st St,,,Mount Vernon,98273,US,WA,"['320 S1st St', 'Mount Vernon, WA 98273']",48.4202,-122.33703
221,qMMUBzhArKwN34VxlAqwHQ,gluten_free;tradamerican;pubs,Trumpeter Public House,False,+13605884515,416 Myrtle St,,,Mount Vernon,98273,US,WA,"['416 Myrtle St', 'Mount Vernon, WA 98273']",48.418773651123,-122.339050292969
222,rC5d4dGo_Hxya0hPCpJ3zw,tradamerican;sandwiches;pubs,The Porterhouse,False,+13603369989,416 W Gates St,,,Mount Vernon,98273,US,WA,"['416 W Gates St', 'Mount Vernon, WA 98273']",48.4194183349609,-122.338569641113
223,YJTqvTBjLvG2LP0e77-Fpw,sportsbars;tradamerican,Train Wreck Bar,False,+13607550582,427 E Fairhaven Ave,,,Burlington,98233,US,WA,"['427 E Fairhaven Ave', 'Burlington, WA 98233']",48.4758262634277,-122.329452514648
224,G2BPrQ7ygfsmhzgTnHZjGw,italian;tradamerican;lounges,Market Street Bistro,False,+13608485285,2300 Market St,,,Mount Vernon,98273,US,WA,"['2300 Market St', 'Mount Vernon, WA 98273']",48.442093549804,-122.336349785328
225,f91W2WRXLYlfawLDmI6icA,lounges;cafes,The Mount Vernon Cafe & Lounge,False,+13603362613,225 S 1st St,,,Mount Vernon,98273,US,WA,"['225 S 1st St', 'Mount Vernon, WA 98273']",48.42064,-122.337358
226,HB56re8y-33cSYX5BRaHYw,mexican;bars;vegetarian,El Gitano,False,+13604245514,1810 Riverside Dr,,,Mount Vernon,98273,US,WA,"['1810 Riverside Dr', 'Mount Vernon, WA 98273']",48.43715,-122.33466
227,0Rww0TEQ1ukY-vHGJFjrWQ,bars;tradamerican,Draft Pic's Sports Bar & Grille,False,+13603363626,516 S 1st St,,,Mount Vernon,98273,US,WA,"['516 S 1st St', 'Mount Vernon, WA 98273']",48.4188815591074,-122.337952144012
228,fpADz5aB8g-hulSmipiZcw,festivals;beerbar;wine_bars,Skagit Wine & Beer Festival,False,,4800 Eaglemont Dr,,,Mount Vernon,98274,US,WA,"['4800 Eaglemont Dr', 'Mount Vernon, WA 98274']",48.4011650644983,-122.277014963329
229,CQyD1bOVikMK1T822Sd9pg,coffee;pizza;pubs,Railroad Pub and Pizza,False,+13609822133,122 Spruce St,,,Burlington,98233,US,WA,"['122 Spruce St', 'Burlington, WA 98233']",48.474993,-122.330481
230,lw1i1VubP6nhZYPLD9gKRQ,sportsbars;newamerican,The Sports Keg Restaurant Lounge,False,+13607577828,1660 S Burlington Blvd,,,Burlington,98233,US,WA,"['1660 S Burlington Blvd', 'Burlington, WA 98233']",48.4545669555664,-122.334854125977
231,CQUpPxOii7p7x52gqlsCBA,pubs;burgers;gastropubs,Gentlemen Gene's,False,+13604244363,1400 Parker Way,,,Mount Vernon,98273,US,WA,"['1400 Parker Way', 'Mount Vernon, WA 98273']",48.433052,-122.321281
232,pUdEv7uWVL8CEG2vZMmtnA,newamerican;diners;bars,Fireweed Terrace,False,+13604281954,4800 Eaglemont Dr,,,Mount Vernon,98274,US,WA,"['4800 Eaglemont Dr', 'Mount Vernon, WA 98274']",48.4011929,-122.2770555
233,CqhUwyQi-TnnUE3wCRU-AA,bars,The Town Pump,False,+13603369607,1903 S 3rd St,,,Mount Vernon,98273,US,WA,"['1903 S 3rd St', 'Mount Vernon, WA 98273']",48.407562,-122.337036
234,JyJedPJs-n0EI9ZHmKMnFQ,wine_bars;winetastingroom,Silver Bell Winery,False,+13607579463,1724 E Rio Vista Ave,,,Burlington,98233,US,WA,"['1724 E Rio Vista Ave', 'Burlington, WA 98233']",48.471379,-122.310306
235,S0jiI5w-z2Vi-gZilwilxg,bars;newamerican,Evelyn's Tavern,False,+13603991321,12667 State Rt 9,,,Clearlake,98235,US,WA,"['12667 State Rt 9', 'Clearlake, WA 98235']",48.4618301391602,-122.233711242676
236,slSViZm_SSYX1k2tRTD0Sw,beerbar;brewpubs,Garden Path Fermentation,False,+13605038956,11653 Higgins Airport Way,,,Burlington,98233,US,WA,"['11653 Higgins Airport Way', 'Burlington, WA 98233']",48.47649,-122.41795
237,eZrQpWICiOt9pX504mFNjw,tradamerican;sportsbars;burgers,Applebee's Grill + Bar,False,+13607571414,188 Cascade Mall Dr,,,Burlington,98233,US,WA,"['188 Cascade Mall Dr', 'Burlington, WA 98233']",48.4602761,-122.336417
238,Aq7AxdFA4Srtv8sCZB6Cbw,breweries;beerbar,Chuckanut Brewery - South Nut Tap Room,False,+13607523377,11937 Higgins Airport Way,,,Burlington,98233,US,WA,"['11937 Higgins Airport Way', 'Burlington, WA 98233']",48.4731733366276,-122.411708123982
239,nQ2EW3eEsTQMRtbsx1OnjQ,sportsbars,Gene's Tavern,False,+13607559124,127 N Oak St,,,Burlington,98233,US,WA,"['127 N Oak St', 'Burlington, WA 98233']",48.4761,-122.32948
240,9CK4Wo8VSYCg1tRjcrULcg,pizza;sportsbars;italian,Sorelli Pizza,False,+14256708600,22402 44th Ave W,,,Mountlake Terrace,98043,US,WA,"['22402 44th Ave W', 'Mountlake Terrace, WA 98043']",47.795704,-122.293131
241,XmcRTngVgJ2NCMh-p9WddA,pubs;breweries,Big E Ales,False,+14256727051,5030 208th St SW,Ste A,,Lynnwood,98036,US,WA,"['5030 208th St SW', 'Ste A', 'Lynnwood, WA 98036']",47.809864,-122.302111
242,wcWUNCj977OJrslD1lU2iQ,asianfusion;tapasmallplates;cocktailbars,Bar Dojo,False,+14259677267,8404 Bowdoin Way,,,Edmonds,98026,US,WA,"['8404 Bowdoin Way', 'Edmonds, WA 98026']",47.8063165675953,-122.346773526859
243,o30N0VbO2KzyXZO_OTB0iQ,thai;bars,Silver Spoon Thai Restaurant & Bar,False,+14259673255,3828 196th St SW,,,Lynnwood,98036,US,WA,"['3828 196th St SW', 'Lynnwood, WA 98036']",47.82044,-122.28532
244,EmW-9W4nH7_6NokTMUTseg,pizza;bars;tradamerican,The Rock Wood Fired Pizza,False,+14256976007,4010 196th St SW,,,Lynnwood,98036,US,WA,"['4010 196th St SW', 'Lynnwood, WA 98036']",47.82047,-122.28752
245,R7KVJdxrDyDq8_j5ZCJSXA,bbq;bars;burgers,Moonshine BBQ,False,+14256729592,4911 196th St SW,,,Lynnwood,98036,US,WA,"['4911 196th St SW', 'Lynnwood, WA 98036']",47.82142,-122.29968
246,840-mOi5qFGOqXsXbDf2uQ,pubs;icecream;toys,Around the Table Game Pub,False,+14255822745,7600 196th St SW,Ste 300,,Lynnwood,98036,US,WA,"['7600 196th St SW', 'Ste 300', 'Lynnwood, WA 98036']",47.8210467,-122.3367089
247,aNtWVhbbXQKHszbCjqLHIA,mexican;bars,MAZATLAN RESTAURANT,False,+14257441525,6003 244th St SW,,,Mountlake Terrace,98043,US,WA,"['6003 244th St SW', 'Mountlake Terrace, WA 98043']",47.77792,-122.31308
248,99Wsk46_hCF11sD-1zUw0g,mexican;beerbar,Azteca Mexican Restaurant,False,+14256720601,22003 66th Ave W,,Terrace Village Shopping Center,Mountlake Terrace,98043,US,WA,"['22003 66th Ave W', 'Terrace Village Shopping Center', 'Mountlake Terrace, WA 98043']",47.798887,-122.321223
249,WXAYHEfdAscFbFKm4vpptw,venues;arcades;beerbar,Another Castle Arcade,False,+14259677043,23303 Hwy 99,Ste C,,Edmonds,98026,US,WA,"['23303 Hwy 99', 'Ste C', 'Edmonds, WA 98026']",47.787625,-122.3401817
250,uns-v0s0WjGw_sDLCioU_g,pubs;sportsbars;tradamerican,Ringers Pub & Grill,False,+14257716072,22803 44th Ave W,STe B3,,Mountlake Terrace,98043,US,WA,"['22803 44th Ave W', 'STe B3', 'Mountlake Terrace, WA 98043']",47.79059,-122.2904817
251,feWMsVIc1b4uHkz8tVfa7Q,pubs,Getaway Tavern,False,+14257718478,24309 56th Ave W,,,Mountlake Terrace,98043,US,WA,"['24309 56th Ave W', 'Mountlake Terrace, WA 98043']",47.77839,-122.30791
252,XUKjPpLdP69oxZ3hKv5QaA,sportsbars;newamerican;karaoke,MVP's,False,+14252458053,22921 Hwy 99,,,Edmonds,98026,US,WA,"['22921 Hwy 99', 'Edmonds, WA 98026']",47.791249,-122.337101
253,zgDr6Bk8VmQFKbtl4Oh1sA,pubs;venues,Bulldog Saloon,False,+14256402700,19920 Hwy 99,,,Lynnwood,98036,US,WA,"['19920 Hwy 99', 'Lynnwood, WA 98036']",47.81812,-122.31849
254,0SnBBkesaDWSGNEdiY_Sug,casinos;bars;tradamerican,Red Dragon Poker,False,+14252754444,21917 Hwy 99,,,Mountlake Terrace,98043,US,WA,"['21917 Hwy 99', 'Mountlake Terrace, WA 98043']",47.800155,-122.330995037434
255,rXu-XUdnTUxFQQT4Fw0OAA,casinos;bars,Crazy Moose Casino Mountlake Terrace,False,+14256724770,22003 66th Ave W,,,Mountlake Terrace,98043,US,WA,"['22003 66th Ave W', 'Mountlake Terrace, WA 98043']",47.79879,-122.32126
256,jy2UjqzDeS77fZnQdImIBw,divebars,Darrell's Tavern,False,+12065426688,18041 Aurora Ave N,,,North Seattle,98133,US,WA,"['18041 Aurora Ave N', 'North Seattle, WA 98133']",47.76065,-122.34687
257,z-S3Siv9-aGEChNqHPplfw,pizza;beerbar;tapasmallplates,Local 104,False,+12063094104,18498 Ballinger Way NE,,,Lake Forest Park,98155,US,WA,"['18498 Ballinger Way NE', 'Lake Forest Park, WA 98155']",47.7630036735538,-122.291468272924
258,JO-YZXd9Ruq5U5E3A0NsxA,bars,Cozy Inn Tavern,False,+14254864321,6215 NE Bothell Way,,,Kenmore,98028,US,WA,"['6215 NE Bothell Way', 'Kenmore, WA 98028']",47.75827,-122.25956
259,vFYYTnW0fZGO0MJ-AyO4ug,lounges;divebars,Harvey's Lounge,False,+14257781755,21116 Hwy 99,,,Edmonds,98026,US,WA,"['21116 Hwy 99', 'Edmonds, WA 98026']",47.80746,-122.32678
260,BWSLsuL8zY4-0Q2iyP4QcA,divebars,Woody's Bar,False,+12065428781,19508 Aurora Ave N,,,Shoreline,98133,US,WA,"['19508 Aurora Ave N', 'Shoreline, WA 98133']",47.7709199,-122.34572
261,jI05xxgQwFXaB9hJr_gFNA,tradamerican;sportsbars;burgers,Applebee's Grill + Bar,False,+14256722626,4626 196th St SW,,,Lynnwood,98036,US,WA,"['4626 196th St SW', 'Lynnwood, WA 98036']",47.820628,-122.296433
262,nSG5U4Pn0GU9QgFc6ezfOw,golf;sportsbars,Back9 Parlor,False,+14255829813,3105 Alderwood Mall Blvd,Ste A,,Lynnwood,98036,US,WA,"['3105 Alderwood Mall Blvd', 'Ste A', 'Lynnwood, WA 98036']",47.82422,-122.27629
263,h4-VMamFgIgNoJHMLpvmSQ,newamerican;lounges,Cascades,False,+14257752500,20610 44th Ave W,,,Lynnwood,98036,US,WA,"['20610 44th Ave W', 'Lynnwood, WA 98036']",47.81133,-122.29391
264,eqydUuMUDk_40eItkbD00w,sportsbars;newamerican;pubs,Just Left Pub & Grill,False,+14257767379,4308 198th St SW,,,Lynnwood,98036,US,WA,"['4308 198th St SW', 'Lynnwood, WA 98036']",47.8189430236816,-122.291091918945
265,n6rJxfMaTLKa46KJbpUOmA,sportsbars;divebars,Pub 44,False,+14255828808,19720 44th Ave W,,,Lynnwood,98036,US,WA,"['19720 44th Ave W', 'Lynnwood, WA 98036']",47.8197826531793,-122.293571233749
266,9-LR844F-PqfUeH5WRvgJw,sportsbars,Savage Moose Sports Pub,False,+14254868021,18018 61st Ave NE,,,Kenmore,98028,US,WA,"['18018 61st Ave NE', 'Kenmore, WA 98028']",47.75911,-122.26136
267,p2zUZ_3rNTAumAPm1iYlNQ,pubs,O'houlie's Pub,False,+14257761833,21919 66th Ave W,,,Mountlake Terrace,98043,US,WA,"['21919 66th Ave W', 'Mountlake Terrace, WA 98043']",47.799999,-122.321266
268,RP0h4CQhRhvq3I1hiKM9hQ,bartenders;desserts;cocktailbars,Happy Camper Cocktail Company,False,+12069488261,1708 Franklin St,,,Enumclaw,98022,US,WA,"['1708 Franklin St', 'Enumclaw, WA 98022']",47.206189,-121.9929368
269,KGCy08v_nAoPcZny3VL0RA,tradamerican;bars,Cowiche Canyon Kitchen & Icehouse Bar,False,+15094572007,202 E Yakima Ave,,,Yakima,98901,US,WA,"['202 E Yakima Ave', 'Yakima, WA 98901']",46.6024496485905,-120.50418819638
270,e8QZ7Aj5ZNoZutcR4EAf2Q,desserts;bars;newamerican,Crafted,False,+15094262220,22 N 1st St,,,Yakima,98901,US,WA,"['22 N 1st St', 'Yakima, WA 98901']",46.603193,-120.506846
271,M3d4kpbFhlg39WFMYvbzIQ,indpak;pizza;bars,Taj Palace,False,+15094941001,2710 W Nob Hill Blvd,,,Yakima,98902,US,WA,"['2710 W Nob Hill Blvd', 'Yakima, WA 98902']",46.5851,-120.54644
272,CU5UzK2syqq7_dO1yjj0rg,newamerican;cocktailbars,Second Street Grill,False,+15094691486,28 N 2nd St,,,Yakima,98901,US,WA,"['28 N 2nd St', 'Yakima, WA 98901']",46.6034545898438,-120.505516052246
273,9u5VFabKdf9-gFy0OYUjTA,dimsum;noodles;cocktailbars,EZ Tiger,False,+15095711977,222 E Chestnut Ave,,,Yakima,98901,US,WA,"['222 E Chestnut Ave', 'Yakima, WA 98901']",46.6014191008011,-120.502847501852
274,KgzGiIG_H-PC4LQquvKaMA,wine_bars;musicvenues;winetastingroom,Gilbert Cellars,False,+15092499048,5 N Front St,,,Yakima,98901,US,WA,"['5 N Front St', 'Yakima, WA 98901']",46.602186,-120.507534
275,DlFNm5HvhtmotiWnTOMkrA,bars,Bill's Place,False,+15095759513,206 S 3rd Ave,,,Yakima,98902,US,WA,"['206 S 3rd Ave', 'Yakima, WA 98902']",46.5977107,-120.511515
276,PZhHiEjCU_TQ1IQkaPtOfQ,sportsbars;tradamerican,Yakima Sports Center,False,+15094534647,214 E Yakima Ave,,,Yakima,98901,US,WA,"['214 E Yakima Ave', 'Yakima, WA 98901']",46.60255,-120.5033
277,zPIoL_tmT0MOJq6xqBeu3Q,wine_bars;italian;pizza,Valley Italian Pizza And Pasta,False,+15095711599,2304 S 1st St,,,Yakima,98903,US,WA,"['2304 S 1st St', 'Yakima, WA 98903']",46.56892,-120.4872
278,FPUx0WrmrAZiI1v9rgdb_A,cocktailbars;chicken_wings;burgers,Purrr,False,+15093676680,308 E Yakima Ave,,,Yakima,98901,US,WA,"['308 E Yakima Ave', 'Yakima, WA 98901']",46.60289,-120.502306
279,PzFd5Dif0KhOUtfXkJVmsg,pubs;sportsbars;tradamerican,Norm's of Yakima,False,+15099021505,5 N Front St,,,Yakima,98901,US,WA,"['5 N Front St', 'Yakima, WA 98901']",46.60224,-120.50746
280,0pJ_RznUxDlXll1raKGgJA,mexican;wine_bars,Xochimilco Tequila Bar,False,+15099669000,5110 Tieton Dr,Ste 270,,Yakima,98908,US,WA,"['5110 Tieton Dr', 'Ste 270', 'Yakima, WA 98908']",46.59196,-120.57807
281,Gp5IhcT9D4kO9a63gBGXRg,bars;newamerican,WaterFire Restaurant & Bar,False,+15098531057,4000 Creekside Lp,,,Yakima,98908,US,WA,"['4000 Creekside Lp', 'Yakima, WA 98908']",46.5758901,-120.5626116
282,cAI24iU3KZuSPCRMopfOWA,bars;breakfast_brunch;hotdogs,The Barn Door,False,+15099028500,108 S Iler St,,,Moxee,98936,US,WA,"['108 S Iler St', 'Moxee, WA 98936']",46.5539177852483,-120.383699610829
283,aes4K-jM1Rfv9ffUYPccyQ,irish;pubs,McGuire's Irish Restaurant & Pub,False,+15099667440,4807 Tieton Dr,,,Yakima,98908,US,WA,"['4807 Tieton Dr', 'Yakima, WA 98908']",46.59266,-120.5736
284,fveWusBWMep7B3pqlTbnAg,seafood;steak;bars,SeaGalley Restaurant,False,+15095751216,25 E Valley Mall Blvd,,,Union Gap,98903,US,WA,"['25 E Valley Mall Blvd', 'Union Gap, WA 98903']",46.56356,-120.47471
285,o0uhJQ1Oo33PKIsICQ5-EA,tradamerican;beerbar,Major's Burgers- Lincoln,False,+15092251475,1705 W Lincoln Ave,,,Yakima,98902,US,WA,"['1705 W Lincoln Ave', 'Yakima, WA 98902']",46.60381,-120.53217
286,TwwDdv2e-4ErW8srygEFMA,sportsbars;burgers;sandwiches,Tailgaters Bar & Grill,False,+15096973100,110 E 3rd Ave,,Viking Village,Selah,98942,US,WA,"['110 E 3rd Ave', 'Viking Village', 'Selah, WA 98942']",46.650464,-120.5281829
287,mEakqoR3ro-Fxuj-_VaMgQ,pubs;sportsbars,The Pub of Yakima,False,+15098234000,5110 Tieton Dr,,,Yakima,98908,US,WA,"['5110 Tieton Dr', 'Yakima, WA 98908']",46.5922509588359,-120.577990114689
288,ndIS8xVpn7elh1jpiuFZJg,mexican;seafood;cocktailbars,Fuego Margarita Bar,False,+15095711174,420 S 48th Ave,,,Yakima,98908,US,WA,"['420 S 48th Ave', 'Yakima, WA 98908']",46.593394,-120.573465
289,5aDQfll88mOweXGAy6m3Nw,tradamerican;beerbar,Old Town Pump Saloon,False,+15094522864,3716 Main St,,,Union Gap,98903,US,WA,"['3716 Main St', 'Union Gap, WA 98903']",46.55006,-120.47564
290,HV6MvE-LV2JJgKM0keW0YA,bars,Mickey's Pub,False,+15092480245,202 E Chestnut Ave,,,Yakima,98901,US,WA,"['202 E Chestnut Ave', 'Yakima, WA 98901']",46.601151,-120.503365
291,fRRNqaH-_jAReJ3z6V8Dpg,bars;breakfast_brunch;tradamerican,Provisions Restaurant & Market,False,+15094528100,2710 Terrace Heights Dr,,,Yakima,98901,US,WA,"['2710 Terrace Heights Dr', 'Yakima, WA 98901']",46.6062,-120.46292
292,H8fMWz43kfz8GRcgHQA_Ow,bars,Little Dutch Inn,False,+15094527960,214 North 6th Ave,,,Yakima,98902,US,WA,"['214 North 6th Ave', 'Yakima, WA 98902']",46.6030044555664,-120.519195556641
293,vNLnAV6_z2Riv3CaTq_GpQ,sportsbars;newamerican,Warehouse Sports Bar and Grill,False,+15098347202,402 S 11th Ave,,,Yakima,98902,US,WA,"['402 S 11th Ave', 'Yakima, WA 98902']",46.59273,-120.52224
294,z4n2XCuuusYlzs4uacVAaA,cocktailbars;karaoke,Lotus Room,False,+15094578425,9 S 1st St,,,Yakima,98901,US,WA,"['9 S 1st St', 'Yakima, WA 98901']",46.6017620383795,-120.505323899129
295,yNOXY3JQFxVaE1asmVl90w,bars;pretzels;pizza,Public House of Yakima,False,+15094262043,5703 Tieton Dr,,,Yakima,98908,US,WA,"['5703 Tieton Dr', 'Yakima, WA 98908']",46.59303,-120.58478
296,RcwoVsErHNzeNyUuA7MxoA,chicken_wings;sportsbars;tradamerican,Buffalo Wild Wings,False,+15094531215,2529 Main St,,,Union Gap,98903,US,WA,"['2529 Main St', 'Union Gap, WA 98903']",46.5653889,-120.4794747
297,2aUe4gTwsoiJrlfuUe9baw,newamerican;sportsbars;chicken_wings,"Pastime Burgers, Brews & Spirits",False,+15096978303,125 E Naches Ave,,,Selah,98942,US,WA,"['125 E Naches Ave', 'Selah, WA 98942']",46.6542461399227,-120.529142327557
298,2nx1SC_GnhQyEUE3BErMMA,sportsbars;burgers;tradamerican,Applebee's Grill + Bar,False,+15094692114,1505 E Washington Ave,,,Union Gap,98903,US,WA,"['1505 E Washington Ave', 'Union Gap, WA 98903']",46.57064,-120.48087
299,I6U3zX0RBC-9_LZpgv5Jsg,coffee;beerbar;wine_bars,Yakima Newsroom,False,+15095711517,5621 Summitview Ave,,,Yakima,98908,US,WA,"['5621 Summitview Ave', 'Yakima, WA 98908']",46.6009519,-120.5848935
300,G4MDCHu3I-q1kUDBAgPVDw,bars;arcades,Game & Grog Bar,False,+15099103707,118 S 1st St,,,Yakima,98901,US,WA,"['118 S 1st St', 'Yakima, WA 98901']",46.6002009147896,-120.505584217608
301,BdZYgjfnd7BxgEm3ndCobw,mexican;cocktailbars;seafood,Xochimilco Tequila Bar,False,+15094531552,2529 Main St,Ste D24,,Union Gap,98903,US,WA,"['2529 Main St', 'Ste D24', 'Union Gap, WA 98903']",46.5647618755891,-120.478893073402
302,oStIBb91GCPfE9NUCuBCGg,bars;tradamerican;burgers,Warehouse West Grill,False,+15098347203,6411 W Nob Hill Blvd,,,Yakima,98908,US,WA,"['6411 W Nob Hill Blvd', 'Yakima, WA 98908']",46.5860039960118,-120.594716355111
303,-vQ_vklFpzeRzokPq2AuiA,bars,Brews and Cue's,False,+15094539713,104 S 2nd St,,,Yakima,98901,US,WA,"['104 S 2nd St', 'Yakima, WA 98901']",46.601115167141,-120.503989309072
304,tapjHVLGj5WONmh0gbS0KQ,casinos;bars;tradamerican,Casino Caribbean,False,+15098537777,1901 Boggess Ln,,,Yakima,98901,US,WA,"['1901 Boggess Ln', 'Yakima, WA 98901']",46.584185063839,-120.476176142693
305,Rkjdivc7xI7bOyFPGekiOQ,bars;arcades,Drink'n Games,False,+15094243348,509 W Yakima Ave,,,Yakima,98902,US,WA,"['509 W Yakima Ave', 'Yakima, WA 98902']",46.600157,-120.516368
306,zQ_CVOy-oLp569ZTjq354g,bars,Sky Bar and Lounge,False,,,,,Yakima,,US,WA,"['Yakima, WA']",46.6020736694336,-120.505897521973
307,UEntlQCBdr7GiK9-jOgHrw,newamerican;bars,Red Rooster Bar & Grill,False,+15096974949,519 S 1st St,,,Selah,98942,US,WA,"['519 S 1st St', 'Selah, WA 98942']",46.645218,-120.53007
308,b6ZElWBvMBAlg-V3RkmQFQ,divebars,Hoops,False,+15095754667,2103 W Lincoln Ave,,,Yakima,98902,US,WA,"['2103 W Lincoln Ave', 'Yakima, WA 98902']",46.604296,-120.536499
309,jdJfN2ZvqENgLDyzoq3DbQ,mexican;bars,El Asadero,False,+15099028381,1107 S 3rd St,,,Yakima,98901,US,WA,"['1107 S 3rd St', 'Yakima, WA 98901']",46.58928833,-120.49826667
310,Jg0tfZOfC944QuyAo_LG6w,bars,Arty's,False,+15094690716,1402 Fruitvale Blvd,,,Yakima,98902,US,WA,"['1402 Fruitvale Blvd', 'Yakima, WA 98902']",46.6122436523438,-120.527923583984
311,thlPSbZuqpPdCQ9ulZhm4A,bars;tacos,Avenida Cantina,False,+15099529333,121 E Yakima Ave,,,Yakima,98901,US,WA,"['121 E Yakima Ave', 'Yakima, WA 98901']",46.6027,-120.505032
312,0Ez-6rew4_vnftKHjFCC6A,wine_bars,Wine Divas,False,+15098332739,101 N Fair Ave,,,Yakima,98902,US,WA,"['101 N Fair Ave', 'Yakima, WA 98902']",46.6079102,-120.4888916
313,IBYUnhtmQ0sT-smw4uf0-Q,danceclubs;bars,El Dos de Oro,False,+15098954179,5 Ranch Rite Rd,,,Yakima,98901,US,WA,"['5 Ranch Rite Rd', 'Yakima, WA 98901']",46.5855962246344,-120.498315095902
314,oKt9mrQAuSZDjMLscPgZSw,bars;tradamerican,Wenas Creek Saloon,False,+15096975579,115 E Naches Ave,,,Selah,98942,US,WA,"['115 E Naches Ave', 'Selah, WA 98942']",46.65432,-120.52974
315,xuORYp_9_yohkPYU4_YHuA,tradamerican;burgers;beerbar,Blu Burgers & Brew,False,+14254936900,9999 Harbour Pl,,,Mukilteo,98275,US,WA,"['9999 Harbour Pl', 'Mukilteo, WA 98275']",47.90753,-122.29377
316,MqU8DUHEfCQVWyrwWdxijA,seafood;lounges,Ivar's Mukilteo Landing,False,+14257426180,710 Front St,,,Mukilteo,98275,US,WA,"['710 Front St', 'Mukilteo, WA 98275']",47.94906,-122.30388
317,9cZdeGxOLR94ujvuaSqHTA,irish;breakfast_brunch;irish_pubs,Shawn O'Donnell's American Grill & Irish Pub,False,+14253385700,122 - 128th St SE,,,Everett,98208,US,WA,"['122 - 128th St SE', 'Everett, WA 98208']",47.8813323974609,-122.230010986328
318,vJxS-qu8q6pEiQvU6XhN9A,wine_bars;tapasmallplates;sandwiches,Red Cork Bistro,False,+14253748472,11700 Mukilteo Speedway,Ste 405,,Mukilteo,98275,US,WA,"['11700 Mukilteo Speedway', 'Ste 405', 'Mukilteo, WA 98275']",47.89201,-122.28686
319,Ub9S-Navcp6PcpT7UhHzsw,mexican;lounges;caribbean,Azul Restaurant & Lounge,False,+14253575600,15118 Main St,Ste 100,,Mill Creek,98012,US,WA,"['15118 Main St', 'Ste 100', 'Mill Creek, WA 98012']",47.8610642,-122.2208587
320,G8dw8lbUSJO_YqVcaC4_xQ,beer_and_wine;beerbar,Special Brews,False,+14257417049,14608 Hwy 99,Ste 307,,Lynnwood,98087,US,WA,"['14608 Hwy 99', 'Ste 307', 'Lynnwood, WA 98087']",47.865925,-122.281124
321,bou17t4SS7UxKFv7UKOd8A,seafood;bars,Arnies Restaurant -Mukilteo,False,+14253552181,714 2nd St,,,Mukilteo,98275,US,WA,"['714 2nd St', 'Mukilteo, WA 98275']",47.9475,-122.30328
322,O1tog8nPJH6HofYkv7UsJw,vegan;bars;tapasmallplates,Sage And Cinder,False,+14253748355,613 5th St,,,Mukilteo,98275,US,WA,"['613 5th St', 'Mukilteo, WA 98275']",47.94441,-122.30383
323,N4IEOkd9Upijyc0gIe-2Kg,tapasmallplates;mediterranean;bars,Tablas Woodstone Taverna,False,+14259487654,15522 Main St,,,Mill Creek,98012,US,WA,"['15522 Main St', 'Mill Creek, WA 98012']",47.856801,-122.220974
324,rOCQWeUONgtGPI_aVTAHfw,pubs;breweries,Middleton Brewing,False,+14252809178,607 SE Everett Mall Way,Ste 27-A,,Everett,98208,US,WA,"['607 SE Everett Mall Way', 'Ste 27-A', 'Everett, WA 98208']",47.910663,-122.22479
325,wk0ZrDmXhTSxoxyaGBsxJg,newamerican;sportsbars;beerbar,Mukilteo Lodge Sports Grille,False,+14253743333,7928 Mukilteo Speedway,,,Mukilteo,98275,US,WA,"['7928 Mukilteo Speedway', 'Mukilteo, WA 98275']",47.92594,-122.30085
326,rKgQeTjQuVZU_ARpCG6SzA,seafood;steak;bars,Salt and Iron,False,+14253611112,321 Main St,,,Edmonds,98020,US,WA,"['321 Main St', 'Edmonds, WA 98020']",47.8113012741834,-122.37917938706
327,YNEfflawkkUO6tGwUiy-uA,italian;salad;wine_bars,Bucatini,False,+14253611487,9818 Edmonds Way,,,Edmonds,98020,US,WA,"['9818 Edmonds Way', 'Edmonds, WA 98020']",47.790518,-122.365058
328,oiotzcCO0paoWK8PmCkVxw,bars;soulfood,Grandma's In Da Kitchen,False,+14253490164,2831 W Marine View Dr,,,Everett,98201,US,WA,"['2831 W Marine View Dr', 'Everett, WA 98201']",47.979564,-122.213904
329,tzhWXaU1-_GSZchSTmUG0g,bbq;bars;tradamerican,Cask & Trotter - Lynnwood,False,+14259675245,18411 Hwy 99,,,Lynnwood,98037,US,WA,"['18411 Hwy 99', 'Lynnwood, WA 98037']",47.83156,-122.30546
330,M2iHLqHGHluSqEIpKYFc1Q,newamerican;burgers;lounges,Blazing Onion Burger Company,False,+14253384445,15115 Main St,,,Mill Creek,98012,US,WA,"['15115 Main St', 'Mill Creek, WA 98012']",47.8611348468932,-122.219915477985
331,wcWUNCj977OJrslD1lU2iQ,asianfusion;tapasmallplates;cocktailbars,Bar Dojo,False,+14259677267,8404 Bowdoin Way,,,Edmonds,98026,US,WA,"['8404 Bowdoin Way', 'Edmonds, WA 98026']",47.8063165675953,-122.346773526859
332,rja1TYkfkxeK7MQoWc8uLg,mexican;beerbar,Taqueria Puebla,False,+14254123030,16716 Highway 99,Ste C,,Lynnwood,98037,US,WA,"['16716 Highway 99', 'Ste C', 'Lynnwood, WA 98037']",47.847024,-122.295683
333,o30N0VbO2KzyXZO_OTB0iQ,thai;bars,Silver Spoon Thai Restaurant & Bar,False,+14259673255,3828 196th St SW,,,Lynnwood,98036,US,WA,"['3828 196th St SW', 'Lynnwood, WA 98036']",47.82044,-122.28532
334,NmKWxmFT6XU9cu4BQa_hEg,beerbar;cideries;russian,The Independent Beer Bar,False,+14252129517,1801 Hewitt Ave,,,Everett,98201,US,WA,"['1801 Hewitt Ave', 'Everett, WA 98201']",47.9793822537229,-122.205651588361
335,CxNqMcxwYVl_mhtDt9z_fg,newamerican;cheese;wine_bars,The Cheesemonger's Table,False,+14256408949,203 5th Ave S,Ste 1,,Edmonds,98020,US,WA,"['203 5th Ave S', 'Ste 1', 'Edmonds, WA 98020']",47.80914,-122.37723
336,ygiTEwFcLADlV4s81YyVJQ,newamerican;cocktailbars;wine_bars,Daphnes,False,+17189387711,415 1/2 Main St,,,Edmonds,98020,US,WA,"['415 1/2 Main St', 'Edmonds, WA 98020']",47.81097,-122.37764
337,6ubFqBcbq0rH_Geg-V2n-g,cocktailbars;ramen,Botan Ramen n‚Äô Bar,False,+14255954940,2803 Colby Ave,,,Everett,98201,US,WA,"['2803 Colby Ave', 'Everett, WA 98201']",47.98041,-122.20821
338,dyy5nKulyUX4GdyuL4nzkA,newamerican;cocktailbars,LJ's Bistro & Bar,False,+14253340604,430 91st NE,Ste 1,,Lake Stevens,98258,US,WA,"['430 91st NE', 'Ste 1', 'Lake Stevens, WA 98258']",48.000552,-122.10855
339,EmW-9W4nH7_6NokTMUTseg,pizza;bars;tradamerican,The Rock Wood Fired Pizza,False,+14256976007,4010 196th St SW,,,Lynnwood,98036,US,WA,"['4010 196th St SW', 'Lynnwood, WA 98036']",47.82047,-122.28752
340,A3DDZJIEe8TKyOVTUC0vXw,chinese;lounges,China City,False,+14253373600,15310 Main St,,,Mill Creek,98012,US,WA,"['15310 Main St', 'Mill Creek, WA 98012']",47.8580070049628,-122.22053018436
341,ctmMrI7BIAxNYxYJF1QvsQ,mexican;bars,El Taco Boom,False,+14253550383,11802 Evergreen Way,Ste 103,,Everett,98204,US,WA,"['11802 Evergreen Way', 'Ste 103', 'Everett, WA 98204']",47.8909268,-122.2571171
342,yis-jo-0GRB8AZIpd895YA,sportsbars,Cactus Moon Saloon,False,+14257459855,717 128th St SW,,,Everett,98204,US,WA,"['717 128th St SW', 'Everett, WA 98204']",47.8824615478516,-122.243591308594
343,qWCNbhZr2rBeCafUCpT0Sw,pubs,ChurchKey Pub,False,+14258350230,109 4th Ave N,,,Edmonds,98020,US,WA,"['109 4th Ave N', 'Edmonds, WA 98020']",47.8112679,-122.3784714
344,h-rVHmNw-jWdAl8YnRdutA,sportsbars;newamerican,The Cove Restaurant and Lounge,False,+14257454777,402 164th St SW,Ste 106,,Lynnwood,98087,US,WA,"['402 164th St SW', 'Ste 106', 'Lynnwood, WA 98087']",47.8479476888948,-122.238445998975
345,4DAuRaxv5VskRbvOglv-fQ,italian;bars,Grazie Ristorante Italiano,False,+14254029600,23207 Bothell Everett Hwy,,,Bothell,98021,US,WA,"['23207 Bothell Everett Hwy', 'Bothell, WA 98021']",47.7870237893,-122.21883907633
346,UdgK6FT2F1QTMs-zQCrd6A,bars;coffee;juicebars,Bar Bravata,False,+14253576161,15117 Main St,B104 a,,Mill Creek,98012,US,WA,"['15117 Main St', 'B104 a', 'Mill Creek, WA 98012']",47.8607003571958,-122.22036583668
347,XmcRTngVgJ2NCMh-p9WddA,pubs;breweries,Big E Ales,False,+14256727051,5030 208th St SW,Ste A,,Lynnwood,98036,US,WA,"['5030 208th St SW', 'Ste A', 'Lynnwood, WA 98036']",47.809864,-122.302111
348,dE4Ryl72KGxJ3q5kD1o_cQ,pizza;pubs;salad,Elliott Bay Pizza & Pub,False,+14259181553,800 164th St SE,Ste L,,Mill Creek,98012,US,WA,"['800 164th St SE', 'Ste L', 'Mill Creek, WA 98012']",47.848631,-122.221525
349,hnFUV8VP39tEH9AYvH12MQ,burgers;breakfast_brunch;cocktailbars,Bob's Burgers & Brew,False,+14252908308,1611 SE Everett Mall Way,,,Everett,98208,US,WA,"['1611 SE Everett Mall Way', 'Everett, WA 98208']",47.9131033,-122.2127386
350,DK7Ymkv5piQ-uMJvyqHg-Q,pubs;tradamerican,Madison Avenue Pub,False,+14253487402,905 Madison St,,,Everett,98203,US,WA,"['905 Madison St', 'Everett, WA 98203']",47.9365272521973,-122.220474243164
351,R7KVJdxrDyDq8_j5ZCJSXA,bbq;bars;burgers,Moonshine BBQ,False,+14256729592,4911 196th St SW,,,Lynnwood,98036,US,WA,"['4911 196th St SW', 'Lynnwood, WA 98036']",47.82142,-122.29968
352,8vzTbFFg34ap0RI2Jw3-gQ,bars;steak;burgers,McMenamins Mill Creek,False,+14253160520,13300 Bothell-Everett Hwy.,,,Mill Creek,98012,US,WA,"['13300 Bothell-Everett Hwy.', 'Mill Creek, WA 98012']",47.877128,-122.212084
353,A9ijf_0bazef9XaVhBMmJg,distilleries;cocktailbars;newamerican,Bluewater Distilling,False,+14254041408,1205 Craftsman Way,Ste 109,,Everett,98201,US,WA,"['1205 Craftsman Way', 'Ste 109', 'Everett, WA 98201']",48.001933102755,-122.217657669958
354,wt6SQ9unJY_vfEIFaRKkrA,tradamerican;pubs,AFK Tavern,False,+14252590525,1510 41st St,,,Everett,98203,US,WA,"['1510 41st St', 'Everett, WA 98203']",47.96299,-122.20893
355,j1cy2QVeyogFzPvXvfJ-Kw,pubs;tradamerican,White Buffalo Saloon,False,+14253485446,5616 Evergreen Way,,,Everett,98203,US,WA,"['5616 Evergreen Way', 'Everett, WA 98203']",47.9467947213592,-122.216068757035
356,sHVbsa7wUeMhNSNxRiFT4A,bars;pizza;italian,Chianti Italian Restaurant,False,+14255955147,1712 Hewitt Ave,,,Everett,98201,US,WA,"['1712 Hewitt Ave', 'Everett, WA 98201']",47.97895,-122.20641
357,840-mOi5qFGOqXsXbDf2uQ,pubs;icecream;toys,Around the Table Game Pub,False,+14255822745,7600 196th St SW,Ste 300,,Lynnwood,98036,US,WA,"['7600 196th St SW', 'Ste 300', 'Lynnwood, WA 98036']",47.8210467,-122.3367089
358,9CK4Wo8VSYCg1tRjcrULcg,pizza;sportsbars;italian,Sorelli Pizza,False,+14256708600,22402 44th Ave W,,,Mountlake Terrace,98043,US,WA,"['22402 44th Ave W', 'Mountlake Terrace, WA 98043']",47.795704,-122.293131
359,H5Nsi8dfdIoryTf27kSTtw,chicken_wings;sportsbars;tradamerican,Buffalo Wild Wings,False,+14256728029,18508 33rd Ave W,,,Lynnwood,98037,US,WA,"['18508 33rd Ave W', 'Lynnwood, WA 98037']",47.8306342,-122.2781751
360,X9Z9F_-111ZPz73GOZiFtA,cocktailbars,Kelnero,False,+14259675687,545 Main St,,,Edmonds,98020,US,WA,"['545 Main St', 'Edmonds, WA 98020']",47.81075,-122.37554
361,TRADU5oH0eLA4o0BfkZUKg,bars;bbq,Sporty's Beef & Brew,False,+14253471733,6503 Evergreen Way,,,Everett,98203,US,WA,"['6503 Evergreen Way', 'Everett, WA 98203']",47.938454,-122.217819
362,xETpf79ZtjdiBvZ8AqL02A,bars;breweries,Gallagher's Where U Brew,False,+14257764209,180 W Dayton St,Ste 105,,Edmonds,98020,US,WA,"['180 W Dayton St', 'Ste 105', 'Edmonds, WA 98020']",47.80892,-122.38679
363,8bVCVr2m95CGm-DLG8nAow,chinese;bars,Ming Dynasty,False,+14253483020,626 128th St SW,Ste 101,,Everett,98204,US,WA,"['626 128th St SW', 'Ste 101', 'Everett, WA 98204']",47.8814,-122.24226
364,vCaVYIeSL5kmpAXcWs696A,coffee;tapasmallplates;wine_bars,Bean & Vine,False,+14252639495,1717 Hewitt Ave,,,Everett,98201,US,WA,"['1717 Hewitt Ave', 'Everett, WA 98201']",47.9794414902478,-122.206213697791
365,ckQnsF4NlmH1kySBkiWkbQ,newamerican;mediterranean;bars,The Loft Cafe + Courtyard,False,+14256405000,515A Main St,,,Edmonds,98020,US,WA,"['515A Main St', 'Edmonds, WA 98020']",47.8106584,-122.3767708
366,jDm6TcO3JqLodQcIHwUPKw,irish_pubs;tradamerican,The Irishmen,False,+14253745783,2923 Colby Ave,,,Everett,98201,US,WA,"['2923 Colby Ave', 'Everett, WA 98201']",47.978561,-122.208398
367,mZ657DVxFWgrg_kevFU6gg,newamerican;seafood;cocktailbars,Bonefish Grill,False,+14254850305,22616 Bothell Everett Hwy,,,Bothell,98021,US,WA,"['22616 Bothell Everett Hwy', 'Bothell, WA 98021']",47.7925416,-122.2158524
368,WtUnyt_YwvVn8n5nUzzsXQ,pizza;sportsbars,Boston's Restaurant & Sports Bar,False,+14252255176,15310 Main St,,,Mill Creek,98012,US,WA,"['15310 Main St', 'Mill Creek, WA 98012']",47.85899,-122.220519
369,dWPskbs9lGu-0yczNaYmug,bars;tradamerican,Rory's of Edmonds Bar & Grill,False,+14257783433,105 Main St,,,Edmonds,98020,US,WA,"['105 Main St', 'Edmonds, WA 98020']",47.812313079834,-122.38151550293
370,60FBDtwYwzPMXRGY_YFZUg,pizza;bars;tradamerican,The Rock Wood Fired Pizza,False,+14254880928,1918 201st Pl SE,,,Bothell,98012,US,WA,"['1918 201st Pl SE', 'Bothell, WA 98012']",47.81472,-122.2069
371,xR9BN_YmtNJGtnaLxp_MVQ,wine_bars;tradamerican;beerbar,Cabernets and IPAs,False,+14254053298,204 Lincoln Ave,,,Mukilteo,98275,US,WA,"['204 Lincoln Ave', 'Mukilteo, WA 98275']",47.9471412006734,-122.303592222087
372,P8WTDl2pB00hHa-NOzbzsg,tradamerican;sportsbars,Twisted Lime Pub,False,+14259487882,3916 148th St SE,Ste 200,,Mill Creek,98012,US,WA,"['3916 148th St SE', 'Ste 200', 'Mill Creek, WA 98012']",47.86277,-122.17882
373,E_agqBvtFXUmAhIz8zJ00g,cajun;seafood;bars,The Cajun Crawfish,False,+14252129603,909 SE Everett Mall Way,Ste E540,,Everett,98208,US,WA,"['909 SE Everett Mall Way', 'Ste E540', 'Everett, WA 98208']",47.91106,-122.219421
374,4aOgPEaa3LyGafnAoqtxtg,steak;breakfast_brunch;bars,Buzz Inn Steakhouse,False,+14253539620,9910 Evergreen Way,,,Everett,98204,US,WA,"['9910 Evergreen Way', 'Everett, WA 98204']",47.90818,-122.24191
375,6eQUY1CSARBECBc0XHcFaQ,pizza;sportsbars,Piccola Pizza,False,+13605635400,102 Union Ave,,,Snohomish,98290,US,WA,"['102 Union Ave', 'Snohomish, WA 98290']",47.9115829467773,-122.093139648438
376,BK59XCW3SlFa1iXVFsZt_A,beerbar;pubs,Toggle's Bottle Shop,False,+14253039999,1420 Hewitt Ave,,,Everett,98201,US,WA,"['1420 Hewitt Ave', 'Everett, WA 98201']",47.979039,-122.2103404
377,xWdvfuzIDJvHwHrVslXE7w,newamerican;cocktailbars,Mossback,False,+13602972373,26185 Ohio Ave NE,,,Kingston,98346,US,WA,"['26185 Ohio Ave NE', 'Kingston, WA 98346']",47.799623,-122.494963
378,5fy5vb_iaReo8bBhkt_8TA,korean;chickenshop;beerbar,Kochi Po-Cha,False,+14254123053,18623 Washington 99,Ste 140,,Lynnwood,98036,US,WA,"['18623 Washington 99', 'Ste 140', 'Lynnwood, WA 98036']",47.8300585,-122.3058814
379,7jI-ZRqfOfG8Qm1vGtj7UQ,pubs;tradamerican,Fred's Rivertown Ale House,False,+13605685820,1114 1st St,,,Snohomish,98290,US,WA,"['1114 1st St', 'Snohomish, WA 98290']",47.91166,-122.09659
380,pvhDtnNho0hWiAcW5XNOrg,sportsbars;newamerican,The Lodge Sports Grille,False,+14252256347,15117 Main St,Ste B101,,Mill Creek,98012,US,WA,"['15117 Main St', 'Ste B101', 'Mill Creek, WA 98012']",47.860863,-122.220306
381,kxNAqpl2-FPYMgAYRwxTlw,filipino;hawaiian;tikibars,Barkada Edmonds,False,+14256702222,622 5th Ave S,,,Edmonds,98020,US,WA,"['622 5th Ave S', 'Edmonds, WA 98020']",47.805158230335,-122.37779338525
382,0e_94mE8wxY3Y_JqPs_fyA,bars;tradamerican,The Oxford Saloon,False,+13602433060,913 1st St,,,Snohomish,98290,US,WA,"['913 1st St', 'Snohomish, WA 98290']",47.9111138,-122.0938949
383,Ypu302SlQHjLDs1iS_0TXw,sportsbars;burgers;tikibars,A Very Taki Tiki Bar & Grill,False,+14257783548,518 Main St,,,Edmonds,98020,US,WA,"['518 Main St', 'Edmonds, WA 98020']",47.81029,-122.37677
384,XnPtZ2Z_Lfa7kTsMFvpgMA,seafood;fishnchips;bars,Anthony's - Homeport,False,+14257714400,456 Admiral Way,,,Edmonds,98020,US,WA,"['456 Admiral Way', 'Edmonds, WA 98020']",47.80798,-122.39103
385,bQxHMK9Zs7Aq8Qawyqxoqw,bars;tobaccoshops;beer_and_wine,Stogies 'n' Hops,False,+14257411000,526 164th St SW,,,Lynnwood,98087,US,WA,"['526 164th St SW', 'Lynnwood, WA 98087']",47.8493,-122.2409
386,udwjXKqFxIpOiOm8rk-v_Q,bars;seafood;fooddeliveryservices,The Kingston Ale House,False,+13608810412,11225 NE State Hwy 104,,,Kingston,98346,US,WA,"['11225 NE State Hwy 104', 'Kingston, WA 98346']",47.7972899,-122.49775
387,Lgr5FfvzoD45Pp0Kh4EfRA,chicken_wings;beerbar,That Chicken Place,False,+14253490253,1907 Hewitt Ave,Ste A,,Everett,98201,US,WA,"['1907 Hewitt Ave', 'Ste A', 'Everett, WA 98201']",47.97951,-122.20393
388,nWI4_iupXB6JoYnaGxd6gA,pubs;sportsbars;karaoke,13th Ave Pub & Eatery,False,+14257427871,1233 164th St SW,Ste J,,Lynnwood,98037,US,WA,"['1233 164th St SW', 'Ste J', 'Lynnwood, WA 98037']",47.850249,-122.250645
389,XJfBBOs7AuCPtXtqOehzQQ,sportsbars;tradamerican,Razzals Sports Bar and Grill,False,+14252906224,11114 Hwy 99,,,Everett,98204,US,WA,"['11114 Hwy 99', 'Everett, WA 98204']",47.897154,-122.252776
390,JIqFdJf7IO-Dgxy6MKaVyQ,tradamerican;sportsbars;burgers,Applebee's Grill + Bar,False,+14255148300,806 S E Everett Mall Way,,,Everett,98208,US,WA,"['806 S E Everett Mall Way', 'Everett, WA 98208']",47.909688,-122.221232
391,kX3Wz0SVQ1HEB8Y4kdnVhw,pizza;italian;wine_bars,Portofino Restaurant & Bar,False,+14257714788,1306 Olympic View Dr,,,Edmonds,98020,US,WA,"['1306 Olympic View Dr', 'Edmonds, WA 98020']",47.821919,-122.364352
392,sj8AREF9bm2CttQkG3o8xw,tradamerican;cocktailbars;lounges,190 Sunset,False,+14253293669,190 Sunset Ave,,,Edmonds,98020,US,WA,"['190 Sunset Ave', 'Edmonds, WA 98020']",47.810489654541,-122.383918762207
393,b17ekgs0f7huaVmWR_XoWA,pubs,The Anchor Pub,False,+14253742580,1001 Hewitt Ave,,,Everett,98201,US,WA,"['1001 Hewitt Ave', 'Everett, WA 98201']",47.97956,-122.21671
394,-yepF4ZMYxL6VDgkq5BRbg,pubs,O'Finnigans Pub,False,+14257454805,13601 Hwy 99,,,Everett,98204,US,WA,"['13601 Hwy 99', 'Everett, WA 98204']",47.87516,-122.271
395,RF8BQ3kBjc9vnp7P0PiBwA,seafood;bars,Anthony's Beach Cafe,False,+14257714400,456 Admiral Way,,,Edmonds,98020,US,WA,"['456 Admiral Way', 'Edmonds, WA 98020']",47.80798,-122.39103
396,p8Qc19RZNEwlCW5yJNFS0w,beer_and_wine;wine_bars;musicvenues,DeVine Wines,False,+14253576200,15224 Main St,Ste 107,,Mill Creek,98012,US,WA,"['15224 Main St', 'Ste 107', 'Mill Creek, WA 98012']",47.85938,-122.22057
397,3UrQsyny-1XmlrwjF4X0GQ,pubs;nonprofit,Center Public House - A Non-Profit Pub,False,+13602178906,115 Avenue A,,,Snohomish,98290,US,WA,"['115 Avenue A', 'Snohomish, WA 98290']",47.9120861378083,-122.094249911606
398,sMwc5AuPZ4l7cKwvn8Lhmw,bars;tradamerican;musicvenues,Tony V's Garage Saloon & Eatery,False,+14253743567,1716 Hewitt Ave,,,Everett,98201,US,WA,"['1716 Hewitt Ave', 'Everett, WA 98201']",47.9789742,-122.2062245
399,v5a9mtT4jhK0pNGTQcwuJg,caribbean;bars;soup,Maize & Barley,False,+14258350868,525 Main St,,,Edmonds,98020,US,WA,"['525 Main St', 'Edmonds, WA 98020']",47.81075,-122.37634
400,SUl1-896RtdctiKPqEouAg,pubs;burgers;salad,Spyhop Public House,False,+13602214494,317 2nd St,,,Langley,98260,US,WA,"['317 2nd St', 'Langley, WA 98260']",48.0398672350927,-122.410409495895
401,5t8JZGmMIDLAVwYeYH-XJQ,steak;breakfast_brunch;bars,Buzz Inn Steakhouse,False,+14253382033,9504 19th Ave SE,,,Everett,98208,US,WA,"['9504 19th Ave SE', 'Everett, WA 98208']",47.9123801,-122.2070768
402,URS00NfHIwKgbuUwy3qMxA,casinos;sportsbars;tradamerican,Great American Casino,False,+14253471669,12715 4th Ave W,,,Everett,98204,US,WA,"['12715 4th Ave W', 'Everett, WA 98204']",47.882923,-122.237182
403,xqlNW1B7eze8jGDGUbz-sg,divebars;tradamerican,Soundview Tavern,False,+14252593383,1116 Hewitt Ave,,,Everett,98201,US,WA,"['1116 Hewitt Ave', 'Everett, WA 98201']",47.97911,-122.21477
404,WXAYHEfdAscFbFKm4vpptw,venues;arcades;beerbar,Another Castle Arcade,False,+14259677043,23303 Hwy 99,Ste C,,Edmonds,98026,US,WA,"['23303 Hwy 99', 'Ste C', 'Edmonds, WA 98026']",47.787625,-122.3401817
405,T_U8xPlioG9-dgcRe4u_Kg,italian;pizza;bars,Lombardi's Italian,False,+14258922931,19409 Bothell Everett Hwy,,,Mill Creek,98012,US,WA,"['19409 Bothell Everett Hwy', 'Mill Creek, WA 98012']",47.821652,-122.206983
406,zgDr6Bk8VmQFKbtl4Oh1sA,pubs;venues,Bulldog Saloon,False,+14256402700,19920 Hwy 99,,,Lynnwood,98036,US,WA,"['19920 Hwy 99', 'Lynnwood, WA 98036']",47.81812,-122.31849
407,tWftZIcSe8BWVQua6Pi_hA,bars;tradamerican,The Northern Public House,False,+14259487457,15415 Main St,Ste 101,,Mill Creek,98012,US,WA,"['15415 Main St', 'Ste 101', 'Mill Creek, WA 98012']",47.8578199,-122.21996
408,BY5QZyRT11ZNXWhrWtAeyQ,newamerican;cocktailbars,Bazille - Temporarily Closed,False,+14253292108,3200 184th St SW,,,Lynnwood,98037,US,WA,"['3200 184th St SW', 'Lynnwood, WA 98037']",47.83122,-122.27389
409,b3VeNI-fV3AnzqO7jEAFgA,wine_bars;cocktailbars,Bits,False,+14255956914,11601 Harbour Pointe Blvd,,,Mukilteo,98275,US,WA,"['11601 Harbour Pointe Blvd', 'Mukilteo, WA 98275']",47.89396,-122.310341
410,Yl_OKBdt-Y8Vh1WPCM4R9g,tradamerican;breakfast_brunch;sportsbars,Thrashers Pub & Broiler,False,+14254810211,20805 Bothell Everett Hwy,,,Bothell,98021,US,WA,"['20805 Bothell Everett Hwy', 'Bothell, WA 98021']",47.8088808548327,-122.207118208211
411,nSG5U4Pn0GU9QgFc6ezfOw,golf;sportsbars,Back9 Parlor,False,+14255829813,3105 Alderwood Mall Blvd,Ste A,,Lynnwood,98036,US,WA,"['3105 Alderwood Mall Blvd', 'Ste A', 'Lynnwood, WA 98036']",47.82422,-122.27629
412,aNtWVhbbXQKHszbCjqLHIA,mexican;bars,MAZATLAN RESTAURANT,False,+14257441525,6003 244th St SW,,,Mountlake Terrace,98043,US,WA,"['6003 244th St SW', 'Mountlake Terrace, WA 98043']",47.77792,-122.31308
413,bG2LvC0KLmeut7jvQo1_4A,mexican;bars;gluten_free,Patron,False,+13603414101,11042 State Rt 525,Ste 102,,Clinton,98236,US,WA,"['11042 State Rt 525', 'Ste 102', 'Clinton, WA 98236']",47.9912199776808,-122.395674379946
414,Lv7kA30gTxip5l-Z5jojMw,beer_and_wine;bars;venues,Brigid's Bottleshop,False,+14255828218,188 Sunset Ave,,,Edmonds,98020,US,WA,"['188 Sunset Ave', 'Edmonds, WA 98020']",47.810647,-122.383999
415,QeNswTPQ4CEXYrLiXFmvUA,italian;pizza;wine_bars,Bruno's Pizzeria,False,+14254053946,430 91st Ave NE,Ste 10,,Lake Stevens,98258,US,WA,"['430 91st Ave NE', 'Ste 10', 'Lake Stevens, WA 98258']",48.000620043564,-122.109259462393
416,5FH5Tad-uOvW4BJVN9MsIg,sportsbars;tradamerican;chicken_wings,Buffalo Wild Wings,False,+14252650668,1402 SE Everett Mall Way,,,Everett,98208,US,WA,"['1402 SE Everett Mall Way', 'Everett, WA 98208']",47.910827,-122.2124891
417,Vvp4XW2_NK3i6fen3xyHtA,pubs,The Rec Room Bar and Grill,False,+14252458899,14920 WA-99,Ste 130,,Lynnwood,98087,US,WA,"['14920 WA-99', 'Ste 130', 'Lynnwood, WA 98087']",47.862981,-122.284906
418,XUKjPpLdP69oxZ3hKv5QaA,sportsbars;newamerican;karaoke,MVP's,False,+14252458053,22921 Hwy 99,,,Edmonds,98026,US,WA,"['22921 Hwy 99', 'Edmonds, WA 98026']",47.791249,-122.337101
419,QtIYdLm0EDl2q67Q_jwwJA,pizza;gluten_free;beerbar,Zeeks Pizza,False,+14258938646,1715 228th St SE,,,Bothell,98021,US,WA,"['1715 228th St SE', 'Bothell, WA 98021']",47.7917171,-122.2119575
420,grryzTWvHi0budoEq4COJQ,bars;breakfast_brunch,First and Union Kitchen,False,+13605681684,101 Union Ave,,,Snohomish,98290,US,WA,"['101 Union Ave', 'Snohomish, WA 98290']",47.9113056,-122.0931632
421,N3QTcE-A0M8APM2VNOvIkQ,divebars;sportsbars;karaoke,Bert's Tavern,False,+14254876760,17902 Bothell-Everett Hwy,,,Bothell,98012,US,WA,"['17902 Bothell-Everett Hwy', 'Bothell, WA 98012']",47.83544,-122.212
422,tGrtTTbcAjl6uQFUcDnqvw,beerbar,Josh's Taps & Caps,False,+13602177221,1800 Bickford Ave,Ste 210,,Snohomish,98290,US,WA,"['1800 Bickford Ave', 'Ste 210', 'Snohomish, WA 98290']",47.9337606579065,-122.105741500854
423,HhdsuBraAOYE0EZcZ5lm2g,tradamerican;bars,Hops n Drops,False,+13607996153,2529 Bickford Ave,"Bldg 11,Ste B",,Snohomish,98290,US,WA,"['2529 Bickford Ave', 'Bldg 11,Ste B', 'Snohomish, WA 98290']",47.9418125623514,-122.107525202412
424,_5QwZx-wEBKCAEuZWoLFvw,bars;musicvenues;karaoke,Engels Pub,False,+14257782900,113 5th Ave S,,,Edmonds,98020,US,WA,"['113 5th Ave S', 'Edmonds, WA 98020']",47.8100395202637,-122.377288818359
425,jI05xxgQwFXaB9hJr_gFNA,tradamerican;sportsbars;burgers,Applebee's Grill + Bar,False,+14256722626,4626 196th St SW,,,Lynnwood,98036,US,WA,"['4626 196th St SW', 'Lynnwood, WA 98036']",47.820628,-122.296433
426,7saaz0TOnc6_79j-AqOw5w,wine_bars;winetastingroom;beerbar,Uptown Wine & Beer,False,+13606326556,122 Ave A,Ste 2,,Snohomish,98290,US,WA,"['122 Ave A', 'Ste 2', 'Snohomish, WA 98290']",47.91237,-122.09487
427,AFZQWt6z06iTXaIqbErA1g,sportsbars;poolhalls;hotdogs,128th Billiards,False,+14253223729,617 128th St SW,Ste 101,,Everett,98204,US,WA,"['617 128th St SW', 'Ste 101', 'Everett, WA 98204']",47.8824234008789,-122.242065429688
428,dfrV2UCtAEAFaT43Ijkcjw,chinese;seafood;cocktailbars,Chopsticks,False,+14257761196,23025 100th Ave W,,,Edmonds,98020,US,WA,"['23025 100th Ave W', 'Edmonds, WA 98020']",47.7898799,-122.36633
429,Kw7W_wQgt6uM6zkqDhEg4A,divebars,Clubhouse Bar and Grill,False,+14253030290,4809 Evergreen Way,,,Everett,98203,US,WA,"['4809 Evergreen Way', 'Everett, WA 98203']",47.953627,-122.212093
430,x6jmxSIhqhXBdNtBN2bZsw,sportsbars;tradamerican,Cliffhanger Sports Bar & Restaurant,False,+14259675781,17525 Hwy 99,,,Lynnwood,98037,US,WA,"['17525 Hwy 99', 'Lynnwood, WA 98037']",47.8399079,-122.298692
431,uns-v0s0WjGw_sDLCioU_g,pubs;sportsbars;tradamerican,Ringers Pub & Grill,False,+14257716072,22803 44th Ave W,STe B3,,Mountlake Terrace,98043,US,WA,"['22803 44th Ave W', 'STe B3', 'Mountlake Terrace, WA 98043']",47.79059,-122.2904817
432,SJk6zVzL1BqYh8wKd4NjzQ,pubs;tradamerican,The Filling Station,False,+13602977732,11200 NE State Hwy 104,,,Kingston,98346,US,WA,"['11200 NE State Hwy 104', 'Kingston, WA 98346']",47.7983966729552,-122.49785900116
433,feWMsVIc1b4uHkz8tVfa7Q,pubs,Getaway Tavern,False,+14257718478,24309 56th Ave W,,,Mountlake Terrace,98043,US,WA,"['24309 56th Ave W', 'Mountlake Terrace, WA 98043']",47.77839,-122.30791
434,zWTE_YpqzogIkVQRkQp40g,sportsbars,Players Sports Bar & Grill,False,+14253163414,10730 19th Ave SE,Ste G,,Everett,98208,US,WA,"['10730 19th Ave SE', 'Ste G', 'Everett, WA 98208']",47.9002494812012,-122.207550048828
435,99Wsk46_hCF11sD-1zUw0g,mexican;beerbar,Azteca Mexican Restaurant,False,+14256720601,22003 66th Ave W,,Terrace Village Shopping Center,Mountlake Terrace,98043,US,WA,"['22003 66th Ave W', 'Terrace Village Shopping Center', 'Mountlake Terrace, WA 98043']",47.798887,-122.321223
436,eqydUuMUDk_40eItkbD00w,sportsbars;newamerican;pubs,Just Left Pub & Grill,False,+14257767379,4308 198th St SW,,,Lynnwood,98036,US,WA,"['4308 198th St SW', 'Lynnwood, WA 98036']",47.8189430236816,-122.291091918945
437,W80YWu4-PcIswyvYwwtocw,distilleries;whiskeybars,Cad√©e Distillery,False,+13603415120,8912 State Rte 525,,,Clinton,98236,US,WA,"['8912 State Rte 525', 'Clinton, WA 98236']",47.9797398092342,-122.357345575394
438,71YkvCZYI93nFHZiZINdmQ,pubs;tradamerican,Rocko's Fireside,False,+14253748039,7520 Beverly Blvd,,,Everett,98203,US,WA,"['7520 Beverly Blvd', 'Everett, WA 98203']",47.929515838623,-122.212173461914
439,bOGg2its3JjKuUyZLxQV_g,bars;salad;sandwiches,Upper Case,False,,3220 100th St SW,,,Everett,98204,US,WA,"['3220 100th St SW', 'Everett, WA 98204']",47.90807,-122.27753
440,0SnBBkesaDWSGNEdiY_Sug,casinos;bars;tradamerican,Red Dragon Poker,False,+14252754444,21917 Hwy 99,,,Mountlake Terrace,98043,US,WA,"['21917 Hwy 99', 'Mountlake Terrace, WA 98043']",47.800155,-122.330995037434
441,L1IzeGCzTuJrIG2H03KbAg,beerbar;tradamerican,Taproom At Bayview Corner,False,+13602222643,5603 Bayview Rd,,,Langley,98260,US,WA,"['5603 Bayview Rd', 'Langley, WA 98260']",48.0075516717563,-122.461345529008
442,ujG95ZZW5pQf0IpFpgsYNA,pubs,7th Street Pub,False,+14253038674,631 N Broadway,,,Everett,98201,US,WA,"['631 N Broadway', 'Everett, WA 98201']",48.00801,-122.19385
443,vFYYTnW0fZGO0MJ-AyO4ug,lounges;divebars,Harvey's Lounge,False,+14257781755,21116 Hwy 99,,,Edmonds,98026,US,WA,"['21116 Hwy 99', 'Edmonds, WA 98026']",47.80746,-122.32678
444,ezY_CodUSnQpovOKBXPdaw,newamerican;beerbar;wine_bars,Anthes Ferments,False,+14252380762,138 2nd St,,,Langley,98260,US,WA,"['138 2nd St', 'Langley, WA 98260']",48.0402,-122.40854
445,KvsBvN52Uw7y1K5gV2iBnQ,danceclubs;sportsbars;karaoke,Fuego Cocktail Lounge,False,+14253490235,2611 Colby Ave,,,Everett,98201,US,WA,"['2611 Colby Ave', 'Everett, WA 98201']",47.98277,-122.2081
446,CqL3HuTRPfs9PJ8SGXYvPQ,bars,The Fireplace,False,+14252599911,2320 Everett Ave,,,Everett,98201,US,WA,"['2320 Everett Ave', 'Everett, WA 98201']",47.98155,-122.19749
447,H9UikWwQMcB-q0661ntubQ,tradamerican;sportsbars;burgers,Applebee's Grill + Bar,False,+14254887755,22916 Bothell-Everett Hwy,,,Bothell,98021,US,WA,"['22916 Bothell-Everett Hwy', 'Bothell, WA 98021']",47.789928,-122.218779
448,B_z1ks68yTyv2xCdgEEBxA,lounges;newamerican,Double Barrel Wine Bar & Lounge,False,+13608040066,108 Avenue A,,,Snohomish,98290,US,WA,"['108 Avenue A', 'Snohomish, WA 98290']",47.9117528,-122.09491
449,iYStrVosj2Tu9lv3OxertQ,casinos;bars;tradamerican,Royal Casino Everett,False,+14257439200,13010 Highway 99 S,,,Everett,98204,US,WA,"['13010 Highway 99 S', 'Everett, WA 98204']",47.88035,-122.26782
450,8a08qNlvxoLz7Rd7nZtHWg,sportsbars;tradamerican,Peabo's Sports Bar & Grill,False,+14253373007,1700 132nd St SE,Ste F,,Mill Creek,98012,US,WA,"['1700 132nd St SE', 'Ste F', 'Mill Creek, WA 98012']",47.8777389526367,-122.210334777832
451,D-CJ_Mkih7OoYtimV-opyA,tradamerican;pubs;sportsbars,Hawkeye's Pub & Grill,False,+14253354359,1002 Vernon Rd,,,Lake Stevens,98258,US,WA,"['1002 Vernon Rd', 'Lake Stevens, WA 98258']",48.006008,-122.106315
452,n6rJxfMaTLKa46KJbpUOmA,sportsbars;divebars,Pub 44,False,+14255828808,19720 44th Ave W,,,Lynnwood,98036,US,WA,"['19720 44th Ave W', 'Lynnwood, WA 98036']",47.8197826531793,-122.293571233749
453,gUcqfcU9mRIRQMaX066Gsg,chinese;lounges,Chopsticks House Restaurant,False,+14253348714,414 91st Ave NE,,,Lake Stevens,98258,US,WA,"['414 91st Ave NE', 'Lake Stevens, WA 98258']",48.0002136230469,-122.10871887207
454,h4-VMamFgIgNoJHMLpvmSQ,newamerican;lounges,Cascades,False,+14257752500,20610 44th Ave W,,,Lynnwood,98036,US,WA,"['20610 44th Ave W', 'Lynnwood, WA 98036']",47.81133,-122.29391
455,1Kf39-fDi_l64zKUqc47tw,bars;galleries;venues,The Painted Palace,False,+14257872278,15620 Hwy 99,Ste 6B,,Lynnwood,98087,US,WA,"['15620 Hwy 99', 'Ste 6B', 'Lynnwood, WA 98087']",47.8570963,-122.288569
456,IXOSdTQI7ejwGWj2ectUTg,mexican;bars,Santa Fe Mexican Grill & Cantina,False,+14252457916,423 Main St,,,Edmonds,98020,US,WA,"['423 Main St', 'Edmonds, WA 98020']",47.8107155337112,-122.377469561355
457,7abPKaJCWVhZFwVILUDLYg,bars;pizza,Twin Foxes,False,+14252492299,2718 Hewitt Ave,,,Everett,98201,US,WA,"['2718 Hewitt Ave', 'Everett, WA 98201']",47.978821,-122.194092
458,rXu-XUdnTUxFQQT4Fw0OAA,casinos;bars,Crazy Moose Casino Mountlake Terrace,False,+14256724770,22003 66th Ave W,,,Mountlake Terrace,98043,US,WA,"['22003 66th Ave W', 'Mountlake Terrace, WA 98043']",47.79879,-122.32126
459,di03Ga0LgoalUe_NNzmnqA,beer_and_wine;wine_bars;winetasteclasses,Blanc & Rouge,False,+13605680850,801 1st St,Ste 203,,Snohomish,98290,US,WA,"['801 1st St', 'Ste 203', 'Snohomish, WA 98290']",47.910893,-122.092916
460,Z4MM9KigRyvZ3HmyIZmvbQ,breakfast_brunch;cocktailbars;sandwiches,Pointe Restaurant & Lounge At Harbour Pointe,False,+14253556060,11817 Harbour Pointe Blvd,,,Mukilteo,98275,US,WA,"['11817 Harbour Pointe Blvd', 'Mukilteo, WA 98275']",47.890175,-122.310607883585
461,J1lkMEhcv0_ENKf5dtYAiw,steak;breakfast_brunch;bars,Buzz Inn Steakhouse,False,+14252591972,3121 Broadway Ave,,,Everett,98201,US,WA,"['3121 Broadway Ave', 'Everett, WA 98201']",47.97589,-122.20098
462,clj7TWpoGb5XD310Dqpxrw,steak;breakfast_brunch;bars,Buzz Inn Steakhouse,False,+13605683970,9900 Airport Way,,,Snohomish,98296,US,WA,"['9900 Airport Way', 'Snohomish, WA 98296']",47.9071715035312,-122.099766204568
463,8v3XudYMv7iNAfz98zyACQ,chinese;bars;desserts,Hong Kong Gardens Restaurant,False,+13603412828,9324 Sr 525,,,Clinton,98236,US,WA,"['9324 Sr 525', 'Clinton, WA 98236']",47.98055,-122.363872
464,jFS69Szrn4Ehvyd2nY2saA,tradamerican;sportsbars;burgers,Applebee's Grill + Bar,False,+14253376242,5710 134th Pl SE,,,Everett,98208,US,WA,"['5710 134th Pl SE', 'Everett, WA 98208']",47.876496,-122.155667
465,zpusKq-hS5Y9vJbe5RdX-A,tradamerican;sportsbars,Baxter's Sports Bar,False,+14253373007,1700 132nd St SE,Ste F,,Mill Creek,98012,US,WA,"['1700 132nd St SE', 'Ste F', 'Mill Creek, WA 98012']",47.877739,-122.2103195
466,MB8STsqjowndT8exS4ucYw,tradamerican;sportsbars,Razzals,False,+14253351988,9327 4th St NE,Ste 7,,Lake Stevens,98258,US,WA,"['9327 4th St NE', 'Ste 7', 'Lake Stevens, WA 98258']",48.00031,-122.10501
467,0KP34aJaS-_T5KF6dTe0Yg,pubs;sportsbars,Channel Marker Pub & Grill,False,+14252759590,120 W Dayton St,Ste D1,,Edmonds,98020,US,WA,"['120 W Dayton St', 'Ste D1', 'Edmonds, WA 98020']",47.8092902662672,-122.384778745472
468,dPyi3-5iuaMivpWayT4plQ,british;pubs;soup,Piccadilly Circus,False,+13605688212,1104 1st St,,,Snohomish,98290,US,WA,"['1104 1st St', 'Snohomish, WA 98290']",47.9115267,-122.0961437
469,RZ2rCbYGbqihXQo6cbfIkA,newamerican;lounges,Sidekicks Grill and Lounge,False,+14252528358,1709 Hewitt Ave,,,Everett,98201,US,WA,"['1709 Hewitt Ave', 'Everett, WA 98201']",47.97956,-122.20659
470,mH5qbfUOGdWx7JsHnoJi_g,beerbar;karaoke,Blue Moon Bar,False,+14252593573,1331 Broadway,,,Everett,98201,US,WA,"['1331 Broadway', 'Everett, WA 98201']",47.9990997314453,-122.200592041016
471,jlW5MGPKUab6d6FVcMYduQ,wine_bars,d'Vine Wines,False,+13602973010,11227 NE State Hwy 104,,,Kingston,98346,US,WA,"['11227 NE State Hwy 104', 'Kingston, WA 98346']",47.7974124,-122.4975252
472,dpdd3pAJ2S0yHetwf46KoQ,tapasmallplates;wine_bars;beer_and_wine,Farmer & The Vine,False,+13603210791,5603 Bayview Rd,,,Langley,98260,US,WA,"['5603 Bayview Rd', 'Langley, WA 98260']",48.00715,-122.46138
473,p2zUZ_3rNTAumAPm1iYlNQ,pubs,O'houlie's Pub,False,+14257761833,21919 66th Ave W,,,Mountlake Terrace,98043,US,WA,"['21919 66th Ave W', 'Mountlake Terrace, WA 98043']",47.799999,-122.321266
474,q-84tWr663-ANBi0IWWmzg,sportsbars;karaoke,Bar Z Everett,False,+14255129105,3414 Everett Ave,,,Everett,98201,US,WA,"['3414 Everett Ave', 'Everett, WA 98201']",47.9814005279066,-122.184459976852
475,TqeAyFwH-TuHt7A8x9FhMQ,cocktailbars;newamerican;breakfast_brunch,VENTURE Kitchen & Bar,False,+14253392000,3105 Pine St,,,Everett,98201,US,WA,"['3105 Pine St', 'Everett, WA 98201']",47.97557,-122.19188
476,a0ICh9I2TYtCq-ObOhKAmQ,sportsbars,Time-out Tavern,False,+13608633802,921 1st St,,,Snohomish,98290,US,WA,"['921 1st St', 'Snohomish, WA 98290']",47.9112034,-122.094123
477,cA0YNucBixRBwGtk9pKqrw,wine_bars,Rustic Cork Wine Bar,False,+14252639616,901 Frontier Cir E,,,Lake Stevens,98258,US,WA,"['901 Frontier Cir E', 'Lake Stevens, WA 98258']",48.004579259139,-122.107934542
478,UeyBb-RMw7vAozV_f7LNRQ,bars;newamerican,The Bistro @ Courtyard Marriott,False,,3003 Colby Ave,,,Everett,98201,US,WA,"['3003 Colby Ave', 'Everett, WA 98201']",47.9773966415536,-122.208203226328
479,aXmaXarRdkLo_nkHR77D4Q,divebars,Amber Lite Tavern,False,+14253476516,9205 Holly Dr,,,Everett,98204,US,WA,"['9205 Holly Dr', 'Everett, WA 98204']",47.91466,-122.2352
480,kIVOg68jUxij3H_-qLlW3Q,bars;tradamerican,Who's on First,False,+13608633749,907 1st St,,,Snohomish,98290,US,WA,"['907 1st St', 'Snohomish, WA 98290']",47.91119,-122.09363
481,u_0mfFu3FvtEKtDRA56J4w,bars,The Sports Page Grill & Bar,False,+13605688202,907 1st St,,,Snohomish,98290,US,WA,"['907 1st St', 'Snohomish, WA 98290']",47.91105,-122.09362
482,3CnGUyWbEsKZO8zmqPXy6g,bars,Home Port Tavern,False,+14252592661,2116 Everett Ave,,,Everett,98201,US,WA,"['2116 Everett Ave', 'Everett, WA 98201']",47.9817491,-122.2002078
483,JKi4g3Df5ZgHYbuPRa-rGQ,sportsbars;mexican,Time Out Sports Bar,False,+13608633802,921 1st St,,,Snohomish,98290,US,WA,"['921 1st St', 'Snohomish, WA 98290']",47.9112034,-122.094123
484,Dbc37DqVubyclnqO50hE2g,pubs;sandwiches,Melinda's Homemade,False,+13605688212,1101 1st St,,,Snohomish,98290,US,WA,"['1101 1st St', 'Snohomish, WA 98290']",47.91117,-122.09612
485,RP0h4CQhRhvq3I1hiKM9hQ,bartenders;desserts;cocktailbars,Happy Camper Cocktail Company,False,+12069488261,1708 Franklin St,,,Enumclaw,98022,US,WA,"['1708 Franklin St', 'Enumclaw, WA 98022']",47.206189,-121.9929368
486,iDq9icUIHWJt4LDqzkOdwQ,pizza;pubs,Bron Yr Aur,False,+15096531109,12160 US Hwy 12,,,Naches,98937,US,WA,"['12160 US Hwy 12', 'Naches, WA 98937']",46.7389811889086,-120.739263018424
487,LkyskcktJ9d4PYt1sT0Jcw,burgers;pizza;bars,Van's 1885 Bar & Grill,False,+15096532257,208 Naches Ave,,,Naches,98937,US,WA,"['208 Naches Ave', 'Naches, WA 98937']",46.73133,-120.70142
488,-IC5XoBN39D_ZBCnGshgmQ,wine_bars;cideries;tapas,617 on Tieton Square,False,+12065999599,617 Elm St,,,Tieton,98947,US,WA,"['617 Elm St', 'Tieton, WA 98947']",46.704440831187,-120.756399183536
489,PSVCoai-Xb3xtvPKUVAK0g,bars;tradamerican,Walkabout Creek Saloon,False,+15096531314,9990 US Hwy 12,,,Naches,98937,US,WA,"['9990 US Hwy 12', 'Naches, WA 98937']",46.72718,-120.69767
490,MfsrSG1OvZJimb0H7Bgf8A,bars,D'Nile,False,,204 Naches Ave,,,Naches,98937,US,WA,"['204 Naches Ave', 'Naches, WA 98937']",46.7311815370328,-120.701322779059
491,RYaIq94KYb3HDOKNQN_etg,breakfast_brunch;beerbar,Frosty's,False,+13602623980,113 W Front Ave,,,Napavine,98565,US,WA,"['113 W Front Ave', 'Napavine, WA 98565']",46.5747799,-122.91038
492,yyVX03Cw8w0uwyMjBy9caw,newamerican;bars,The Branch Bar & Public Room,False,+13606695127,202 W Centralia College Blvd,,,Centralia,98531,US,WA,"['202 W Centralia College Blvd', 'Centralia, WA 98531']",46.7154403,-122.9561865
493,G00GU8jtoCyK2aM_gLysSw,newamerican;cocktailbars,Mackinaws,False,+13607408000,545 N Market Blvd,,,Chehalis,98532,US,WA,"['545 N Market Blvd', 'Chehalis, WA 98532']",46.66549,-122.97088
494,uXSpyhYwrZg034jTS0LFlw,tradamerican;pubs;breweries,Olympic Club Pub,False,+13607365164,112 N Tower Ave.,,,Centralia,98531,US,WA,"['112 N Tower Ave.', 'Centralia, WA 98531']",46.7166,-122.95382
495,5iLUs4t6viV25md6HuhHjw,pizza;pubs,Tiki Tap House,False,+13606690161,404 N Tower Ave,,,Centralia,98531,US,WA,"['404 N Tower Ave', 'Centralia, WA 98531']",46.719205,-122.952693
496,WTLwsHYOCIeUPEZpSI8KiA,bars;newamerican,The Shire Bar & Bistro,False,+13607483720,465 NW Chehalis Ave,,,Chehalis,98532,US,WA,"['465 NW Chehalis Ave', 'Chehalis, WA 98532']",46.66455,-122.97057
497,1V8rDlu0_kXqa5ASUnj18A,bars;bbq;burgers,Hub Bar & Grill,False,+13607362229,110 S Tower Ave,,,Centralia,98531,US,WA,"['110 S Tower Ave', 'Centralia, WA 98531']",46.71567,-122.95423
498,lGNfyrYz_Ra3LavAdHVVxA,sportsbars;tradamerican;irish,O'Blarney's At The Gibson House,False,+13608074581,221 N Tower Ave,,,Centralia,98531,US,WA,"['221 N Tower Ave', 'Centralia, WA 98531']",46.7179817,-122.9535884
499,ml8jj1bg-xknVnsHoyBV0A,golf;newamerican;bars,Riverside Golf Club,False,+13607488182,1451 NW Airport Rd,,,Chehalis,98532,US,WA,"['1451 NW Airport Rd', 'Chehalis, WA 98532']",46.67582559793,-122.989711761475
500,wW2jfrBvhl6NcKIaA7XLFQ,pubs;tradamerican;cocktailbars,Market Street Pub & Grill,False,+13607486777,523 N Market Blvd,,,Chehalis,98532,US,WA,"['523 N Market Blvd', 'Chehalis, WA 98532']",46.6653022766113,-122.970367431641
501,RSvFM0-2-GCIWHSCrMCdrw,asianfusion;tradamerican;beerbar,Elvie's Bistro,False,+13607363926,105 E Center St,,,Centralia,98531,US,WA,"['105 E Center St', 'Centralia, WA 98531']",46.720307,-122.952386
502,TFTHovqRMxL903gzIBpzDg,musicvenues;bars;tradamerican,McFilers,False,+13609964400,543 NW Pacific Ave,,,Chehalis,98532,US,WA,"['543 NW Pacific Ave', 'Chehalis, WA 98532']",46.6650779,-122.9712242
503,bHb9oZa1SBkdpjnhAzJD5w,tradamerican;steak;cocktailbars,Newaukum Grill,False,+13607486895,153 Newaukum Golf Dr,,,Chehalis,98532,US,WA,"['153 Newaukum Golf Dr', 'Chehalis, WA 98532']",46.608673,-122.891687
504,r1jdYMPnvkXdhpqVDyVi7Q,tradamerican;sportsbars;burgers,Applebee's Grill + Bar,False,+13607481800,1670 NW Louisiana Ave,,,Chehalis,98532,US,WA,"['1670 NW Louisiana Ave', 'Chehalis, WA 98532']",46.677658,-122.975489
505,fAhr-HiYKG2gh_Jk0CssAg,tradamerican;bars,Lodge Wood Fired Grill,False,+13602737718,Great Wolf Lodge,,20500 Old Hwy 99 SW,Centralia,98531,US,WA,"['Great Wolf Lodge', '20500 Old Hwy 99 SW', 'Centralia, WA 98531']",46.7907340232573,-123.010740280151
506,zPaUpvj0qt46UzR_k9PEmw,bars;burgers,All In,False,+13609784631,1783 Hwy 508,,,Onalaska,98570,US,WA,"['1783 Hwy 508', 'Onalaska, WA 98570']",46.575817,-122.7214
507,0n6ITZ2a3Xaoe1pTrm4R-g,sportsbars;tradamerican;pizza,Junction Sports Bar and Grill,False,+13602737586,21000 Old Hwy 99 SW,,,Centralia,98531,US,WA,"['21000 Old Hwy 99 SW', 'Centralia, WA 98531']",46.7830933,-123.0108251
508,yCX4CawZQiORSKPzBUfEZg,divebars,Frank's Hide Away,False,+13607850331,108 E Walnut St,,,Winlock,98596,US,WA,"['108 E Walnut St', 'Winlock, WA 98596']",46.491174,-122.9363744
509,qDnmjpXHPQVYVd8Pxl-GOw,bars;newamerican,The Limit Bar & Grill,False,+13603308049,1500 S Gold St,,,Centralia,98531,US,WA,"['1500 S Gold St', 'Centralia, WA 98531']",46.6990933,-122.9568444
510,vENQVdHltAOdcLX4iWr2UQ,tradamerican;bars,Evey's Cafe & Lounge,False,+13602919902,416 N Main St,,,PE Ell,98572,US,WA,"['416 N Main St', 'PE Ell, WA 98572']",46.5732,-123.29727
511,7NELXkaS-9iREjZaJvM-2w,bars;tradamerican,Gray Goat Bar and Grill,False,+13608587118,314 W Pine St,,,Oakville,98568,US,WA,"['314 W Pine St', 'Oakville, WA 98568']",46.8407656,-123.2368527
512,1nAY96K8QheMGIH4lrJGAg,beerbar;sportsbars;breakfast_brunch,CraftHouse,False,+13602732000,12888 188th Ave SW,,,Rochester,98579,US,WA,"['12888 188th Ave SW', 'Rochester, WA 98579']",46.8142843292715,-123.154282048345
513,BxkR1P2XYcXXy_zPWtEZzQ,bars,The Lakehouse Restaurant & Bar,False,+13609850071,350 Hadaller Rd,,,Mossyrock,98564,US,WA,"['350 Hadaller Rd', 'Mossyrock, WA 98564']",46.5024299,-122.57304
514,YN3f_yBUJYwlwpmOAZEsOw,divebars,Landmark Tavern,False,+13602642155,313 Sussex Ave W,,,Tenino,98589,US,WA,"['313 Sussex Ave W', 'Tenino, WA 98589']",46.85686,-122.85376
515,rymfBsyiXTFstp5IrcFUAA,sportsbars;tradamerican,Bub's Pub Sports Bar & Grill,False,+13607368024,537 N Tower Ave,,,Centralia,98531,US,WA,"['537 N Tower Ave', 'Centralia, WA 98531']",46.72129,-122.95261
516,t7-BE-OcghVniAsJ1shlGw,divebars,Brown Shack Tavern,False,+13609852603,155 Salkum Rd,,,Salkum,98582,US,WA,"['155 Salkum Rd', 'Salkum, WA 98582']",46.5319728592835,-122.6263549
517,iSVQnC1FtEzD4vJkx_Taog,tradamerican;bars,Joe's Place,False,+13602783599,118 Main St,,,Bucoda,98530,US,WA,"['118 Main St', 'Bucoda, WA 98530']",46.7988962671513,-122.868728041649
518,a-JdULRrEGgmZ2nuqkJdFw,cocktailbars,Rooftop Bar,False,,1451 NW Airport Rd,,,Chehalis,98532,US,WA,"['1451 NW Airport Rd', 'Chehalis, WA 98532']",46.6749572753906,-122.99047088623
519,PCcpWawWP74Co4OK-dHwpg,tradamerican;bars,Pepper Jack Bar and Grill,False,+15096338283,113 Midway Ave,,,Grand Coulee,99133,US,WA,"['113 Midway Ave', 'Grand Coulee, WA 99133']",47.9411504,-119.0056251
520,5rE-oADc2b2MRwLKBgxUqA,tradamerican;pubs,Banks Lake Pub,False,+15096332000,17 W Coulee Blvd,,,Electric City,99357,US,WA,"['17 W Coulee Blvd', 'Electric City, WA 99357']",47.933023,-119.037397
521,zsf7ObELANBVhYVOiIBf3w,sportsbars;burgers,The Hi Dam Tavern,False,+15096339888,207 Main St,,,Grand Coulee,99133,US,WA,"['207 Main St', 'Grand Coulee, WA 99133']",47.9405189153838,-119.00233514607
522,QlCGcTNtaBBPNUE0BacPkA,casinos;lounges,Coulee Dam Casino,False,+15096330766,515 Birch St,,,Coulee Dam,99116,US,WA,"['515 Birch St', 'Coulee Dam, WA 99116']",47.9663199737105,-118.977937776096
523,oscGg2jeLGrDGoVvW3nk7A,bars;karaoke,Eagle's Lodge,False,+15096330162,122 B St,,,Grand Coulee,99133,US,WA,"['122 B St', 'Grand Coulee, WA 99133']",47.9450187683105,-119.003128051758
524,ooXjatJ6p_xICOm6wc7B6w,wine_bars;steak,The Grand Coulee Grill,False,+15096341694,415 Midway Ave,,,Grand Coulee,99133,US,WA,"['415 Midway Ave', 'Grand Coulee, WA 99133']",47.9409212,-119.0065683
525,x_Sy4mmXC9aoo1B8fTQ5uA,newamerican;pubs,The Calcutta Grill,False,+14257934646,15500 6 Penny Ln,,,Newcastle,98059,US,WA,"['15500 6 Penny Ln', 'Newcastle, WA 98059']",47.53661,-122.14984
526,P8qm_qVOHYh--qqnDmohcQ,pizza;breweries;beerbar,Resonate Brewery + Pizzeria,False,+14256443164,5606 119th Ave SE,Ste A,,Bellevue,98006,US,WA,"['5606 119th Ave SE', 'Ste A', 'Bellevue, WA 98006']",47.55238,-122.17755
527,i2GJLhfRTt2ekc9SiE07cw,comfortfood;newamerican;cocktailbars,Terry's Kitchen,False,+14255909545,5625 119th Ave SE,,,Bellevue,98006,US,WA,"['5625 119th Ave SE', 'Bellevue, WA 98006']",47.5521979155218,-122.180100381374
528,5keqVrhhpLWl_YLj_5O0Rw,tradamerican;burgers;cocktailbars,Blazing Onion Burger Company,False,+14255720304,13195 Newcastle Commons Dr,,,Newcastle,98059,US,WA,"['13195 Newcastle Commons Dr', 'Newcastle, WA 98059']",47.5434551,-122.164116
529,zwrtq4MiOZkvbpttIvJWyw,lounges,The Wooly Toad,False,+14257934646,15500 Six Penny Ln,,,Newcastle,98059,US,WA,"['15500 Six Penny Ln', 'Newcastle, WA 98059']",47.53661,-122.14984
530,YkIKdlXmc-k0AepQfbTMoQ,tradamerican;sportsbars;poolhalls,Mustard Seed Grill & Pub,False,+14256039001,5608 119th Ave SE,,,Bellevue,98006,US,WA,"['5608 119th Ave SE', 'Bellevue, WA 98006']",47.5519582,-122.1774824
531,P4HfjkbGMERyopBYSUFvsA,pubs;tradamerican,Dino's Pub,False,+14252719236,1800 NE 44th St,Ste 101,,Renton,98056,US,WA,"['1800 NE 44th St', 'Ste 101', 'Renton, WA 98056']",47.5325891,-122.1943268
532,RP0h4CQhRhvq3I1hiKM9hQ,bartenders;desserts;cocktailbars,Happy Camper Cocktail Company,False,+12069488261,1708 Franklin St,,,Enumclaw,98022,US,WA,"['1708 Franklin St', 'Enumclaw, WA 98022']",47.206189,-121.9929368
533,OfXeiAl5LhRHAnW6phBVKA,tradamerican;bars,Kelly's Bar & Grill,False,+15094473267,324 W 4th St,,,Newport,99156,US,WA,"['324 W 4th St', 'Newport, WA 99156']",48.17823,-117.04337
534,TKnrOsjbTfJE_46irHj24g,coffee;wine_bars;breakfast_brunch,Infinity Cafe,False,+12084484898,5770 Hwy 2,,,Priest River,83856,US,ID,"['5770 Hwy 2', 'Priest River, ID 83856']",48.1803939754655,-116.917388595351
535,NcBe3OdFR05BjADTSY_ySQ,tradamerican;bars,Usk Grill,False,+15094451262,112 5th St,,,Usk,99180,US,WA,"['112 5th St', 'Usk, WA 99180']",48.3142165839672,-117.279646843672
536,97XgtCi0II6_u8tMfnXGbQ,bars;breakfast_brunch;tradamerican,Riverbank Family Restaurant,False,+12084370892,402 N Idaho Ave,,,Oldtown,83822,US,ID,"['402 N Idaho Ave', 'Oldtown, ID 83822']",48.1839835,-117.0371629
537,EvDiXZsy1CUNmelDIPXEkA,beerbar;burgers;pizza,River City Tap House,False,+12084480134,6151 Hwy 2,,,Priest River,83856,US,ID,"['6151 Hwy 2', 'Priest River, ID 83856']",48.18081,-116.909349
538,vYTdGJj4g7QWwSne9lvi6g,coffee;wine_bars;pizza,The Beardmore Bistro Wine Bar & Tap House,False,+12084287800,119 Main St,Ste 104,,Priest River,83856,US,ID,"['119 Main St', 'Ste 104', 'Priest River, ID 83856']",48.180371,-116.9074936
539,fG_fIe56DgvWzBr_S_Dbzw,bars;steak;pizza,Boars Nest,False,+12086233877,7712 W Spirit Lake Rd,,,Spirit Lake,83869,US,ID,"['7712 W Spirit Lake Rd', 'Spirit Lake, ID 83869']",47.9524892881487,-116.878721090572
540,QCIsARMHBMVvvp10QbqOpw,bars,Club Rio,False,+12084374814,106 Hwy 2,,,Oldtown,83822,US,ID,"['106 Hwy 2', 'Oldtown, ID 83822']",48.1847496032715,-117.037246704102
541,fdDvn-G9CKZiHMcbOuyocA,bars;tradamerican,First Street Bar and Grill,False,+15092762320,122 W First St,,,Deer Park,99006,US,WA,"['122 W First St', 'Deer Park, WA 99006']",47.9555588,-117.4804916
542,HjEP5nHRbyEjz3A2HD-bww,sportsbars,Popeye's Lounge,False,+12084481283,80 Main St,,,Priest River,83856,US,ID,"['80 Main St', 'Priest River, ID 83856']",48.179496,-116.907618
543,fNdRrkKyZgWLyE1IWHpqTw,breakfast_brunch;beerbar;mexican,Chattaroy Hills Restaurant,False,+15092386187,4015 E Denison Chattaroy Rd,,,Chattaroy,99003,US,WA,"['4015 E Denison Chattaroy Rd', 'Chattaroy, WA 99003']",47.90419,-117.35184
544,kGX39Iso0yLA7GxKuUGFBQ,hotels;bars;tradamerican,White Horse Saloon & Hotel,False,+12086232353,6248 W Maine St,,,Spirit Lake,83869,US,ID,"['6248 W Maine St', 'Spirit Lake, ID 83869']",47.9649353027344,-116.87092590332
545,O8t6V7AyGi1rCWWWhjFuFg,newamerican;bars,Willow Bay Marina and Resort,False,+12089468794,520 Willow Bay Rd,,,Priest River,83856,US,ID,"['520 Willow Bay Rd', 'Priest River, ID 83856']",48.1512187421322,-116.767835766077
546,FQTH9tRNkj0EDlholPHarg,sportsbars;breakfast_brunch;tradamerican,Divot's Grill & Sports Bar,False,+15092761882,1201 N Country Club Dr,,,Deer Park,99006,US,WA,"['1201 N Country Club Dr', 'Deer Park, WA 99006']",47.968893,-117.449336
547,QOq5h6owfBMEHLIQJee0jw,bars;venues,Hunters Inn Tavern,False,+15097223631,4493 Spotted Rd,,,Clayton,99110,US,WA,"['4493 Spotted Rd', 'Clayton, WA 99110']",48.0486,-117.52073
548,NZuSTdGrj3sAf79Rla7VGg,beerbar;beer_and_wine,Overflow Taps,False,+13607782033,106 5th St,,,Lynden,98264,US,WA,"['106 5th St', 'Lynden, WA 98264']",48.9429558813572,-122.45314322412
549,Fyg0m9k7IHT3VVYnMJDDOw,seafood;bars,Bow & Stern,False,+16047763474,2551 Montrose Avenue,,,Abbotsford,V2S 3T4,CA,BC,"['2551 Montrose Avenue', 'Abbotsford, BC V2S 3T4', 'Canada']",49.0482910040075,-122.290517643918
550,Pp71rIP_3TAw_H0999mE8g,breakfast_brunch;tradamerican;sportsbars,Rusty Wagon Old Tyme Food & Beverage Co.,False,+13603545236,6937 Hannegan Rd,,,Lynden,98264,US,WA,"['6937 Hannegan Rd', 'Lynden, WA 98264']",48.8934593200684,-122.443077087402
551,huCEX0QKXImT_MowZswzZQ,newamerican;desserts;bars,The Mill,False,+13607782760,655 Front St,,,Lynden,98264,US,WA,"['655 Front St', 'Lynden, WA 98264']",48.9418999,-122.45486
552,XG7jQBqal0NGQwgc_0LIng,steak;venues;bars,Steakhouse 9 Bistro & Lounge,False,+13607782849,115 E Homestead Blvd,Ste A,,Lynden,98264,US,WA,"['115 E Homestead Blvd', 'Ste A', 'Lynden, WA 98264']",48.9603992979442,-122.446798193084
553,xSK9gPW8Ri7alpSPz-h3Uw,bbq;catering;cocktailbars,Burnt Ends,False,+13609220271,8082 WA-539,,,Lynden,98264,US,WA,"['8082 WA-539', 'Lynden, WA 98264']",48.93421,-122.48444
554,EyBLDzzpSGnPb_VX2jkJgw,bars;steak;tradamerican,Lou's Grill,False,+16048558777,2852 Gladys Avenue,,,Abbotsford,V2S 3Y2,CA,BC,"['2852 Gladys Avenue', 'Abbotsford, BC V2S 3Y2', 'Canada']",49.05354,-122.28642
555,1qh-s_ZyPI7a0MIrcZPKvw,newcanadian;cocktailbars;fooddeliveryservices,Cactus Club Cafe,False,+16048522582,34650 Delair Rd,,,Abbotsford,V2S 2C9,CA,BC,"['34650 Delair Rd', 'Abbotsford, BC V2S 2C9', 'Canada']",49.0353217905722,-122.266679406166
556,u_S7ZAZZ4FtWTCZK4B-Dnw,bars;burgers;hotdogs,Bob's Burgers and Brew - Sumas,False,+13609884483,819 Cherry St,,,Sumas,98295,US,WA,"['819 Cherry St', 'Sumas, WA 98295']",48.99599,-122.26548
557,ezs6rwqAK01nqMVG6c_CFA,tradamerican;steak;sportsbars,The Nuthouse Grill,False,+13603180588,8874 Bender Rd,Ste 109,,Lynden,98264,US,WA,"['8874 Bender Rd', 'Ste 109', 'Lynden, WA 98264']",48.9631492615495,-122.440168302781
558,HLx06o5XY79e_an3TCIe4w,bars;bbq,Little Roadside Tavern,False,+13605925107,3699 Mt Baker Hwy,,,Everson,98247,US,WA,"['3699 Mt Baker Hwy', 'Everson, WA 98247']",48.8432836532593,-122.289365530014
559,OVYSzrR67l8Dj36rPazFcw,tradamerican;bars,The Bourbon Bar & Grill,False,+13607468285,108 W Main St,,,Everson,98247,US,WA,"['108 W Main St', 'Everson, WA 98247']",48.92024,-122.34297
560,7FxzkU7oXYmicK--ZMryug,sportsbars;tradamerican,The Road House Bar and Grille,False,+13603668023,4965 Mount Baker Hwy,,,Deming,98244,US,WA,"['4965 Mount Baker Hwy', 'Deming, WA 98244']",48.826102,-122.217415
561,YyK15I9Ymk1VLMahy6cyug,pubs;steak,Fox & Hounds,False,+16048568111,26444 32nd Avenue,,,Aldergrove,V4W 3E8,CA,BC,"['26444 32nd Avenue', 'Aldergrove, BC V4W 3E8', 'Canada']",49.0600094,-122.4913572
562,4Sb_B4xNLKTHqxV8e6QYyQ,chinese;bars,Jasmine Garden Restaurant,False,+16048508628,31813 S Fraser Way,,,Abbotsford,V2T 1V4,CA,BC,"['31813 S Fraser Way', 'Abbotsford, BC V2T 1V4', 'Canada']",49.0481399,-122.34241
563,xbzX-HxIopge9DE_XVCN4g,bars;seafood;burgers,Bob's Bar n' Grill,False,+16048577725,27083 Fraser Hwy,,,Aldergrove,V4W,CA,BC,"['27083 Fraser Hwy', 'Aldergrove, BC V4W', 'Canada']",49.05829,-122.47399
564,FEHFwmYIQidyAHrPgiivmA,pubs,Highwayman Neighbourhood Pub,False,+16048593711,32470 Simon Avenue,,,Abbotsford,V2T 4J2,CA,BC,"['32470 Simon Avenue', 'Abbotsford, BC V2T 4J2', 'Canada']",49.0527299,-122.32464
565,NcKhcLS-eOyEFdA_RaOMbg,tradamerican;newcanadian;cocktailbars,S+L Kitchen & Bar,False,+16047443446,200-2070 Sumas Way,,,Abbotsford,V2S 2C7,CA,BC,"['200-2070 Sumas Way', 'Abbotsford, BC V2S 2C7', 'Canada']",49.0399959,-122.2687862
566,tUJgxMEIh8s5Qwjr9Wus1g,newcanadian;breweries;beerbar,Trading Post Eatery,False,+16043432337,3058 Gladwin Road,,,Abbotsford,V2T 0H5,CA,BC,"['3058 Gladwin Road', 'Abbotsford, BC V2T 0H5', 'Canada']",49.0581452,-122.3155502
567,lptTmWIZrWfkErSWjR7SIA,pubs;newcanadian;burgers,Browns Socialhouse McCallum,False,+17785487949,170-1828 McCallum Road,,,Abbotsford,V2S 3M7,CA,BC,"['170-1828 McCallum Road', 'Abbotsford, BC V2S 3M7', 'Canada']",49.0360325,-122.2930357
568,8EPFuqasg6wBT6Wl06l49g,newcanadian;pubs;sportsbars,The Canadian Brewhouse & Grill,False,+16046255433,3122 Mt. Lehman Rd. E125,,,Abbotsford,V2T 0C5,CA,BC,"['3122 Mt. Lehman Rd. E125', 'Abbotsford, BC V2T 0C5', 'Canada']",49.0582074010858,-122.380753017343
569,HdscB2w2brNNxBWk53s0bg,bars;tradamerican,Original Joe's Restaurant & Bar,False,+16045045690,2649 Trethewey Street,Suite 101,,Abbotsford,V2T 0B5,CA,BC,"['2649 Trethewey Street', 'Suite 101', 'Abbotsford, BC V2T 0B5', 'Canada']",49.0503869,-122.3268614
570,cMC3KiLbNYE5VdOwevX8Fg,newcanadian;steak;lounges,Moxie's Grill & Bar,False,+16048701162,32760 Simon Ave,,,Abbotsford,V2T 0B8,CA,BC,"['32760 Simon Ave', 'Abbotsford, BC V2T 0B8', 'Canada']",49.0535206,-122.3152838
571,7bm1DotC7bM1-efUxsi7wQ,steak;seafood;bars,The Keg Steakhouse + Bar,False,+16048559893,2142 West Railway Street,,,Abbotsford,V2S 2E2,CA,BC,"['2142 West Railway Street', 'Abbotsford, BC V2S 2E2', 'Canada']",49.0418929,-122.2786719
572,BGasNEm8tMFEPB3sSqkA2w,bars;newcanadian,Abbey Road,False,,,,,Abbotsford,,CA,BC,"['Abbotsford, BC', 'Canada']",49.0374945988633,-122.275567920348
573,hvR_WKW1A5GW28-ik_1c7g,pubs,Glynn's Shamrock Pub,False,+13603981702,5309 Guide Meridian,,,Bellingham,98226,US,WA,"['5309 Guide Meridian', 'Bellingham, WA 98226']",48.83358,-122.48658
574,jIeQ4pqY8ujLKmOPLKHVQg,newcanadian;sportsbars;chicken_wings,WINGS Abbotsford,False,+16047561077,1965 Sumas Way,,,Abbotsford,V2S 4L5,CA,BC,"['1965 Sumas Way', 'Abbotsford, BC V2S 4L5', 'Canada']",49.0372,-122.26857
575,QDRbpvlCXLwB8QGo4nv9Lg,icecream;bars;sandwiches,Heather Meadows Cafe,False,+13607346771,Mile Marker 55 Mt Baker Hwy,,,Glacier,98244,US,WA,"['Mile Marker 55 Mt Baker Hwy', 'Glacier, WA 98244']",48.9233153751272,-122.074748455371
576,GI7hThWG5iAlIQSCZlYDKg,newcanadian;bars;breakfast_brunch,Raven Bar & Grill,False,+16048528553,30440 Liberator Avenue,Suite 4,,Abbotsford,V2T 6H5,CA,BC,"['30440 Liberator Avenue', 'Suite 4', 'Abbotsford, BC V2T 6H5', 'Canada']",49.022504,-122.380529
577,Xgtgd7iE9_abFbZTOx2jKw,cigarbars;beergardens,Tin Can Cigar,False,,1501 E Badger Rd,,,Lynden,98264,US,WA,"['1501 E Badger Rd', 'Lynden, WA 98264']",48.96392,-122.40738
578,pQcAY8ayt40r7peN4VVwpw,newcanadian;comfortfood;bars,Milestones Restaurants,False,+16043811222,3122 Mt Lehman Rd,,,Abbotsford,V4X 2M9,CA,BC,"['3122 Mt Lehman Rd', 'Abbotsford, BC V4X 2M9', 'Canada']",49.0585910821515,-122.380764522547
579,q9IetpufCrBVyiC8iR1Pew,bars,The Thirsty Badger,False,,1501 E Badger Rd,,,Lynden,98264,US,WA,"['1501 E Badger Rd', 'Lynden, WA 98264']",48.9639160354,-122.406806329
580,peGYYFl3MzozoVPYCdWrrg,bars;tradamerican,Station House Bar & Grill,False,+16048563111,3122 Station Rd,,,Abbotsford,V4X 2S8,CA,BC,"['3122 Station Rd', 'Abbotsford, BC V4X 2S8', 'Canada']",49.05894,-122.45926
581,dS3o-I60kGa9rynK0K985Q,chinese;sportsbars,Dragon House Restaurant,False,+16048575788,27538 Fraser Highway,,,Aldergrove,V4W 3N5,CA,BC,"['27538 Fraser Highway', 'Aldergrove, BC V4W 3N5', 'Canada']",49.0577193,-122.4626334
582,4Y6H4jevq_HyrLU6WyCiMw,casinos;sportsbars;tradamerican,Chances Abbotsford,False,+16048546522,30835 Peardonville Road,,,Abbotsford,V2T 6K2,CA,BC,"['30835 Peardonville Road', 'Abbotsford, BC V2T 6K2', 'Canada']",49.0462327,-122.3697821
583,WfvAuziOw0JQUSYL-tXLZQ,sportsbars,Sneakers Sports Lounge,False,+16048543911,2550 Yale Crt,,,Abbotsford,V2S 8G9,CA,BC,"['2550 Yale Crt', 'Abbotsford, BC V2S 8G9', 'Canada']",49.0478076,-122.2681766
584,nHoghG3HkLc7EHDM23h6wA,pubs,The Glen Bar & Grill,False,+16048593477,36036 S Parallel Road,,Fraserglen Golf Course and Training Centre,Abbotsford,V3G 2K4,CA,BC,"['36036 S Parallel Road', 'Fraserglen Golf Course and Training Centre', 'Abbotsford, BC V3G 2K4', 'Canada']",49.0343706353931,-122.228620108694
585,E11wADW8iuSbbR2HzGPSNw,bars;newcanadian,Bankrupt Social Spot,False,+16048595255,2509 Pauline Street,,,Abbotsford,V2S 2C1,CA,BC,"['2509 Pauline Street', 'Abbotsford, BC V2S 2C1', 'Canada']",49.0475904460281,-122.292014211416
586,qvxzETruz21de7cNwn_tZg,bars;newcanadian;steak,Q's Bar & Grill,False,+16048709322,2955 Gladwin Road,,,Abbotsford,V2T 5T4,CA,BC,"['2955 Gladwin Road', 'Abbotsford, BC V2T 5T4', 'Canada']",49.0555916,-122.3156967
587,m4J6Asa88VLW7J6eaGq9qQ,bars,Bobs Steakhouse,False,+16048577725,27083 Fraser Highway,,,Langley,V4W 3L6,CA,BC,"['27083 Fraser Highway', 'Langley, BC V4W 3L6', 'Canada']",49.0582886,-122.4739914
588,gwTDNOTqy7eWg1k9gvfYIA,newamerican;pubs,Normandy Park Ale House,False,+12065926986,19803 1st Ave S,Ste 104,,Normandy Park,98148,US,WA,"['19803 1st Ave S', 'Ste 104', 'Normandy Park, WA 98148']",47.425138,-122.3358802
589,jumkhxyW9r1QimpwlG8f_w,bars;breakfast_brunch;tradamerican,13 Coins Restaurant,False,+12062439500,18000 International Blvd,,,SeaTac,98188,US,WA,"['18000 International Blvd', 'SeaTac, WA 98188']",47.4413275,-122.295111
590,ehuoDCQfVgKUafxwyjk9WQ,airportlounges,Delta Sky Club,False,,17801 International Blvd,,Terminal A,Seattle,98158,US,WA,"['17801 International Blvd', 'Terminal A', 'Seattle, WA 98158']",47.442576,-122.30261
591,nYdCWnqzm7wXs0b0g24gOg,newamerican;breakfast_brunch;wine_bars,Copperleaf Restaurant,False,+12062144282,18525 36th Ave S,,,SeaTac,98188,US,WA,"['18525 36th Ave S', 'SeaTac, WA 98188']",47.4371504,-122.2872756
592,DC1S5q5uHmRnHNMOtgGUYA,pizza;italian;bars,via Marina Wood Fired Pizza & Italian Cafe,False,+12065922659,22636 Marine View Dr S,,,Des Moines,98198,US,WA,"['22636 Marine View Dr S', 'Des Moines, WA 98198']",47.3982085,-122.3240175
593,yAe6DNoADAO2xQIRK4jDnA,airportlounges,The Centurion Lounge,False,,17801 International Blvd,,,Seattle,98158,US,WA,"['17801 International Blvd', 'Seattle, WA 98158']",47.4423566564648,-122.303393755399
594,hzjU6H_Syho54R0T2IfJMg,cafes;wine_bars,The Quarterdeck,False,+12062124660,22307 Dock Ave S,Unit 1,,Des Moines,98198,US,WA,"['22307 Dock Ave S', 'Unit 1', 'Des Moines, WA 98198']",47.4016840877986,-122.329382076859
595,3SSQSDntDBGDV42vpQp5dQ,ethiopian;coffee;bars,Star Coffee Restaurant,False,+12066952751,16005 International Blvd,,,Seatac,98188,US,WA,"['16005 International Blvd', 'Seatac, WA 98188']",47.45944,-122.29257
596,lo6la8j-XYnWa9ZRSu40Jw,airportlounges,Alaska Lounge - C Concourse,False,+18002527522,17801 International Blvd,Concourse  C,,Seattle,98158,US,WA,"['17801 International Blvd', 'Concourse  C', 'Seattle, WA 98158']",47.4454483256052,-122.304030843079
597,0LwWG9F5o1qxwnDRjaIwUA,airportlounges,Alaska Lounge North Satellite,False,+18002527522,17801 International Blvd,,,SeaTac,98158,US,WA,"['17801 International Blvd', 'SeaTac, WA 98158']",47.443567,-122.300017
598,mpsTH3YJ2kPgHuqDlDs6BQ,airportlounges;nonprofit,USO Northwest,False,+12062461908,17801 International Blvd,,SeaTac International Airport,Seattle,98158,US,WA,"['17801 International Blvd', 'SeaTac International Airport', 'Seattle, WA 98158']",47.443217,-122.302474
599,894HOYFqYQ8dNuCDzBWJqA,salvadoran;bars,Las Palmas,False,+12068788469,19840 International Blvd,,,Seatac,98188,US,WA,"['19840 International Blvd', 'Seatac, WA 98188']",47.42333,-122.29583
600,dKp7CtCFj91EYlgP3rLGIw,mexican;bars,Arturo's Mexican Restaurant,False,+12068241155,22204 Marine View Dr S,,,Des Moines,98198,US,WA,"['22204 Marine View Dr S', 'Des Moines, WA 98198']",47.4029426574707,-122.324211120605
601,kXOQMK9etaHN7hI37lQMlg,lounges,Africa Lounge,False,+12062770200,17801 International Blvd,,Seattle-Tacoma International Airport - Concourse A,Seattle,98158,US,WA,"['17801 International Blvd', 'Seattle-Tacoma International Airport - Concourse A', 'Seattle, WA 98158']",47.4413468581064,-122.300109157938
602,nvds_g7n6AwBqtykaAKMIQ,lounges;burgers;breakfast_brunch,Rel'Lish Burger Lounge,False,+12067847840,17801 International Blvd,Concourse B,,Seattle,98158,US,WA,"['17801 International Blvd', 'Concourse B', 'Seattle, WA 98158']",47.441632409821,-122.303770081372
603,CdPtMqx4eKQzqU8T_pzbqQ,casinos;bars;newamerican,Wizards Casino,False,+12062413818,15739 Ambaum Blvd SW,,,Burien,98166,US,WA,"['15739 Ambaum Blvd SW', 'Burien, WA 98166']",47.46146,-122.33622
604,1t8oqbeo-fZVodDd7ZO1Tw,newamerican;lounges;wine_bars,Aqua Terra,False,+12062412000,3201 South 176th St,,,Seattle,98188,US,WA,"['3201 South 176th St', 'Seattle, WA 98188']",47.44385,-122.29071
605,l8OHkAB0VNur-QWZ80FAgg,seafood;bars;sandwiches,Dungeness Bay Seafood House,False,,17801 International Blvd,,South Satellite Terminal,Seattle,98158,US,WA,"['17801 International Blvd', 'South Satellite Terminal', 'Seattle, WA 98158']",47.438834,-122.302218
606,wZ0yxpMR-Mgvh-BMWNMWNQ,airportlounges,United Club,False,,17801 International Blvd,,,Seattle,98158,US,WA,"['17801 International Blvd', 'Seattle, WA 98158']",47.440311,-122.298014
607,Osb2f5xgnGkrPxGqK3pJaA,lounges;sportsbars;steak,Lighthouse Lounge,False,,22239 Marine View Dr,,,Des Moines,98198,US,WA,"['22239 Marine View Dr', 'Des Moines, WA 98198']",47.4019840925017,-122.324865907431
608,LyrC7SNMvq07iJiGvwX6Aw,sportsbars;tradamerican,Seattle Seahawks 12 Club,False,,17801 International Blvd,,North Satellite Terminal,Seattle,98158,US,WA,"['17801 International Blvd', 'North Satellite Terminal', 'Seattle, WA 98158']",47.4484471825487,-122.302289450937
609,tztz2Rk2Uhh9US2WteJetg,sportsbars,All-Star Sports Bar,False,+12062126740,22303 Marine View Dr S,,,Des Moines,98198,US,WA,"['22303 Marine View Dr S', 'Des Moines, WA 98198']",47.4016647338867,-122.324981689453
610,TI2ojwOmVr7TtbMtvlG28w,sportsbars;tradamerican,BZ's Sports Bar & Grill,False,+12062436018,17730 Ambaum Blvd S,,,Burien,98148,US,WA,"['17730 Ambaum Blvd S', 'Burien, WA 98148']",47.44496,-122.3288
611,6oxYccJemuXTPk2d10Plqg,divebars;poolhalls,Good Time Ernie's,False,+12062481670,15747 Ambaum Blvd SW,,,Burien,98166,US,WA,"['15747 Ambaum Blvd SW', 'Burien, WA 98166']",47.4613299,-122.3365
612,dA46O3W31v56V-n2vMXcqA,lounges;seafood,Seaports Restaurant,False,+12062468600,18740 International Blvd,,,Seatac,98188,US,WA,"['18740 International Blvd', 'Seatac, WA 98188']",47.4355192,-122.2941291
613,m6hSH4bRSl8hZIoOZrRUgw,arcades;poolhalls;beerbar,Waterland Arcade,False,+12066537679,22306 Marine View Dr S,,,Des Moines,98198,US,WA,"['22306 Marine View Dr S', 'Des Moines, WA 98198']",47.40159,-122.32419
614,Scksco2lYB0PdoloEUoS2g,airportlounges,"Delta Sky Club ""S"" Gates",False,,17801 International Blvd,"Roof Top level, Gate S9 - S10",Terminal S,SeaTac,98158,US,WA,"['17801 International Blvd', 'Roof Top level, Gate S9 - S10', 'Terminal S', 'SeaTac, WA 98158']",47.4387948999529,-122.302201896143
615,7XZR71P5Q2qUOXjt3vuqPQ,sportsbars;pubs,Sports Page Pub,False,+12067875388,17801 International Blvd,"Concourse D, Gate D-3",Seattle-Tacoma International Airport,Seattle,98158,US,WA,"['17801 International Blvd', 'Concourse D, Gate D-3', 'Seattle-Tacoma International Airport', 'Seattle, WA 98158']",47.4438614,-122.3022337
616,jCMJuJJu1b3oI1rZCCw2Yw,airportlounges,The Club SEA,False,+18775350259,17801 International Blvd,,Gate A11,Seattle,98158,US,WA,"['17801 International Blvd', 'Gate A11', 'Seattle, WA 98158']",47.4390758216745,-122.29760420724
617,gejrGuwPyZo4ssPtEodmWw,tradamerican;sportsbars,Mountain Room Bar,False,+12064445545,17801 International Blvd,,,Seattle,98158,US,WA,"['17801 International Blvd', 'Seattle, WA 98158']",47.4387775696998,-122.297556222229
618,m2J91uHNV7KnYpsOat5ueQ,french;tapasmallplates;wine_bars,Le Grand Comptoir,False,,17801 International Blvd,Concourse C,,Seattle,98158,US,WA,"['17801 International Blvd', 'Concourse C', 'Seattle, WA 98158']",47.4453792458879,-122.303855823309
619,uAG7kgtBgq0fiTE5rqptog,burgers;tradamerican;beerbar,Ballard Brew Hall,False,,17801 International Blvd,,,Seattle,98158,US,WA,"['17801 International Blvd', 'Seattle, WA 98158']",47.4455530472862,-122.300447988391
620,xDQJn424pczQdejtq9nJdg,bars;cafes,Stone House Cafe & Bar,False,,17801 International Blvd,,,SeaTac,98158,US,WA,"['17801 International Blvd', 'SeaTac, WA 98158']",47.4406159552828,-122.29616163149
621,TaJB2U2JSJhkIOfbQQo-Ow,airportlounges,British Airways Terraces Lounge,False,,17801 International Blvd,,South Satellite Terminal,Seattle,98158,US,WA,"['17801 International Blvd', 'South Satellite Terminal', 'Seattle, WA 98158']",47.438752897376,-122.302147869312
622,iu5sNWA4uZwmvFNNJwS2dw,mexican;lounges,MI CASA,False,,17801 International Blvd,,,Seattle,98158,US,WA,"['17801 International Blvd', 'Seattle, WA 98158']",47.44054,-122.29623
623,OuO2prrclDDYEfQ8KV7RJQ,airportlounges,The Club SEA S-Terminal,False,,17801 International Blvd,,South Satellite Terminal,Seattle,98158,US,WA,"['17801 International Blvd', 'South Satellite Terminal', 'Seattle, WA 98158']",47.4389295491631,-122.301643217498
624,RP0h4CQhRhvq3I1hiKM9hQ,bartenders;desserts;cocktailbars,Happy Camper Cocktail Company,False,+12069488261,1708 Franklin St,,,Enumclaw,98022,US,WA,"['1708 Franklin St', 'Enumclaw, WA 98022']",47.206189,-121.9929368
625,SHWCqwbvT-0G_lrIX_i2IQ,airportlounges,Club International,False,+12067874040,17801 International Blvd,,Gate S9,Seattle,98158,US,WA,"['17801 International Blvd', 'Gate S9', 'Seattle, WA 98158']",47.4391619919515,-122.301929758817
626,-FgpDSla_WDV63Y4-uNdLw,bars;musicvenues,The Player‚Äôs Sports Bar,False,+12068786014,22855 Pacific Hwy S,,,Des Moines,98198,US,WA,"['22855 Pacific Hwy S', 'Des Moines, WA 98198']",47.39562,-122.2955
627,kxThBkW-udsRnLb9By-ytg,cocktailbars,WXYZ Bar,False,+12062410260,19030 28th Ave S,,,SeaTac,98188,US,WA,"['19030 28th Ave S', 'SeaTac, WA 98188']",47.432,-122.29757
628,AbFZBfcf5zAOvj4usrUxIw,burgers;pizza;cocktailbars,The Iron Duck Public House,False,+14252929146,101 W North Bend Way,,,North Bend,98045,US,WA,"['101 W North Bend Way', 'North Bend, WA 98045']",47.49481,-121.78616
629,qKP52V8u1Ki_tymj-mIxQA,mexican;cocktailbars,Caadxi Oaxaca,False,+14254349587,8030 Railroad Ave SE,,,Snoqualmie,98065,US,WA,"['8030 Railroad Ave SE', 'Snoqualmie, WA 98065']",47.52849,-121.82472
630,yTruvWOi8xBl_j-Q_nzIYQ,tradamerican;beer_and_wine;sportsbars,Pour House Bar & Grill,False,+14258881722,330 W North Bend Way,,,North Bend,98045,US,WA,"['330 W North Bend Way', 'North Bend, WA 98045']",47.49665,-121.78854
631,AKU6U5QwpXwKyCjUei8hvA,wine_bars;newamerican;salad,Wildflower Bistro,False,+14252920647,228 W North Bend Way,Ste B,,North Bend,98045,US,WA,"['228 W North Bend Way', 'Ste B', 'North Bend, WA 98045']",47.496008,-121.78732
632,mlwIPmxC1it2uhETftqq5A,mexican;bars,El Caporal Mexican Restaurant,False,+14258882048,424 Main Ave S,,,North Bend,98045,US,WA,"['424 Main Ave S', 'North Bend, WA 98045']",47.49193,-121.78766
633,Abtd76-NMG-MNlaOklCxMg,coffee;pubs,The Bindlestick,False,+14258880259,8010 Railroad Ave SE,,,Snoqualmie,98065,US,WA,"['8010 Railroad Ave SE', 'Snoqualmie, WA 98065']",47.52869,-121.82507
634,97S0pnonCChUO0kvv1di-g,tradamerican;bars;venues,Mt Si Golf Course Restaurant,False,+14258882150,9010 Boalch Ave SE,,,Snoqualmie,98065,US,WA,"['9010 Boalch Ave SE', 'Snoqualmie, WA 98065']",47.518877,-121.798428
635,8jW2FnWflI2X3tb90laEoA,pubs,Twin Peaks Pub,False,+14252920420,129 W North Bend Way,,,North Bend,98045,US,WA,"['129 W North Bend Way', 'North Bend, WA 98045']",47.49508,-121.78674
636,xtxW2mkG68RQciMxdwQG5g,sportsbars,Sure Shot Tavern,False,+14258889646,101 Bendigo Blvd N,Apt 9,,North Bend,98045,US,WA,"['101 Bendigo Blvd N', 'Apt 9', 'North Bend, WA 98045']",47.4956084042788,-121.786887869239
637,jRUL7npnJadkj3PKFaljrQ,steak;lounges,Woodman Lodge,False,+14258884441,38601 SE King St,,,Snoqualmie,98065,US,WA,"['38601 SE King St', 'Snoqualmie, WA 98065']",47.52849,-121.82607
638,Zz-5bitkfvuR6hSZ7Q4Cog,pubs,Smokey Joe's Tavern,False,+14258316978,38600 SE King St,,,Snoqualmie,98065,US,WA,"['38600 SE King St', 'Snoqualmie, WA 98065']",47.52876,-121.82623
639,8tI-La85OW_it3Nw-917kQ,diners;bars,Sno Valley Eagles 3529,False,+14258881129,8200 Railroad Ave SE,,,Snoqualmie,98065,US,WA,"['8200 Railroad Ave SE', 'Snoqualmie, WA 98065']",47.527027130127,-121.823638916016
640,XCxUiCzWjaZ0lL8qD7PAZg,burgers;sandwiches;beerbar,Cascade Locks Ale House,False,+15413749310,500 SW WaNaPa St,,,Cascade Locks,97014,US,OR,"['500 SW WaNaPa St', 'Cascade Locks, OR 97014']",45.665646,-121.895571
641,xBhQdc1b3ijAwpdFUsoY1g,mexican;bars,El Rio Texicantina,False,+15094274479,193 SW 2nd St,,,Stevenson,98648,US,WA,"['193 SW 2nd St', 'Stevenson, WA 98648']",45.69412,-121.88292
642,X4K3DcS06Hgz_31cF0oKxA,wineries;wine_bars,AniChe Cellars,False,+13606246531,71 Little Buck Creek Rd,,,Underwood,98651,US,WA,"['71 Little Buck Creek Rd', 'Underwood, WA 98651']",45.7411531,-121.554647
643,46PMn8SWS2mJgksmsCBfNg,wine_bars;newamerican;tapas,White Buffalo Wine Bar & Bistro,False,+15413865534,4040 Westcliff Dr,,,Hood River,97031,US,OR,"['4040 Westcliff Dr', 'Hood River, OR 97031']",45.710463,-121.555946
644,cxTcdW4f3LSrJdmEJA5JvA,bars;tradamerican,Locks Waterfront Grill,False,+15032243900,299 NW Portage Rd,,,Cascade Locks,97014,US,OR,"['299 NW Portage Rd', 'Cascade Locks, OR 97014']",45.671407,-121.89283
645,msGA6DG2sI8KwtAlhqLZRQ,pizza;salad;beerbar,Nuts On Sports Pizza,False,+15036630622,31265 Hwy 26,,,Boring,97009,US,OR,"['31265 Hwy 26', 'Boring, OR 97009']",45.431523,-122.340914
646,sMCRxYZcqw0sqGCGQdvqdA,desserts;irish;cocktailbars,Kilted Spirits Irish Pub,False,+13608447186,1926 Main St,,,Washougal,98671,US,WA,"['1926 Main St', 'Washougal, WA 98671']",45.57826,-122.35118
647,xqx96fW1xsgFOCfpbPmiVQ,pizza;pubs;burgers,Smoky Hearth Restaurant Bar & Grill,False,+15036684466,16607 Champion Way,Ste 100,,Sandy,97055,US,OR,"['16607 Champion Way', 'Ste 100', 'Sandy, OR 97055']",45.4041383,-122.2956651
648,EF05pA44SM24XkBz-450jg,tradamerican;bars,2 Rivers Bar and Grill,False,+13602107987,1700 Main St,Ste 110,,Washougal,98671,US,WA,"['1700 Main St', 'Ste 110', 'Washougal, WA 98671']",45.57816,-122.35328
649,tfIFzMI68MLLLg8XeYqF9Q,bars;tradamerican;pizza,The Brightwood Tavern,False,+15036221568,63010 E Brightwood Bridge Rd,,,Brightwood,97011,US,OR,"['63010 E Brightwood Bridge Rd', 'Brightwood, OR 97011']",45.37663,-122.01593
650,J0KwhuNM8MTaD8L-C7dnjQ,tradamerican;sportsbars,Washougal Times,False,+13608352488,1826 E St,,,Washougal,98671,US,WA,"['1826 E St', 'Washougal, WA 98671']",45.58086,-122.35197
651,jtKi1PB3_QspW2UbYeWgIQ,sportsbars;tradamerican,Scooter's Sports Bar,False,+15038269364,36641 Hwy 26,,,Sandy,97055,US,OR,"['36641 Hwy 26', 'Sandy, OR 97055']",45.403730000972,-122.28541161865
652,fDrEWVfuUsASYFBCptoUuA,pubs,Gateway Pub,False,+15038260309,39100 Pioneer Blvd,,,Sandy,97055,US,OR,"['39100 Pioneer Blvd', 'Sandy, OR 97055']",45.3961566878241,-122.260229364037
653,9jZMD40QQaOoSlUVGYfvAA,pubs,Smeads Pub,False,+13608357370,3395 Evergreen Way,,,Washougal,98671,US,WA,"['3395 Evergreen Way', 'Washougal, WA 98671']",45.57802,-122.33258
654,Z1TvoaELw6jlCIiNA4391A,divebars;restaurants,Bungalow Bar & Grill,False,+15094274523,812 Wind River Hwy,,,Carson,98610,US,WA,"['812 Wind River Hwy', 'Carson, WA 98610']",45.723674,-121.820155
655,RjSnut-PdhKHb5BgF9lt6g,pubs,Historic Springdale Pub & Eatery,False,+15036952676,32302 Historic Colmbia River Hwy,,,Corbett,97019,US,OR,"['32302 Historic Colmbia River Hwy', 'Corbett, OR 97019']",45.518887,-122.330514
656,c9C45lSgasKmV2pZGrP22Q,bars;seafood;tradamerican,Big Foot Inn,False,+13608352826,105 17th St,,,Washougal,98671,US,WA,"['105 17th St', 'Washougal, WA 98671']",45.5778764491507,-122.353960704304
657,-y5PkZHwjkINKYF5_yDshA,pizza;sportsbars;italian,Paola's Pizza Barn,False,+15036688058,38015 Hwy 26,,,Sandy,97055,US,OR,"['38015 Hwy 26', 'Sandy, OR 97055']",45.39882,-122.27228
658,pFMiXp9-RJa2kGMUv6e7ug,tradamerican;divebars,Pleasant Home Saloon,False,+15036632626,31637 SE Dodge Park Blvd,,,Gresham,97080,US,OR,"['31637 SE Dodge Park Blvd', 'Gresham, OR 97080']",45.470089,-122.3373413
659,B4nO2KoKAhT1G4pA55psPw,creperies;cocktailbars,Le Happy Creperie & Bar,False,+15035637707,38687 Proctor Blvd,,,Sandy,97055,US,OR,"['38687 Proctor Blvd', 'Sandy, OR 97055']",45.39753,-122.26554
660,dLcre9KVtV0f_aLNbX5idQ,tradamerican;pubs,Backroads Pub & Grub,False,+15036635777,13230 SE Orient Dr,,,Boring,97009,US,OR,"['13230 SE Orient Dr', 'Boring, OR 97009']",45.42759,-122.32101
661,g6V_i5A-e8ObliSUEb8c5w,sportsbars;karaoke,No Place Saloon,False,+15036686415,38725 Proctor Blvd,,,Sandy,97055,US,OR,"['38725 Proctor Blvd', 'Sandy, OR 97055']",45.39755,-122.26502
662,IQo_IOA25UiloNzD6V3Tqw,bars,Ria's Bar,False,+15038268536,39024 Proctor Blvd,,,Sandy,97055,US,OR,"['39024 Proctor Blvd', 'Sandy, OR 97055']",45.397031,-122.261258
663,iflgQt1E-ZiwS7m29UJ_Fg,pubs,Chester's Pub,False,+15036637551,31293 SE Highway 26,,,Boring,97009,US,OR,"['31293 SE Highway 26', 'Boring, OR 97009']",45.4277409895276,-122.335956565819
664,JmW0JICqss-B26tsuwHCPQ,pubs,Kuk's Tavern,False,+15097324443,400 Summit Ave,,,Northport,99157,US,WA,"['400 Summit Ave', 'Northport, WA 99157']",48.91702,-117.78276
665,i-5kFYQ0FexuKxyG_IJFhQ,hotels;gastropubs;cocktailbars,The Flying Steamshovel,False,+12503627323,2003 - 2nd Avenue,,,Rossland,V0G 1Y0,CA,BC,"['2003 - 2nd Avenue', 'Rossland, BC V0G 1Y0', 'Canada']",49.0791991,-117.7996421
666,CElm8M0kXcD8G8ux01QZJg,sportsbars;burgers;sandwiches,The Block,False,+15094423737,425 Main St,,,Ione,99139,US,WA,"['425 Main St', 'Ione, WA 99139']",48.7408223279813,-117.422360456078
667,Ndenesv9D9TbtO9Pi2rSkg,tradamerican;bars;pizza,5th Avenue Bar & Grill,False,+15094464234,214 E 5th Ave,,,Metaline Falls,99153,US,WA,"['214 E 5th Ave', 'Metaline Falls, WA 99153']",48.8621,-117.37053
668,MGLUnWGuxqc0qNkgCQSgLw,beerbar;breweries,Trail Beer Refinery,False,+17784562827,1299 Bay Avenue,,,Trail,V1R 4A5,CA,BC,"['1299 Bay Avenue', 'Trail, BC V1R 4A5', 'Canada']",49.0964451272275,-117.708045430954
669,vHbTktv0vt3zAX2TiY_Aag,british;sandwiches;lounges,Foxy's Fine Food and Drinks,False,+12503683355,1001 Rossland Avenue,,,Trail,V1R 3N7,CA,BC,"['1001 Rossland Avenue', 'Trail, BC V1R 3N7', 'Canada']",49.0966689,-117.7133014
670,IBADqO6jxUcaYvifutU8pw,pubs;sandwiches,Colville Pour House,False,+15096857325,202 S Main St,,,Colville,99114,US,WA,"['202 S Main St', 'Colville, WA 99114']",48.5431913210918,-117.906173201555
671,1D9mBKOTrs_iheyIgQWQHg,thai;lounges;asianfusion,Mook Thai Lounge,False,+12503620022,2115 Queen Street,,,Rossland,V0G 1Y0,CA,BC,"['2115 Queen Street', 'Rossland, BC V0G 1Y0', 'Canada']",49.078331,-117.798495
672,-EIHZn1tITXvZ-YHgkkKQw,sportsbars;breakfast_brunch;burgers,South Main Restaurant & Sports Bar,False,+15096849930,993 S Main St,,,Colville,99114,US,WA,"['993 S Main St', 'Colville, WA 99114']",48.53479,-117.90471
673,79YZFxueIQqQifqq5tpnvA,pubs;breakfast_brunch;steak,Acorn Saloon & Feeding Station,False,+15096843337,262 S Main St,,,Colville,99114,US,WA,"['262 S Main St', 'Colville, WA 99114']",48.54268,-117.90595
674,xqnCyjS5VBDjvIY-_fbknw,bars;pizza;sandwiches,Black Rooster Classic Bar & Grill,False,+12503657779,651 18th Street,,,Castlegar,V1N 2N1,CA,BC,"['651 18th Street', 'Castlegar, BC V1N 2N1', 'Canada']",49.3001697,-117.656422
675,9c6cslQUba8mK1aO_m0k0A,bars;tradamerican,Arlington Bar & Grill,False,+12503683711,975 Spokane Street,,,Trail,V1R 3W7,CA,BC,"['975 Spokane Street', 'Trail, BC V1R 3W7', 'Canada']",49.09555,-117.7077
676,SdDA5z4aPyPvfy0SlWh1bw,tradamerican;pubs;burgers,Grand Forks Station Pub & Banquet Facility,False,+12504425855,7654 Donaldson Dr,,,Grand Forks,V0H 1H2,CA,BC,"['7654 Donaldson Dr', 'Grand Forks, BC V0H 1H2', 'Canada']",49.03139,-118.464053
677,pzwS4LN-nN0Zsr76fMPZKA,bbq;pubs,Lion's Head Smoke & Brew Pub,False,+12503652739,2629 Broadwater Road,,,Castlegar,V1N 4V4,CA,BC,"['2629 Broadwater Road', 'Castlegar, BC V1N 4V4', 'Canada']",49.3329811,-117.6768799
678,3bXQpDQqFEYz0aSHqwrnFw,bars;newamerican,Hayden's Bar & Grill,False,+15097386153,480 Meyers St,,,Kettle Falls,99141,US,WA,"['480 Meyers St', 'Kettle Falls, WA 99141']",48.60904,-118.05672
679,NmZytCFh2WYwPNnLtCxLoQ,newcanadian;pubs;sandwiches,Clyde's Pub,False,+12504423913,7248 2nd Street,,,Grand Forks,V0H 1H0,CA,BC,"['7248 2nd Street', 'Grand Forks, BC V0H 1H0', 'Canada']",49.0330770509057,-118.437457365615
680,J0w5Gq-DlOcU4vkiodjfVQ,pubs,Lost Falls,False,+15096840638,347 W 2nd Ave,Ste D,,Colville,99114,US,WA,"['347 W 2nd Ave', 'Ste D', 'Colville, WA 99114']",48.5453,-117.90951
681,TgNzc4shE3KKzVVjMoYX2A,bars,The Logger Tavern,False,+15096848284,246 N Main St,,,Colville,99114,US,WA,"['246 N Main St', 'Colville, WA 99114']",48.5459900441544,-117.905359938741
682,BltOfmWRegifGrcHC_di5A,pubs;steak,Benedicts Steakhouse & Tunnel Pub,False,+12503683360,3 Schofield Highway,,,Trail,V1R 2J9,CA,BC,"['3 Schofield Highway', 'Trail, BC V1R 2J9', 'Canada']",49.0982442,-117.7324875
683,YIRZ_KEVM93ky2Dbf0M3-Q,pubs,Thirsty Duck Neighbourhood Pub,False,+12503650035,4370B Minto Road,,,Castlegar,V1N 4B3,CA,BC,"['4370B Minto Road', 'Castlegar, BC V1N 4B3', 'Canada']",49.25554,-117.6609
684,ninrXyQquBwSvgirgez1dg,mexican;pubs,Village Inn Restaurant,False,+12503677664,1867 Highway 3B,,,Fruitvale,V0G 1L0,CA,BC,"['1867 Highway 3B', 'Fruitvale, BC V0G 1L0', 'Canada']",49.113430716264,-117.550003131035
685,bq6YW7R0kyxd-k7jYhHxog,pubs,Cartwrights Pub,False,,1432 Columbia Avenue,,,Castlegar,V1N 3K3,CA,BC,"['1432 Columbia Avenue', 'Castlegar, BC V1N 3K3', 'Canada']",49.3082468323211,-117.659744359553
686,nKCgR3_V-_4iB8pj0BZHcQ,wine_bars;tradamerican,The Terrace Wine Bar and Bistro,False,+13607202322,791 SE Fidalgo Ave,Ste 104,,Oak Harbor,98277,US,WA,"['791 SE Fidalgo Ave', 'Ste 104', 'Oak Harbor, WA 98277']",48.28881,-122.647426
687,5F4WMoAYlPyBhtAEquLASA,tradamerican;beerbar,Flyers Restaurant and Brewery,False,+13606755858,32295 Sr 20,,,Oak Harbor,98277,US,WA,"['32295 Sr 20', 'Oak Harbor, WA 98277']",48.29916,-122.65286
688,4F58MWJIqY9qrz3f3-LUug,mexican;bars,El Cazador Mexican Grill & Cantina,False,+13606756114,32195 State Route 20,,,Oak Harbor,98277,US,WA,"['32195 State Route 20', 'Oak Harbor, WA 98277']",48.2977763,-122.6544515
689,Q5LOoQbuAHy3C6zdHZcQcA,italian;wine_bars;tapasmallplates,rustica,False,+13606754053,670 SE Pioneer Way,Ste 102,,Oak Harbor,98277,US,WA,"['670 SE Pioneer Way', 'Ste 102', 'Oak Harbor, WA 98277']",48.2882,-122.649617
690,FUp1WeDdtOwpBuHDLtzo1A,bars;tradamerican;seafood,Oystercatcher,False,+13606780683,901 Grace St NW,,,Coupeville,98239,US,WA,"['901 Grace St NW', 'Coupeville, WA 98239']",48.2205555417409,-122.687120290831
691,TivY7prg4a2htiV6ezWaYw,tradamerican;divebars,Toby's Tavern,False,+13606784222,8 NW Front St,,,Coupeville,98239,US,WA,"['8 NW Front St', 'Coupeville, WA 98239']",48.2211543100735,-122.687087841332
692,MwDPKRI4Y7YDdogxM7V3DQ,polish;tradamerican;bars,Anelia's Kitchen & Stage,False,+13603991805,513 S 1st St,,,La Conner,98257,US,WA,"['513 S 1st St', 'La Conner, WA 98257']",48.3905808111091,-122.496845146264
693,olH1HujurxAWGEiuZATgvw,seafood;french;pubs,The Oyster & Thistle Restaurant and Pub,False,+13607666179,205 E Washington St,,,La Conner,98257,US,WA,"['205 E Washington St', 'La Conner, WA 98257']",48.3912341082649,-122.495215684175
694,2iXFv9hq_leleJwDGR7wpA,tradamerican;sportsbars;burgers,Applebee's Grill + Bar,False,+13606796100,31810 State Route 20,,,Oak Harbor,98277,US,WA,"['31810 State Route 20', 'Oak Harbor, WA 98277']",48.293294,-122.656605
695,6sxoHKcWNqTdRUmvANmT4A,beerbar;brewpubs;beergardens,Wicked Teuton Brewing,False,+13606825011,1341 SW Barlow St,Ste B,,Oak Harbor,98277,US,WA,"['1341 SW Barlow St', 'Ste B', 'Oak Harbor, WA 98277']",48.2873702527669,-122.659917577959
696,11ZNzrT4A70LXWC3mzB7CA,sportsbars;tradamerican,All Sports Bar & Grill,False,+13606793100,1640 NE Goldie St,,,Oak Harbor,98277,US,WA,"['1640 NE Goldie St', 'Oak Harbor, WA 98277']",48.3115387,-122.6439972
697,khPLq3rYaK0PypiU-S8M5A,seafood;newamerican;bars,Seeds Bistro and Bar,False,+13604663280,623 Morris St,,,La Conner,98257,US,WA,"['623 Morris St', 'La Conner, WA 98257']",48.39246,-122.48859
698,r6rQrPDw9fAtZvTq-gFtVA,tradamerican;pubs,La Conner Pub & Eatery,False,+13604669932,702 S 1st St,,,La Conner,98257,US,WA,"['702 S 1st St', 'La Conner, WA 98257']",48.3896203,-122.4979433
699,hcT8ehP4YUreh5KsLVXeyQ,bars;breakfast_brunch;cafes,Oak Harbor Cafe and Bar,False,+13606759100,450 SE Pioneer Way,,,Oak Harbor,98277,US,WA,"['450 SE Pioneer Way', 'Oak Harbor, WA 98277']",48.28819,-122.65218
700,NXJbphoKwhBxtsA6KgjTFA,newamerican;bars,Rockaway Bar & Grill,False,+13609268920,326 NE Camano Dr,,,Camano Island,98282,US,WA,"['326 NE Camano Dr', 'Camano Island, WA 98282']",48.2228566,-122.4752032
701,-7SOrNOiimtLOR4jWJuLUw,divebars;sportsbars;beerbar,Oak Harbor Tavern,False,+13606759919,940 SE Pioneer Way,,,Oak Harbor,98277,US,WA,"['940 SE Pioneer Way', 'Oak Harbor, WA 98277']",48.28929,-122.64592
702,OnxkChq3pGkKcmxY4dr6NA,wine_bars;winetastingroom;winetours,Hellams Vineyard,False,+13604661758,109 N 1st St,Ste 104,,La Conner,98257,US,WA,"['109 N 1st St', 'Ste 104', 'La Conner, WA 98257']",48.3928451892796,-122.496452505606
703,7hxQgJX3SB3cPCPW0nv-bg,hotels;newamerican;lounges,Tyee Restaurant & Motel,False,+13606786616,405 S Main St,,,Coupeville,98239,US,WA,"['405 S Main St', 'Coupeville, WA 98239']",48.20809,-122.68568
704,rhWU4HIH7O6CgsyEz3sV0A,beerbar;sportsbars;hotdog,Penn Cove Taproom - Oak Harbor,False,+13606822247,780 SE Bayshore Dr,,,Oak Harbor,98277,US,WA,"['780 SE Bayshore Dr', 'Oak Harbor, WA 98277']",48.288008,-122.648603
705,7prWivgGWK9ebi0p-04kVA,tradamerican;pubs,PUB 282,False,+13609268960,370 NE Camano Dr,,,Camano Island,98282,US,WA,"['370 NE Camano Dr', 'Camano Island, WA 98282']",48.2245215,-122.4750216
706,YI9AgsU6JPV6sIHyyR3JMQ,bars;seafood;tradamerican,Off The Hook,False,+13606795100,880 SE Pioneer Way,,,Oak Harbor,98277,US,WA,"['880 SE Pioneer Way', 'Oak Harbor, WA 98277']",48.28898,-122.64696
707,uZxZMNr2qRQGU0rYuCPS7A,beerbar,Korgi‚Äôs Bar And Grill,False,,31810 WA-20,,,Oak Harbor,98277,US,WA,"['31810 WA-20', 'Oak Harbor, WA 98277']",48.2950504008957,-122.649082338156
708,4V_H5VJyjWCH3oV0_uSQvA,burgers;sandwiches;bars,C&D'S Tekoa Bar & Grill,False,+15092843200,132 N Crosby,,,Tekoa,99033,US,WA,"['132 N Crosby', 'Tekoa, WA 99033']",47.2225993866287,-117.072672843933
709,WWiXspFFKnVbSThw6EIb-A,bars;tradamerican,Hyde Out Tavern,False,+15093979561,215 N Main St,,,Colfax,99111,US,WA,"['215 N Main St', 'Colfax, WA 99111']",46.8820755,-117.3648627
710,oY1VGsSNsoswrt4IMUr7ww,bars;burgers;tradamerican,Rialto Tavern,False,+15096483876,17 E Front St,,,Saint John,99171,US,WA,"['17 E Front St', 'Saint John, WA 99171']",47.0920070327925,-117.580392269794
711,yGWCX7gBlkxdugYUBkJZSA,bars,The Brass Rail,False,+15095233607,529 S Whitman Ave,,,Rosalia,99170,US,WA,"['529 S Whitman Ave', 'Rosalia, WA 99170']",47.2350184679646,-117.370034054653
712,p7ROCKjtVSbDEl068diMTw,beerbar;burgers,Grumpy's Tavern,False,+15096351602,215 W Main,,,Garfield,99130,US,WA,"['215 W Main', 'Garfield, WA 99130']",47.0069488,-117.1402208
713,8GdfhxTj3uGL2nlC50ZDdQ,tradamerican;sportsbars,Dale's Wagon Wheel Bar & Grill,False,+12088750199,220 6th St,,,Potlatch,83855,US,ID,"['220 6th St', 'Potlatch, ID 83855']",46.92183,-116.89998
714,7NELXkaS-9iREjZaJvM-2w,bars;tradamerican,Gray Goat Bar and Grill,False,+13608587118,314 W Pine St,,,Oakville,98568,US,WA,"['314 W Pine St', 'Oakville, WA 98568']",46.8407656,-123.2368527
715,yyVX03Cw8w0uwyMjBy9caw,newamerican;bars,The Branch Bar & Public Room,False,+13606695127,202 W Centralia College Blvd,,,Centralia,98531,US,WA,"['202 W Centralia College Blvd', 'Centralia, WA 98531']",46.7154403,-122.9561865
716,RucjyhLr6QiHdlQH1eKaoA,steak;bars;brasseries,Cascadia Grill,False,+13606288731,200 4th Ave W,,,Olympia,98501,US,WA,"['200 4th Ave W', 'Olympia, WA 98501']",47.0449039,-122.9031322
717,0RirIkN4gy1UJl-1DxpkcQ,tradamerican;diners;bars,King Solomon's Reef,False,+13607423199,212 4th Ave E,,,Olympia,98501,US,WA,"['212 4th Ave E', 'Olympia, WA 98501']",47.045170389825,-122.89979013497
718,CvtgXzasxaxjR8ybB866-A,gourmet;cocktailbars,Chelsea Farms Oyster Bar,False,+13609157784,222 Capitol Way N,Ste 114,,Olympia,98501,US,WA,"['222 Capitol Way N', 'Ste 114', 'Olympia, WA 98501']",47.04639,-122.90149
719,uXSpyhYwrZg034jTS0LFlw,tradamerican;pubs;breweries,Olympic Club Pub,False,+13607365164,112 N Tower Ave.,,,Centralia,98531,US,WA,"['112 N Tower Ave.', 'Centralia, WA 98531']",46.7166,-122.95382
720,5iLUs4t6viV25md6HuhHjw,pizza;pubs,Tiki Tap House,False,+13606690161,404 N Tower Ave,,,Centralia,98531,US,WA,"['404 N Tower Ave', 'Centralia, WA 98531']",46.719205,-122.952693
721,N_ZpAPaI-Id6hq8gLjJ90w,pubs,Skep & Skein,False,+13602924400,2106 Harrison Ave NW,,,Olympia,98502,US,WA,"['2106 Harrison Ave NW', 'Olympia, WA 98502']",47.046395,-122.9279136
722,G00GU8jtoCyK2aM_gLysSw,newamerican;cocktailbars,Mackinaws,False,+13607408000,545 N Market Blvd,,,Chehalis,98532,US,WA,"['545 N Market Blvd', 'Chehalis, WA 98532']",46.66549,-122.97088
723,o2SZ0vaoaUXeO980ti7JGw,cocktailbars;newamerican,Dillinger's Cocktails and Kitchen,False,+13605150650,404 Washington St SE,,,Olympia,98501,US,WA,"['404 Washington St SE', 'Olympia, WA 98501']",47.0448436,-122.9002015
724,hkTnpSYCACbUzgya4LiwZg,newamerican;seafood;wine_bars,Dockside Bistro & Wine Bar,False,+13609561928,501 Columbia St NW,Ste B,,Olympia,98501,US,WA,"['501 Columbia St NW', 'Ste B', 'Olympia, WA 98501']",47.048279,-122.903941
725,K61sxpb0kvkkjzr_CA2SwA,pubs;gastropubs;cocktailbars,State & Central,False,+13604890824,1415 State Ave NE,,,Olympia,98501,US,WA,"['1415 State Ave NE', 'Olympia, WA 98501']",47.0467,-122.88207
726,EpXCy_SSO-x8BjRLc_xUcg,bars;burgers;newamerican,The Westside Tavern,False,+13609157839,1815 Harrison Ave NW,,,Olympia,98502,US,WA,"['1815 Harrison Ave NW', 'Olympia, WA 98502']",47.0457916,-122.9243317
727,szMwC2rGbvjqDztmP6cnWA,tradamerican;bars;breakfast_brunch,Rusty Tractor Family Restaurant,False,+13604823100,602 E Young St,,,Elma,98541,US,WA,"['602 E Young St', 'Elma, WA 98541']",47.0061201585465,-123.391160353774
728,2s9osEaVRdLAfimJsJZVNA,italian;bars,Basilico Ristorante Italiano,False,+13605708777,507 Capitol Way S,,,Olympia,98501,US,WA,"['507 Capitol Way S', 'Olympia, WA 98501']",47.0437515,-122.9019171
729,NQMsZz1rFQMNjbbadp49lA,tradamerican;pubs,Cooper Point Public House,False,+13609157880,3002 Harrison Ave,,,Olympia,98502,US,WA,"['3002 Harrison Ave', 'Olympia, WA 98502']",47.04755,-122.93951
730,b5VVaKzeGQtP8F5oHWoquw,wine_bars,Uncork & Unwind,False,+13609439463,324 Custer Way SW,,,Tumwater,98501,US,WA,"['324 Custer Way SW', 'Tumwater, WA 98501']",47.0167149,-122.9050675
731,ZBp5SiXpapzCKm-GLsbirw,newamerican;cocktailbars;wine_bars,Swing Wine Bar & Cafe,False,+13603579464,825 Columbia St SW,,,Olympia,98501,US,WA,"['825 Columbia St SW', 'Olympia, WA 98501']",47.04068,-122.902667
732,1V8rDlu0_kXqa5ASUnj18A,bars;bbq;burgers,Hub Bar & Grill,False,+13607362229,110 S Tower Ave,,,Centralia,98531,US,WA,"['110 S Tower Ave', 'Centralia, WA 98531']",46.71567,-122.95423
733,IzEPI_HLWoRPRQc0sBa-kQ,wine_bars;beergardens,Northwest Beerwerks,False,+13603502051,420 Steele St SE,,,Olympia,98501,US,WA,"['420 Steele St SE', 'Olympia, WA 98501']",47.0453408750761,-122.866291590035
734,lGNfyrYz_Ra3LavAdHVVxA,sportsbars;tradamerican;irish,O'Blarney's At The Gibson House,False,+13608074581,221 N Tower Ave,,,Centralia,98531,US,WA,"['221 N Tower Ave', 'Centralia, WA 98531']",46.7179817,-122.9535884
735,qEKmPBwlpicswX4IvLEP5Q,pubs;divebars,The Brotherhood Lounge,False,+13603524153,119 Capitol Way N,,,Olympia,98501,US,WA,"['119 Capitol Way N', 'Olympia, WA 98501']",47.0454099,-122.90214
736,ZztiONHrKI895SONXtfGag,beerbar;cideries;pizza,Oly Taproom,False,+13605150661,312 Columbia St NW,,,Olympia,98501,US,WA,"['312 Columbia St NW', 'Olympia, WA 98501']",47.0468184087427,-122.90310917791
737,sv-4hi5tP6egOW3thkSgdA,cafes;pubs;tradamerican,Spar Caf√©,False,+13603576444,114 4th Ave. E.,,,Olympia,98501,US,WA,"['114 4th Ave. E.', 'Olympia, WA 98501']",47.045051,-122.90095912888
738,TlmYHQA86pIsV4B3ESUBmQ,burgers;whiskeybars,Stack 571 Burger & Whiskey Bar,False,+13608102675,625 Black Lake Blvd SW,Suite 530,,Olympia,98502,US,WA,"['625 Black Lake Blvd SW', 'Suite 530', 'Olympia, WA 98502']",47.04191,-122.93396
739,O_J2HEIEvJ4aizaVh9UnXA,tradamerican;bars;seafood,Tugboat Annies,False,+13609431850,2100 W Bay Dr,,,Olympia,98502,US,WA,"['2100 W Bay Dr', 'Olympia, WA 98502']",47.063867,-122.916423
740,WTLwsHYOCIeUPEZpSI8KiA,bars;newamerican,The Shire Bar & Bistro,False,+13607483720,465 NW Chehalis Ave,,,Chehalis,98532,US,WA,"['465 NW Chehalis Ave', 'Chehalis, WA 98532']",46.66455,-122.97057
741,BMvk7GajniNgbW5O23EHzg,bars,Eastside Club Tavern,False,+13603579985,410 4th Ave E,,,Olympia,98501,US,WA,"['410 4th Ave E', 'Olympia, WA 98501']",47.0448809,-122.905892
742,N5ZFnjLVDX0I1P5_GLfq1w,bars;tradamerican,Shujacks,False,+13604821276,326 W Main St,,,Elma,98541,US,WA,"['326 W Main St', 'Elma, WA 98541']",47.00439,-123.40491
743,sVTK41c0fU4J5rfpPUZ8hA,italian;wine_bars,Mercato Ristorante,False,+13605283663,111 Market St NE,,,Olympia,98501,US,WA,"['111 Market St NE', 'Olympia, WA 98501']",47.050239654148,-122.9014479069
744,HeieXG-dNUTb9aRNP-tPxw,tapas;tapasmallplates;cocktailbars,Octapas Cafe,False,+13608789333,414 4th Ave E,,,Olympia,98501,US,WA,"['414 4th Ave E', 'Olympia, WA 98501']",47.0453016,-122.8972794
745,b117T0gp1ubHw_woQVLuzA,bbq;wine_bars;beerbar,Hops on the Hill,False,+13609158780,1870 Barnes Blvd,,,Tumwater,98512,US,WA,"['1870 Barnes Blvd', 'Tumwater, WA 98512']",47.01913,-122.92252
746,Qp--amv8YhuSZg1VLSVDhw,newamerican;bars;venues,Water Street Cafe,False,+13607099090,610 Water St SW,,,Olympia,98501,US,WA,"['610 Water St SW', 'Olympia, WA 98501']",47.042807,-122.903606
747,fAhr-HiYKG2gh_Jk0CssAg,tradamerican;bars,Lodge Wood Fired Grill,False,+13602737718,Great Wolf Lodge,,20500 Old Hwy 99 SW,Centralia,98531,US,WA,"['Great Wolf Lodge', '20500 Old Hwy 99 SW', 'Centralia, WA 98531']",46.7907340232573,-123.010740280151
748,Giql5BwKsINcMGAIl-eoTA,mexican;wine_bars,Dos Hermanos Mexican Kitchen,False,+13603598131,222 Capitol Way N,,,Olympia,98501,US,WA,"['222 Capitol Way N', 'Olympia, WA 98501']",47.04639,-122.90149
749,GGytoEvI7ackE_iMd9pkSQ,breakfast_brunch;bars;tradamerican,Martin Way Diner,False,+13607051438,2423 4th Ave,,,Olympia,98506,US,WA,"['2423 4th Ave', 'Olympia, WA 98506']",47.0457600261887,-122.866883001178
750,5TFqeKy7EE2lUf1QV0ldrA,sportsbars;pizza;italian,The Brick on Trosper,False,+13607536626,707 Trosper Rd SW,,,Tumwater,98512,US,WA,"['707 Trosper Rd SW', 'Tumwater, WA 98512']",46.9998151,-122.9177053
751,XoQcuahyYJTDNdzfEy4PoA,cocktailbars;newamerican;tradamerican,Lady of the Lake,False,+13602642438,4005 120th Ave SE,,,Tenino,98589,US,WA,"['4005 120th Ave SE', 'Tenino, WA 98589']",46.912406,-122.831722
752,ml8jj1bg-xknVnsHoyBV0A,golf;newamerican;bars,Riverside Golf Club,False,+13607488182,1451 NW Airport Rd,,,Chehalis,98532,US,WA,"['1451 NW Airport Rd', 'Chehalis, WA 98532']",46.67582559793,-122.989711761475
753,fsyB-dXUFGUFCTORRnlZRg,bars,Cryptatropa Bar,False,+13607543867,421 4th Ave E,,,Olympia,98501,US,WA,"['421 4th Ave E', 'Olympia, WA 98501']",47.045022016597,-122.89685070285
754,Tob2kYmHB07kzbSKTm-Iwg,sportsbars;tradamerican,Pints Barn,False,+13606288838,114 E St SW,,,Tumwater,98501,US,WA,"['114 E St SW', 'Tumwater, WA 98501']",47.012012,-122.905609
755,RSvFM0-2-GCIWHSCrMCdrw,asianfusion;tradamerican;beerbar,Elvie's Bistro,False,+13607363926,105 E Center St,,,Centralia,98531,US,WA,"['105 E Center St', 'Centralia, WA 98531']",46.720307,-122.952386
756,LxwlZA6cjhWw6GGql7GIEA,pizza;italian;sportsbars,Gepetto's Italian Restaurant & Sports Bar,False,+13602494445,126 E Pioneer Ave,,,Montesano,98563,US,WA,"['126 E Pioneer Ave', 'Montesano, WA 98563']",46.9798199,-123.59983
757,lKq2Yv9kZ7tlIqzl-DtMWA,steak;japanese;bars,Fujiyama Japanese Steakhouse and Bar,False,,2930 Capital Mall Dr NW,,,Olympia,98502,US,WA,"['2930 Capital Mall Dr NW', 'Olympia, WA 98502']",47.0400449,-122.9394537
758,6CA5Lw4trE9IMcLr7RJpAg,tradamerican;bars,Buzz's Tavern,False,+13608668335,5018 Mud Bay Rd NW,,,Olympia,98502,US,WA,"['5018 Mud Bay Rd NW', 'Olympia, WA 98502']",47.046771,-122.987697
759,xa-4jHVGJyZhdBvzsrLnOg,italian;lounges,The Mark Restaurant,False,+13607544414,407 Columbia St SW,,,Olympia,98502,US,WA,"['407 Columbia St SW', 'Olympia, WA 98502']",47.04451,-122.90322
760,Njn9M5180tiJW7OyuwmkQA,irish_pubs,O'Blarney's Irish Pub,False,+13604598084,4411 Martin Way E,,,Olympia,98516,US,WA,"['4411 Martin Way E', 'Olympia, WA 98516']",47.04737,-122.8271281
761,ke46IeC-5c4535OE4bZVJg,tobaccoshops;lounges,Cigar Daddies,False,+13604915400,4511 Lacey Blvd SE,,,Lacey,98503,US,WA,"['4511 Lacey Blvd SE', 'Lacey, WA 98503']",47.036276,-122.826035
762,0n6ITZ2a3Xaoe1pTrm4R-g,sportsbars;tradamerican;pizza,Junction Sports Bar and Grill,False,+13602737586,21000 Old Hwy 99 SW,,,Centralia,98531,US,WA,"['21000 Old Hwy 99 SW', 'Centralia, WA 98531']",46.7830933,-123.0108251
763,FbdLgI84PW-gZ4Zyxzt5mw,sportsbars;chicken_wings;tradamerican,Buffalo Wild Wings,False,+13609430718,1614 Black Lake Blvd SW,,,Olympia,98502,US,WA,"['1614 Black Lake Blvd SW', 'Olympia, WA 98502']",47.0328618732964,-122.939798533916
764,wW2jfrBvhl6NcKIaA7XLFQ,pubs;tradamerican;cocktailbars,Market Street Pub & Grill,False,+13607486777,523 N Market Blvd,,,Chehalis,98532,US,WA,"['523 N Market Blvd', 'Chehalis, WA 98532']",46.6653022766113,-122.970367431641
765,OwFx99t6f8CZ3DtgriPAQA,bars;latin;mexican,Equal Latin Restaurant and Bar,False,+13608194817,520 4th Ave E,,,Olympia,98501,US,WA,"['520 4th Ave E', 'Olympia, WA 98501']",47.04558,-122.89575
766,uBen_lH25ytIp11ldjUcLQ,bars;tradamerican,Fatso's Bar and Grill,False,+13604919066,3205 Martin Way E,,,Olympia,98506,US,WA,"['3205 Martin Way E', 'Olympia, WA 98506']",47.0464737,-122.8522123
767,yud9Hps59KucMbGkiQrLWA,bars;musicvenues,Rhythm & Rye,False,,311 Capitol Way,,,Olympia,98501,US,WA,"['311 Capitol Way', 'Olympia, WA 98501']",47.046869,-122.902563
768,o0FPr29xBvxSI9FSvdkUNw,tradamerican;bars,Oly Underground,False,+13603527343,109 Legion Way SW,,,Olympia,98501,US,WA,"['109 Legion Way SW', 'Olympia, WA 98501']",47.0430478,-122.901834
769,1nAY96K8QheMGIH4lrJGAg,beerbar;sportsbars;breakfast_brunch,CraftHouse,False,+13602732000,12888 188th Ave SW,,,Rochester,98579,US,WA,"['12888 188th Ave SW', 'Rochester, WA 98579']",46.8142843292715,-123.154282048345
770,Kied5Z1t2dIcaGqj6c5Kkg,bars;tradamerican,Silvers Saloon,False,+13604890255,2752 Pacific Ave SE,,,Olympia,98501,US,WA,"['2752 Pacific Ave SE', 'Olympia, WA 98501']",47.0436707,-122.8611603
771,AY3TpBJGOGNGxttQ5jG3qw,sportsbars;burgers;tradamerican,Applebee's Grill + Bar,False,+13603528500,2500 Capitol Mall Dr SW,,,Olympia,98502,US,WA,"['2500 Capitol Mall Dr SW', 'Olympia, WA 98502']",47.040158,-122.933172
772,so0T8-jQU0pgeo1zbQrSBg,cideries;pubs,Whitewood Cider Co Tasting Room,False,+13608901852,728 4th Ave E,,,Olympia,98506,US,WA,"['728 4th Ave E', 'Olympia, WA 98506']",47.0455999467869,-122.89318653274
773,r1jdYMPnvkXdhpqVDyVi7Q,tradamerican;sportsbars;burgers,Applebee's Grill + Bar,False,+13607481800,1670 NW Louisiana Ave,,,Chehalis,98532,US,WA,"['1670 NW Louisiana Ave', 'Chehalis, WA 98532']",46.677658,-122.975489
774,G21uLwPa3MmWczhmhqw-5g,pubs;tradamerican,Littlerock Tavern,False,+13607539952,6520 128th Ave SW,,,Olympia,98512,US,WA,"['6520 128th Ave SW', 'Olympia, WA 98512']",46.9020652770996,-123.021430969238
775,jLZI5s4G5_G8JRxd02nF7g,bars,Brooklyn Tavern,False,+13605332324,2611 N River Rd,,,Cosmopolis,98537,US,WA,"['2611 N River Rd', 'Cosmopolis, WA 98537']",46.7758315,-123.5172275
776,Sdhok70KO3uqqWgvKcq2hw,pubs,Old Hwy 99 Company Bar & Grill,False,+13602645076,12743 Old Hwy 99 SE,,,Tenino,98589,US,WA,"['12743 Old Hwy 99 SE', 'Tenino, WA 98589']",46.90291,-122.85941
777,TFTHovqRMxL903gzIBpzDg,musicvenues;bars;tradamerican,McFilers,False,+13609964400,543 NW Pacific Ave,,,Chehalis,98532,US,WA,"['543 NW Pacific Ave', 'Chehalis, WA 98532']",46.6650779,-122.9712242
778,ZR8rhPRTHymIz4lHaE3f_A,bowling;sportsbars;poolhalls,Elma Lanes,False,+13604822111,605 E Main St,,,Elma,98541,US,WA,"['605 E Main St', 'Elma, WA 98541']",47.0066108703613,-123.390327453613
779,yc_5Q_P45ym8tuXS9Dcgzg,sportsbars;diners,Charlie's Bar & Grill,False,+13607868181,620 4th Ave E,,,Olympia,98501,US,WA,"['620 4th Ave E', 'Olympia, WA 98501']",47.04565,-122.89456
780,m-E18TxW8rd9JviL9k4okA,sportsbars;tradamerican,The Office Bar & Grill,False,+13607545760,2030 Mottman Rd SW,,,Tumwater,98512,US,WA,"['2030 Mottman Rd SW', 'Tumwater, WA 98512']",47.02565,-122.92819
781,vdW-q4_Nz2y3zzNNd8JQuw,gaybars,Jakes On Fourth,False,+13609563247,311 4th Ave E,,,Olympia,98501,US,WA,"['311 4th Ave E', 'Olympia, WA 98501']",47.04488,-122.8986
782,ybYR9HtBwJTyAKXNU3E1ZQ,bars;newamerican,Hannah's Bar & Grille,False,+13603579890,123 5th Ave SW,,,Olympia,98501,US,WA,"['123 5th Ave SW', 'Olympia, WA 98501']",47.043834478671,-122.90261994582
783,wb1jIY9Q9IvIvaz0TOng-A,wine_bars;beerbar,Rumors Wine Bar,False,+13604805030,430 Washington St SE,,,Olympia,98501,US,WA,"['430 Washington St SE', 'Olympia, WA 98501']",47.0442477,-122.9001943
784,WFxdvXI1I8scsGd7m5yTLg,bars;tradamerican;seafood,The 4th Ave Tavern,False,+13607861444,210 E 4th Ave,,,Olympia,98501,US,WA,"['210 E 4th Ave', 'Olympia, WA 98501']",47.04528,-122.89996
785,1MUrB1dPnnu01UR1OnnNMQ,tradamerican;breakfast_brunch;lounges,The Restaurant by Hotel RL Olympia,False,+13602520960,2300 Evergreen Park Dr SW,,Hotel RL Olympia,Olympia,98502,US,WA,"['2300 Evergreen Park Dr SW', 'Hotel RL Olympia', 'Olympia, WA 98502']",47.027596,-122.912318
786,w1gbFDONLu3E6acCIYf9PA,bars;breakfast_brunch;tradamerican,South Bay Pub & Eatery,False,+13604560809,3323 S Bay Rd NE,,,Olympia,98506,US,WA,"['3323 S Bay Rd NE', 'Olympia, WA 98506']",47.0790924,-122.8481194
787,Be7kuXcLN5vbDUHPmVOclw,tradamerican;sportsbars;burgers,Applebee's Grill + Bar,False,+13604919400,525 Sleater Kinney Rd SE,,,Lacey,98503,US,WA,"['525 Sleater Kinney Rd SE', 'Lacey, WA 98503']",47.044143,-122.834217
788,dhPEwRjSfyd9q0i9Xk7Pgw,beerbar,Puget Sound Taps,False,+13604891399,4250 Martin Way E,Ste 101,,Olympia,98516,US,WA,"['4250 Martin Way E', 'Ste 101', 'Olympia, WA 98516']",47.04849,-122.83041
789,v10V-PCZdHb2L-Yn1FXJOQ,bars,McCoy's Tavern,False,+13603520696,418 4th Ave E,,,Olympia,98501,US,WA,"['418 4th Ave E', 'Olympia, WA 98501']",47.045440566668,-122.89723166437
790,JHn2MyaScHRAVZKRbz-vgQ,lounges;newamerican,Character's Corner,False,+13608669904,6620 Sexton Dr NW,,,Olympia,98502,US,WA,"['6620 Sexton Dr NW', 'Olympia, WA 98502']",47.0796585083008,-123.02123260498
791,vENQVdHltAOdcLX4iWr2UQ,tradamerican;bars,Evey's Cafe & Lounge,False,+13602919902,416 N Main St,,,PE Ell,98572,US,WA,"['416 N Main St', 'PE Ell, WA 98572']",46.5732,-123.29727
792,EYUB3SoD_xyP4o318pZHoA,bars;newamerican,2 Mile House Pub & Eatery,False,+13607539964,4221 Harrison Ave NW,,,Olympia,98502,US,WA,"['4221 Harrison Ave NW', 'Olympia, WA 98502']",47.0469134,-122.955577
793,mnSWguSxnMOVbw0p3yYxRg,sportsbars;divebars,Charlie's Sports Bar,False,+13602495000,313 Main St S,,,Montesano,98563,US,WA,"['313 Main St S', 'Montesano, WA 98563']",46.9790545422821,-123.601113938033
794,qDnmjpXHPQVYVd8Pxl-GOw,bars;newamerican,The Limit Bar & Grill,False,+13603308049,1500 S Gold St,,,Centralia,98531,US,WA,"['1500 S Gold St', 'Centralia, WA 98531']",46.6990933,-122.9568444
795,RYaIq94KYb3HDOKNQN_etg,breakfast_brunch;beerbar,Frosty's,False,+13602623980,113 W Front Ave,,,Napavine,98565,US,WA,"['113 W Front Ave', 'Napavine, WA 98565']",46.5747799,-122.91038
796,2hDngIPxLmR3pnUxx7a10w,beer_and_wine;wine_bars;winetastingroom,Grand Vin Wine Merchants,False,+13603504896,1003 4th Ave E,,,Olympia,98506,US,WA,"['1003 4th Ave E', 'Olympia, WA 98506']",47.0456311582606,-122.889607558839
797,Gmd8b-ZlFJLL7aoIVDjS1A,bars,Porter's Tavern,False,+13604824443,3 Porter Creek Rd,,,Elma,98541,US,WA,"['3 Porter Creek Rd', 'Elma, WA 98541']",46.9394111633301,-123.311393737793
798,YN3f_yBUJYwlwpmOAZEsOw,divebars,Landmark Tavern,False,+13602642155,313 Sussex Ave W,,,Tenino,98589,US,WA,"['313 Sussex Ave W', 'Tenino, WA 98589']",46.85686,-122.85376
799,gAKaQEcwTTKB1EpvbKpcFA,divebars;hotdogs,China Clipper Cafe,False,+13609436300,402 4th Ave E,,,Olympia,98501,US,WA,"['402 4th Ave E', 'Olympia, WA 98501']",47.045444,-122.897758
800,RRushHsqapBOjzIA3zIPlA,lounges;tradamerican;karaoke,O'Malley's Lounge,False,+13609438807,2200 Garfield Ave NW,,,Olympia,98502,US,WA,"['2200 Garfield Ave NW', 'Olympia, WA 98502']",47.0473,-122.92812
801,rymfBsyiXTFstp5IrcFUAA,sportsbars;tradamerican,Bub's Pub Sports Bar & Grill,False,+13607368024,537 N Tower Ave,,,Centralia,98531,US,WA,"['537 N Tower Ave', 'Centralia, WA 98531']",46.72129,-122.95261
802,dXENpCsdPkGiGrsTneVujw,bars;tradamerican,Frankie's Sports Bar & Grill,False,+13604121330,3663 Pacific Ave SE,Ste D,,Olympia,98501,US,WA,"['3663 Pacific Ave SE', 'Ste D', 'Olympia, WA 98501']",47.0408096313477,-122.842079162598
803,7RbaIqMxksfPj-75yXWl_A,lounges,The Lounge by Hotel RL,False,+13609434000,2300 Evergreen Park Dr,,,Olympia,98502,US,WA,"['2300 Evergreen Park Dr', 'Olympia, WA 98502']",47.027622,-122.912321
804,iSVQnC1FtEzD4vJkx_Taog,tradamerican;bars,Joe's Place,False,+13602783599,118 Main St,,,Bucoda,98530,US,WA,"['118 Main St', 'Bucoda, WA 98530']",46.7988962671513,-122.868728041649
805,-59JB3kP930lowk9RxziTA,sportsbars,New Alibi Station,False,+13608618357,314 W Main St,,,Elma,98541,US,WA,"['314 W Main St', 'Elma, WA 98541']",47.00437,-123.40432
806,Qme01jjev6b__KvpLPdEkA,bars,Boulevard Tavern,False,+13609437080,2221 Pacific Ave SW,,,Olympia,98501,US,WA,"['2221 Pacific Ave SW', 'Olympia, WA 98501']",47.04557,-122.86947
807,8kHY-IYlG_qCfXPUYkHVDA,seafood;tradamerican;bars,Seventeen51 Restaurant & Bistro,False,+13604386623,1751 Circle Ln SE,,,Lacey,98503,US,WA,"['1751 Circle Ln SE', 'Lacey, WA 98503']",47.03088,-122.8318
808,bHb9oZa1SBkdpjnhAzJD5w,tradamerican;steak;cocktailbars,Newaukum Grill,False,+13607486895,153 Newaukum Golf Dr,,,Chehalis,98532,US,WA,"['153 Newaukum Golf Dr', 'Chehalis, WA 98532']",46.608673,-122.891687
809,woavXALmhEP69eQEFvQ0xA,bars;danceclubs,The Society,False,+13603521230,120 4th Ave E,,,Olympia,98501,US,WA,"['120 4th Ave E', 'Olympia, WA 98501']",47.0450429576389,-122.900902479887
810,a-JdULRrEGgmZ2nuqkJdFw,cocktailbars,Rooftop Bar,False,,1451 NW Airport Rd,,,Chehalis,98532,US,WA,"['1451 NW Airport Rd', 'Chehalis, WA 98532']",46.6749572753906,-122.99047088623
811,isLwQFTeb8eoTTHsgwJqAA,bars;seafood;chicken_wings,Nicole's Bar,False,+13609157968,109 Legion Way SW,,,Olympia,98501,US,WA,"['109 Legion Way SW', 'Olympia, WA 98501']",47.042924,-122.901893
812,ppJCs2oNFLx7-8UP_Ib7hw,coffee;breakfast_brunch;wine_bars,Ocean Beach Roasters & Bistro,False,+13602893100,841 Point Brown Ave NW,,,Ocean Shores,98569,US,WA,"['841 Point Brown Ave NW', 'Ocean Shores, WA 98569']",47.01293,-124.16234
813,2qP46-Gutei0RaWv5sDk8Q,pubs;irish;seafood,Galway Bay,False,+13602892300,880 Point Brown Ave NE,,,Ocean Shores,98569,US,WA,"['880 Point Brown Ave NE', 'Ocean Shores, WA 98569']",47.014836,-124.161729
814,U9u4mS3u4fGrmrGQwhBPyw,tradamerican;beerbar,Elk Head Tap Room,False,+13602898277,739 Point Brown Ave NW,,,Ocean Shores,98569,US,WA,"['739 Point Brown Ave NW', 'Ocean Shores, WA 98569']",47.00899,-124.162
815,bZ8qrGvGRBP6Ad7Ci7dc8Q,pubs;breakfast_brunch;tradamerican,Pirate's Cove Pub & Grill,False,+13602894400,798 Ocean Shores Blvd NW,,,Ocean Shores,98569,US,WA,"['798 Ocean Shores Blvd NW', 'Ocean Shores, WA 98569']",47.010814,-124.16574
816,0xmW_glkxL5gG7dqlf801Q,pubs;tradamerican;karaoke,Porthole Pub Bar & Grill,False,+13602894469,893 Pt Brown Ave NW,,,Ocean Shores,98569,US,WA,"['893 Pt Brown Ave NW', 'Ocean Shores, WA 98569']",47.015332,-124.162956
817,rIdRFjjMOnsIMF7ZS2KF9w,beerbar;wine_bars;sportsbars,Ocean Pours Taproom,False,+13609409180,759 Ocean Shores Blvd NW,,,Ocean Shores,98569,US,WA,"['759 Ocean Shores Blvd NW', 'Ocean Shores, WA 98569']",47.0093772,-124.1665049
818,yc5fgbr_90OR4a0p_-WlhQ,bars,The Loft,False,,404 Salmonberry Ln SW,,,Ocean Shores,98569,US,WA,"['404 Salmonberry Ln SW', 'Ocean Shores, WA 98569']",47.0088,-124.16088
819,VQENaibMaZVb_NFas59pjQ,wine_bars;seafood;steak,Michaels on the Lake,False,+15097651611,910 W Broadway Ave,,,Moses Lake,98837,US,WA,"['910 W Broadway Ave', 'Moses Lake, WA 98837']",47.12614,-119.28955
820,v2H3-3VZpCwoK0t5j-bMyA,sportsbars,The Rolling Thunder Saloon,False,+15099822940,13 W 1st Ave,,,Odessa,99159,US,WA,"['13 W 1st Ave', 'Odessa, WA 99159']",47.333148,-118.691497
821,k88D5gqIKYEOj9X6D9SMiQ,sportsbars;tradamerican;chicken_wings,Pastime Bar & Grill,False,+15097717826,119 W Main Ave,,,Ritzville,99169,US,WA,"['119 W Main Ave', 'Ritzville, WA 99169']",47.126957,-118.380547
822,sS2On-3hP_zTXyV41GE8Dw,bars;smokehouse;tradamerican,Tribune Smokehouse,False,+15097258509,502 Morgan St,,,Davenport,99122,US,WA,"['502 Morgan St', 'Davenport, WA 99122']",47.65419,-118.14854
823,knJ09FJQ3Z34n2OFok7IIQ,tradamerican;bars;poolhalls,Last Stand Diner & Saloon,False,+15096328777,502 W Main St,,,Coulee City,99115,US,WA,"['502 W Main St', 'Coulee City, WA 99115']",47.611465,-119.294562
824,cipeLPH5zugBAMxkzf_Urw,bars,Ripple Tavern,False,+15097653942,518 E Wheeler Rd,,,Moses Lake,98837,US,WA,"['518 E Wheeler Rd', 'Moses Lake, WA 98837']",47.13147,-119.26916
825,4App7xpZKhHslzGLN6E3NQ,divebars,Broadway Bar,False,+15097645535,302 W Broadway Ave,,,Moses Lake,98837,US,WA,"['302 W Broadway Ave', 'Moses Lake, WA 98837']",47.129902,-119.282017
826,x_1EutEU4ZXkXL_MwO_UYA,bars,Slim's Tavern,False,+15096778854,121 N I St,,,Lind,99341,US,WA,"['121 N I St', 'Lind, WA 99341']",46.971702,-118.615944
827,f9qeskrcXaPVSFbw-a_Isg,bars;tradamerican;social_clubs,Eagles Lodge No 2739,False,+15096591151,105 S Washington St,,,Ritzville,99169,US,WA,"['105 S Washington St', 'Ritzville, WA 99169']",47.1255845708682,-118.378360653447
828,Cwil163-Dy0zqSVOoZuAYQ,pubs,Del-Red Pub,False,+15092461867,311 Main Ave E,,,Soap Lake,98851,US,WA,"['311 Main Ave E', 'Soap Lake, WA 98851']",47.3892251,-119.4843016
829,E0KNnjK4BWeyQsQQ5JICDQ,bars;tradamerican,The Brunswick,False,+15094889861,28 E Main St,,,Othello,99344,US,WA,"['28 E Main St', 'Othello, WA 99344']",46.82583,-119.17481
830,4R1D8dgtB0vCoVYGd4PZIg,bars;burgers,Raelynn's Oasis,False,+15092572590,231 1st St,,,Sprague,99032,US,WA,"['231 1st St', 'Sprague, WA 99032']",47.299689,-117.979854
831,8RHpNEFwiQIn67ApBBs0PQ,whiskeybars,Moses Hole,False,,210 S Gumwood St,,,Moses Lake,98837,US,WA,"['210 S Gumwood St', 'Moses Lake, WA 98837']",47.1262540129824,-119.287112272422
832,RX_ZyY3dKMCeA_oQNP0Hug,karaoke;lounges,Euro Restaurant & Lounge,False,+15093492423,103 S Main St,,,Warden,98857,US,WA,"['103 S Main St', 'Warden, WA 98857']",46.9695,-119.04108
833,KEYBVxS6L3KnVyMCeurgtQ,pubs,The Alibi Tavern,False,+15096472649,4 SW Main,,,Wilbur,99185,US,WA,"['4 SW Main', 'Wilbur, WA 99185']",47.7583143614423,-118.705080584292
834,7YesSH1x-HlJFCsur4yiGg,bars,Danny's Tavern,False,+15097641906,120 W Broadway Ave,,,Moses Lake,98837,US,WA,"['120 W Broadway Ave', 'Moses Lake, WA 98837']",47.130844,-119.280143
835,nA2E3nbqtj84MqSgScQkDA,lounges;steak,Paradise Lake Front Restaurant & Lounge,False,+15097659211,3000 W Marina Dr,,,Moses Lake,98837,US,WA,"['3000 W Marina Dr', 'Moses Lake, WA 98837']",47.10307,-119.31734
836,1k2QRN7ohYndXTJggnMHeQ,breakfast_brunch;tradamerican;beerbar,The Beach House,False,+15093469688,8198 Hwy 262 SE,,MarDon Resort,Othello,99344,US,WA,"['8198 Hwy 262 SE', 'MarDon Resort', 'Othello, WA 99344']",46.966196,-119.320792
837,shD2f4V5WWE868Dk0WzHNQ,pubs;poolhalls,Midway Pub,False,+15097640190,204 W Broadway Ave,,,Moses Lake,98837,US,WA,"['204 W Broadway Ave', 'Moses Lake, WA 98837']",47.13058,-119.28082
838,TW62K1LhF4q84pmrRltiBQ,lounges,Paradise Lakefront Restaurant & Lounge,False,,2928 W Marina Dr,,,Moses Lake,98837,US,WA,"['2928 W Marina Dr', 'Moses Lake, WA 98837']",47.104194,-119.316452
839,qwhi0Yojw8B_JuujJ9Beyw,pubs,Neppel's Dockside Pub,False,+15097640190,204 W Broadway,,,Moses Lake,98837,US,WA,"['204 W Broadway', 'Moses Lake, WA 98837']",47.1305217,-119.2806873
840,z1fo2bkV4qRS_p1eZ2v4VQ,tradamerican;bars,Lakeside Bistro,False,+15092461217,14 Canna St N,,,Soap Lake,98851,US,WA,"['14 Canna St N', 'Soap Lake, WA 98851']",47.389584,-119.484946
841,Ym0Hd6FoMUCax6TxLC8Zxw,bars;tradamerican;burgers,The Club Sports Bar & Grill,False,+15094224282,125 Pine St,,,Okanogan,98840,US,WA,"['125 Pine St', 'Okanogan, WA 98840']",48.3634887635708,-119.58005413413
842,z57UaXOQpzKhO7fdu_EdQA,italian;wine_bars;pizza,Tappi,False,+15099973345,201 S Glover St,,,Twisp,98856,US,WA,"['201 S Glover St', 'Twisp, WA 98856']",48.3642196655273,-120.121643066406
843,lm1kJRX2UoThEtcUtr1BSg,pizza;bars,East 20 Pizza,False,+15099963996,720 Hwy 20 S,,,Winthrop,98862,US,WA,"['720 Hwy 20 S', 'Winthrop, WA 98862']",48.469201069165,-120.176010131836
844,LQm4AfikCTe9MBHY_j8RdA,cocktailbars;newamerican;tapasmallplates,Copper Glance,False,+15094337765,134-A Riverside Ave,,,Winthrop,98862,US,WA,"['134-A Riverside Ave', 'Winthrop, WA 98862']",48.4786415100098,-120.185920715332
845,69lNA6hax1G4y1p6u6n2rA,tradamerican;bars;poolhalls,Three Fingered Jacks Saloon & Cafe,False,+15099962411,176 Riverside Ave,,,Winthrop,98862,US,WA,"['176 Riverside Ave', 'Winthrop, WA 98862']",48.478156,-120.185396
846,UQB0bw8GdrKQ21AqWQirGg,tradamerican;bars,Danny Boy Bar & Grill,False,+15094368323,200 Sands Trail Rd,,Gamble Sands,Brewster,98812,US,WA,"['200 Sands Trail Rd', 'Gamble Sands', 'Brewster, WA 98812']",48.0678559315522,-119.64508820274
847,ARXyavsxmpK3Swb2pGkHIw,cafes;cocktailbars;sandwiches,The Fox & Quail Cafe,False,+15096824196,303 E Wapato Ave,,,Chelan,98816,US,WA,"['303 E Wapato Ave', 'Chelan, WA 98816']",47.8392219543457,-120.014556884766
848,aVjKD_hDRfRzkT9VPdFJ0A,bars;pizza,Red Rock Saloon,False,+15095574993,316 N Main St,,,Conconully,98819,US,WA,"['316 N Main St', 'Conconully, WA 98819']",48.5603460947358,-119.750490412116
849,N65BNS3iBnkBH6y-EB8cBw,tradamerican;breakfast_brunch;bars,Apple Cup Cafe,False,+15096822933,804 E Woodin Ave,,,Chelan,98816,US,WA,"['804 E Woodin Ave', 'Chelan, WA 98816']",47.83934,-120.00517
850,EOFB8luXItrK2ETY7qs3tw,steak;wineries;wine_bars,Wapato Point Cellars,False,+15096874000,200 S Quetilquasoon Rd,,,Manson,98831,US,WA,"['200 S Quetilquasoon Rd', 'Manson, WA 98831']",47.881,-120.15126
851,MnUfCetf74dC26vN4W8Zzw,italian;wine_bars,Sorrento's Ristorante,False,+15096829463,3875 Highway 97A,,,Chelan,98816,US,WA,"['3875 Highway 97A', 'Chelan, WA 98816']",47.837055,-120.079604
852,conbbyYS4JfnbhC1xCS6SA,wine_bars;breakfast_brunch;coffee,The Vogue,False,+15098885282,117 E Woodin Ave,,,Chelan,98816,US,WA,"['117 E Woodin Ave', 'Chelan, WA 98816']",47.8401763164242,-120.018272631494
853,1ogBQuwRXD0u1ta3E56Cgg,bars;tradamerican,Sunset Bar & Grill,False,+15096877000,76 Wapato Way,,,Manson,98831,US,WA,"['76 Wapato Way', 'Manson, WA 98831']",47.88546,-120.15971
854,D9nXWM5nY92ZUDa8sh9k7A,mexican;bars,La Brisa Mexican Restaurant,False,+15096825633,246 W Manson Hwy,Ste 11,,Chelan,98816,US,WA,"['246 W Manson Hwy', 'Ste 11', 'Chelan, WA 98816']",47.84339,-120.0232
855,1pq7VnvWua83RD_Y3Z0tRQ,wine_bars,Brix Wine Bar & Bottle Shop,False,+15099963229,229 Riverside Ave,Ste H,,Winthrop,98862,US,WA,"['229 Riverside Ave', 'Ste H', 'Winthrop, WA 98862']",48.4772125369498,-120.184993426005
856,sp9NG_k79LCwIoP1waXU2Q,pubs,The Kuhler Bar and Grill,False,+15094862996,302 S Whitcomb Ave,,,Tonasket,98855,US,WA,"['302 S Whitcomb Ave', 'Tonasket, WA 98855']",48.705498,-119.439507
857,1S5qySXtdRHnio4m1_6Irw,tradamerican;bars,Wolf Creek Bar & Grill,False,+15099962211,604 Patterson Lake Rd,,,Winthrop,98862,US,WA,"['604 Patterson Lake Rd', 'Winthrop, WA 98862']",48.4769089,-120.2552905
858,h4Qu1F_2R83PsemLIjEaig,burgers;beerbar,Kodi's Noon Saloon,False,+15099239767,154 Pateros Mall,,,Pateros,98846,US,WA,"['154 Pateros Mall', 'Pateros, WA 98846']",48.052604,-119.900599
859,Nk24pMNIit8TioJTXdWLNQ,tapasmallplates;cocktailbars,Layla's,False,+15098880800,142 E Woodin Ave,,,Chelan,98816,US,WA,"['142 E Woodin Ave', 'Chelan, WA 98816']",47.839705172809,-120.015898829113
860,ekf8qxCscVSR8lbrr9284Q,comfortfood;bars;burgers,Linwood,False,+15134070514,108 Glover St N,,,Twisp,98856,US,WA,"['108 Glover St N', 'Twisp, WA 98856']",48.36563667,-120.12115833
861,kcRlG9Fk5aG2kJdPHvnWmQ,winetastingroom;wine_bars,Fielding Hills Winery,False,+15098889463,565 South Lakeshore Dr,,,Chelan,98816,US,WA,"['565 South Lakeshore Dr', 'Chelan, WA 98816']",47.8422355651855,-120.098114013672
862,4qEYP2aSTsXH3-Pz9BbMFQ,burgers;bars,Bj's Branding Iron Cafe & Saloon,False,+15099970040,123 Glover,,,Twisp,98856,US,WA,"['123 Glover', 'Twisp, WA 98856']",48.3655199,-120.12146
863,PCcpWawWP74Co4OK-dHwpg,tradamerican;bars,Pepper Jack Bar and Grill,False,+15096338283,113 Midway Ave,,,Grand Coulee,99133,US,WA,"['113 Midway Ave', 'Grand Coulee, WA 99133']",47.9411504,-119.0056251
864,TtgBxao59jpPmZWMl93DIQ,divebars,Senor Frogs,False,+15096822231,112 E Woodin Ave,,,Chelan,98816,US,WA,"['112 E Woodin Ave', 'Chelan, WA 98816']",47.8397099,-120.01895
865,5rE-oADc2b2MRwLKBgxUqA,tradamerican;pubs,Banks Lake Pub,False,+15096332000,17 W Coulee Blvd,,,Electric City,99357,US,WA,"['17 W Coulee Blvd', 'Electric City, WA 99357']",47.933023,-119.037397
866,RL595tAA94zLV5ZGVX6uhA,bars,Okanogan County Bridgeport Bar Transfer Station,False,+15096864242,173 Perkins Rd,,,Bridgeport,98813,US,WA,"['173 Perkins Rd', 'Bridgeport, WA 98813']",48.06697,-119.725319
867,zsf7ObELANBVhYVOiIBf3w,sportsbars;burgers,The Hi Dam Tavern,False,+15096339888,207 Main St,,,Grand Coulee,99133,US,WA,"['207 Main St', 'Grand Coulee, WA 99133']",47.9405189153838,-119.00233514607
868,HjFgYmP01kmqKda8eOz1wg,diners;wine_bars;beerbar,Texas Family Diner,False,,220 Whitcomb Avenue Hwy 97,,,Tonasket,98855,US,WA,"['220 Whitcomb Avenue Hwy 97', 'Tonasket, WA 98855']",48.6405834499826,-119.476693868637
869,e0Yw03XeFv81oRl7QnE7XQ,bars,Eagles,False,+15096822021,302 E Woodin Ave,,,Chelan,98816,US,WA,"['302 E Woodin Ave', 'Chelan, WA 98816']",47.8395629659804,-120.014433860779
870,oscGg2jeLGrDGoVvW3nk7A,bars;karaoke,Eagle's Lodge,False,+15096330162,122 B St,,,Grand Coulee,99133,US,WA,"['122 B St', 'Grand Coulee, WA 99133']",47.9450187683105,-119.003128051758
871,QlCGcTNtaBBPNUE0BacPkA,casinos;lounges,Coulee Dam Casino,False,+15096330766,515 Birch St,,,Coulee Dam,99116,US,WA,"['515 Birch St', 'Coulee Dam, WA 99116']",47.9663199737105,-118.977937776096
872,ooXjatJ6p_xICOm6wc7B6w,wine_bars;steak,The Grand Coulee Grill,False,+15096341694,415 Midway Ave,,,Grand Coulee,99133,US,WA,"['415 Midway Ave', 'Grand Coulee, WA 99133']",47.9409212,-119.0065683
873,rAbcp_jy2_0kv5oxN7t2Cg,tradamerican;bars,Bistro at Benson Viney‚Äãards,False,+15096870313,754 Winesap Ave,,,Manson,98831,US,WA,"['754 Winesap Ave', 'Manson, WA 98831']",47.870599,-120.090335
874,5A-G_s_Uhs765_52Ffu7AA,vapeshops;tobaccoshops;cigarbars,"Chelan Vape, Smoke and Cigar",False,+15098880136,320 E Woodin Ave,,,Chelan,98816,US,WA,"['320 E Woodin Ave', 'Chelan, WA 98816']",47.83956,-120.01391
