,Unnamed: 0,id,alias,name,is_closed,phone,address1,address2,address3,city,zip_code,country,state,display_address,latitude,longitude
0,0,o6NdncTT1i33x1e-gf6NIA,retirement_homes,Wynwood of Columbia Edgewater,False,15099464600,1629 George Washington Way,,,Richland,99354,US,WA,"['1629 George Washington Way', 'Richland, WA 99354']",46.29651,-119.27561999999999
1,1,DVviphFeWFFSlQcLPYOHYQ,retirement_homes,Emeritus at Richland Gardens,False,15093022209,770 W Gage Blvd,,,Richland,99352,US,WA,"['770 W Gage Blvd', 'Richland, WA 99352']",46.227866999999996,-119.270256
2,2,hjkwyk2rgzDVvfWvMyG5VA,hospice;retirement_homes,Moses Lake,False,15093022210,8425 Aspi Blvd. NE,,,Moses Lake,98837,US,WA,"['8425 Aspi Blvd. NE', 'Moses Lake, WA 98837']",47.162160241493304,-119.309808358896
3,3,HN7mkytRLtYKPLecVjSJAw,retirement_homes,Hawthorne Court,False,15097838313,524 N Ely St,,,Kennewick,99336,US,WA,"['524 N Ely St', 'Kennewick, WA 99336']",46.215603,-119.157643
4,4,bSj0OGyaP3cpGeu7tHmYEQ,retirement_homes,Solstice Senior Living at Kennewick,False,15097344331,8264 W Grandridge Blvd,,,Kennewick,99336,US,WA,"['8264 W Grandridge Blvd', 'Kennewick, WA 99336']",46.222344,-119.23448700000002
6,6,it7q7L9fG_m8qQ-wc-bWDA,retirement_homes,From The Heart,False,15095421733,4408 Artesia Dr,,,Pasco,99301,US,WA,"['4408 Artesia Dr', 'Pasco, WA 99301']",46.273765999999995,-119.148422
8,8,NSBMOAiOr_K5k38hr25JxQ,retirement_homes,Fieldstone Memory Care,False,15094913945,575 N Young St,,,Kennewick,99336,US,WA,"['575 N Young St', 'Kennewick, WA 99336']",46.2151567,-119.2187949
18,18,T1pNEt5dv8PyqBFj1XsD1g,retirement_homes,Mountain Glen Retirement Community,False,13604247900,1810 E Division St,,,Mt. Vernon,98274,US,WA,"['1810 E Division St', 'Mt. Vernon, WA 98274']",48.42029,-122.31737
19,19,Uvtq0sdFFjp6pXmAq94IXA,physicaltherapy;hospice;retirement_homes,Mira Vista Care Center,False,13604241320,300 S 18th St,,,Mount Vernon,98274,US,WA,"['300 S 18th St', 'Mount Vernon, WA 98274']",48.419116973877,-122.317611694336
20,20,Lts1KIUlD1aR34_9fTAfww,retirement_homes;apartments,Vintage At Mount Vernon,False,13608488533,1000 Vintage Ln,,,Mount Vernon,98273,US,WA,"['1000 Vintage Ln', 'Mount Vernon, WA 98273']",48.439846038818395,-122.328025817871
21,21,DYfKuq4xviVACJ4SEHOX0A,retirement_homes,Josephine Sunset Home,False,13606299505,9901 272nd Pl NW,,,Stanwood,98292,US,WA,"['9901 272nd Pl NW', 'Stanwood, WA 98292']",48.244411468505895,-122.367294311523
23,23,2xp1fji-hW9Mp0a0lKC2fg,hospice;retirement_homes,Stanwood,False,13606293445,7212 265th St NW,,,Stanwood,98292,US,WA,"['7212 265th St NW', 'Stanwood, WA 98292']",48.2368774,-122.33068850000001
24,24,rLQRkCFXd0Ya9ccfR_RRsw,retirement_homes,Creekside Continuing Care Community,False,13607555550,400 Gilkey Rd,,,Burlington,98233,US,WA,"['400 Gilkey Rd', 'Burlington, WA 98233']",48.46393,-122.32893
25,25,85X6VmoUyJPsVoCLeZzKQQ,retirement_homes,Birchview Memory Care,False,13604194077,925 Dunlop Ave,,,Sedro Woolley,98284,US,WA,"['925 Dunlop Ave', 'Sedro Woolley, WA 98284']",48.4931859,-122.2248815
26,26,Es0sFjuH9OZkJ6Pa8sp65w,retirement_homes,Leeside Manor,False,13604038195,22803 19th Dr NE,,,Arlington,98223,US,WA,"['22803 19th Dr NE', 'Arlington, WA 98223']",48.2027587890625,-122.20090484619101
27,27,bJWKOatUHEruA48QoduopA,retirement_homes,Regency Care Center,False,13602550939,620 Hazel St,,,Arlington,98223,US,WA,"['620 Hazel St', 'Arlington, WA 98223']",48.1983321,-122.1295688
29,29,jUzpQIMPgdqRwrDu_mpsvg,retirement_homes,Revel Lacey,False,13602262763,211 Hoh St SE,,,Lacey,98516,US,WA,"['211 Hoh St SE', 'Lacey, WA 98516']",47.05737,-122.75527
30,30,f5P0fFeRt5_1hXbPLMnodw,retirement_homes;nonprofit,Panorama,False,13604560111,1751 Circle Ln SE,,,Lacey,98503,US,WA,"['1751 Circle Ln SE', 'Lacey, WA 98503']",47.031094,-122.83191599999999
31,31,pBTCB-H3KVls-evYe29XCg,rehabilitation_center;retirement_homes,Olympia Transitional Care and Rehabilitation,False,13604919700,430 Lilly Rd NE,,,Olympia,98506,US,WA,"['430 Lilly Rd NE', 'Olympia, WA 98506']",47.05314,-122.84175
32,32,WLW9tzSjhVWu4Vq0v36ebA,retirement_homes,Capital Place,False,13607630937,700 Black Lake Blvd SW,,,Olympia,98502,US,WA,"['700 Black Lake Blvd SW', 'Olympia, WA 98502']",47.041329,-122.929146
33,33,4DH06IG5POUdwND23WOjig,retirement_homes,Stillwaters Colonial Residence,False,13607361551,2700 Colonial Dr,,,Centralia,98531,US,WA,"['2700 Colonial Dr', 'Centralia, WA 98531']",46.710296630859396,-122.998634338379
34,34,E7LihX8oucEmPpuXfPUR_A,retirement_homes,Kensington Gardens,False,12538587588,3804 Olson Dr NW,,,Gig Harbor,98335,US,WA,"['3804 Olson Dr NW', 'Gig Harbor, WA 98335']",47.292817,-122.596704
35,35,Bf8y25pG0ebo5mtvQ-jcnA,rehabilitation_center;retirement_homes,ManorCare Health Services-Tacoma,False,12534748421,5601 S Orchard St,,,Tacoma,98409,US,WA,"['5601 S Orchard St', 'Tacoma, WA 98409']",47.205659999999995,-122.50399999999999
36,36,yaxZka4fJxSBt_RrQn6X_g,retirement_homes,Brooks Blessings - West Olympia,False,13607904779,1627 12th Ave SW,,,Olympia,98502,US,WA,"['1627 12th Ave SW', 'Olympia, WA 98502']",47.036840000000005,-122.92283
38,38,PlvHjEkDq0oSZR8ssS9olg,retirement_homes,Prestige Care,False,13607369384,917 S Scheuber Rd,,,Centralia,98531,US,WA,"['917 S Scheuber Rd', 'Centralia, WA 98531']",46.71148,-122.98833
39,39,xrdY_S5GhmveX89l6X2xVw,retirement_homes,Harbor Place At Cottesmore,False,12538533354,1016 29th St NW,,,Gig Harbor,98335,US,WA,"['1016 29th St NW', 'Gig Harbor, WA 98335']",47.284952720011,-122.55473275321998
40,40,tUBIOyYejlFJmOlUcC7YRw,retirement_homes;rehabilitation_center,Fir Lane Health & Rehabilitation Center,False,13604261651,2430 N 13th St,,,Shelton,98584,US,WA,"['2430 N 13th St', 'Shelton, WA 98584']",47.23072,-123.11084
41,41,mncRY_oYpszoP1r4fkJHXQ,retirement_homes,Olympic Alzheimer's Residence,False,12538515306,3025 14th Ave NW,,,Gig Harbor,98335,US,WA,"['3025 14th Ave NW', 'Gig Harbor, WA 98335']",47.286052000000005,-122.55668700000001
44,44,iWyNk24vuQlaBjkJkxlbbg,retirement_homes,Tacoma Lutheran Retirement Community,False,12537527112,1301 N Highlands Pkwy,,,Tacoma,98406,US,WA,"['1301 N Highlands Pkwy', 'Tacoma, WA 98406']",47.263166,-122.52079099999999
45,45,t9k3MXTQdTwcfp-uUbz8jw,retirement_homes;rehabilitation_center,ManorCare Health Services-Lacey,False,13604919890,4524 Intelco Loop SE,,,Lacey,98503,US,WA,"['4524 Intelco Loop SE', 'Lacey, WA 98503']",46.99815,-122.83255
47,47,kaFxVEWROU7xeXFS7FdQhg,retirement_homes,A Better Place,False,12533817098,629 21st St SE,,,Puyallup,98372,US,WA,"['629 21st St SE', 'Puyallup, WA 98372']",47.185809899999995,-122.26418000000001
49,49,857R1u2EZuaJhvteTFkQSg,retirement_homes,Arcadia Health Care,False,12538631834,823 W Main St,Ste J,,Sumner,98390,US,WA,"['823 W Main St', 'Ste J', 'Sumner, WA 98390']",47.2030355,-122.2453064
50,50,6kEttFEGhIjsTT8W6vQzcg,retirement_homes,Willow Gardens,False,12537990741,4502 6th St SE,,,Puyallup,98374,US,WA,"['4502 6th St SE', 'Puyallup, WA 98374']",47.149371837853295,-122.28579374961599
52,52,f8oZsirbrIEPH-Odx-kT9A,retirement_homes;apartments,Alder Ridge Senior Apartments,False,12538785665,2800 Alder St,,,Milton,98354,US,WA,"['2800 Alder St', 'Milton, WA 98354']",47.2573749,-122.2982884
53,53,ElgasECv3gDrV9R6FW1_yQ,retirement_homes,Assisted Living Alternatives,False,12539522052,708 27th Ave,,,Milton,98354,US,WA,"['708 27th Ave', 'Milton, WA 98354']",47.25176,-122.29876000000002
54,54,5LXpzUbxr3psTE1jJXFkOg,retirement_homes,Cascade Park Communities,False,12536273833,242 St Helens Ave,,,Tacoma,98402,US,WA,"['242 St Helens Ave', 'Tacoma, WA 98402']",47.2608032226562,-122.44525146484399
56,56,5dEL7W9o_mF1wvopc_Zn8g,retirement_homes;apartments,Peninsula,False,12533588524,3445 50th Street Ct NW,,,Gig Harbor,98335,US,WA,"['3445 50th Street Ct NW', 'Gig Harbor, WA 98335']",47.304608910782,-122.58533924818
58,58,mhkGCINk9wmOVo1qRjwNjw,retirement_homes,Village Green Retirement Campus,False,12538383700,35419 1st Ave S,,,Federal Way,98003,US,WA,"['35419 1st Ave S', 'Federal Way, WA 98003']",47.284459999999996,-122.33583999999999
59,59,EtopA7o7WnwSDgnJaNSvHA,retirement_homes,Chateau At Valley Center,False,14252516677,4450 Davis Ave S,,,Renton,98055,US,WA,"['4450 Davis Ave S', 'Renton, WA 98055']",47.439409999999995,-122.21538999999999
60,60,HoyX0BeM0vU7lUprBYN5Hg,homehealthcare;retirement_homes;seniorcenters,Concierge Care Advisors,False,18554447364,2608 2nd Ave,Ste 224,,Seattle,98121,US,WA,"['2608 2nd Ave', 'Ste 224', 'Seattle, WA 98121']",47.616094399999994,-122.3491053
62,62,RoIxNGnjbE2DjrCLpiq9ug,retirement_homes,Franke Tobey Jones,False,12537526621,5340 N Bristol St,,,Tacoma,98407,US,WA,"['5340 N Bristol St', 'Tacoma, WA 98407']",47.3004,-122.52225
63,63,X0IA5dnQLTNNOcGdOy0j9A,retirement_homes,McGee's Guest Home,False,12538472292,21520 82nd Ave E,,,Spanaway,98387,US,WA,"['21520 82nd Ave E', 'Spanaway, WA 98387']",47.06062,-122.32208999999999
64,64,MX1VFFjjuJfN2mTXxt6Iaw,retirement_homes,Folks At Home,False,13607405391,101 Linda Vista Rd,,,Chehalis,98532,US,WA,"['101 Linda Vista Rd', 'Chehalis, WA 98532']",46.624393463134794,-122.89441680908199
65,65,m36vxOCm9Q6V2BMNmwdb9w,retirement_homes;rehabilitation_center,ManorCare Health Services-Gig Harbor,False,12538588688,"3309 45th St., CT., NW",,,Gig Harbor,98335,US,WA,"['3309 45th St., CT., NW', 'Gig Harbor, WA 98335']",47.299953,-122.58348799999999
68,68,KXh4Le9agzP-HfCBv9RSBw,retirement_homes,Solstice Senior Living at Normandy Park,False,12062421455,17623 1st Ave S,,,Normandy Park,98148,US,WA,"['17623 1st Ave S', 'Normandy Park, WA 98148']",47.444720000000004,-122.33516999999999
71,71,Zw9IBqs5PZU9FBl9TgcmAQ,retirement_homes,Heritage House At Mountain View,False,13608295292,28833 State Route 410 E,,,Buckley,98321,US,WA,"['28833 State Route 410 E', 'Buckley, WA 98321']",47.1592903137207,-122.043907165527
72,72,374Qz2km0q6Kmtl0rvfTKw,retirement_homes,Solstice Senior Living at Point Defiance,False,12537598908,6414 N Park Way,,,Tacoma,98407,US,WA,"['6414 N Park Way', 'Tacoma, WA 98407']",47.298874945906896,-122.52377764787501
73,73,1p0X-S43ms-1gS4nQ23IxA,retirement_homes,Radcliffe Place,False,12535255571,13510 SE 272nd St,,,Kent,98042,US,WA,"['13510 SE 272nd St', 'Kent, WA 98042']",47.3594383,-122.16074809999999
75,75,UsTPvkB-Ea4357rSSsraYA,retirement_homes,Harbor Heritage Adult Family Home,False,12535148479,7614 55th Ave Ct NW,,,Gig Harbor,98335,US,WA,"['7614 55th Ave Ct NW', 'Gig Harbor, WA 98335']",47.32698,-122.61273
76,76,krbB0toKrzcCHyD1A2TVog,retirement_homes;nonprofit,Heron's Key,False,12533130700,4340 Borgen Blvd,,,Gig Harbor,98332,US,WA,"['4340 Borgen Blvd', 'Gig Harbor, WA 98332']",47.359804,-122.59591100000002
77,77,-eWI6zoFATzG5kbx_atpFg,retirement_homes,Wesley Des Moines,False,12068245000,815 S 216th St,,,Des Moines,98198,US,WA,"['815 S 216th St', 'Des Moines, WA 98198']",47.407244,-122.32208500000002
78,78,9Evte_ISLn6Iqj_A8cYQuw,retirement_homes,Shag Celebration Senior Living,False,12063314311,1524 S 328th St,,,Federal Way,98003,US,WA,"['1524 S 328th St', 'Federal Way, WA 98003']",47.308289,-122.314875
79,79,Gzu86lMC-jKeZ_aoKglpTg,retirement_homes,My Other Home,False,12532651400,5515 99th Ave NW,,,Gig Harbor,98335,US,WA,"['5515 99th Ave NW', 'Gig Harbor, WA 98335']",47.30786,-122.66961
80,80,qfUGjA1pUE9Eitm7vtDNKg,retirement_homes,Prestige Senior Living Auburn,False,12533330171,945 22nd St NE,,,Auburn,98002,US,WA,"['945 22nd St NE', 'Auburn, WA 98002']",47.327504499999996,-122.2169909
81,81,u9uJ-EbrG0f6yvwyrVUvFA,retirement_homes,Life Manor Independent Living Park Side,False,12533833363,1601 S Union Ave,,,Tacoma,98405,US,WA,"['1601 S Union Ave', 'Tacoma, WA 98405']",47.245284999999996,-122.480476
82,82,30w6DYZiz051hUv7ulhR5A,apartments;retirement_homes,The Reserve at SeaTac,False,12068233244,19707 International Blvd,,,Seattle,98188,US,WA,"['19707 International Blvd', 'Seattle, WA 98188']",47.425159,-122.296931
83,83,8_2ybhLz87y7q21Jcr95cw,retirement_homes,Sunset Garden Apartments,False,12533363758,201 27th Ave SE,,,Puyallup,98374,US,WA,"['201 27th Ave SE', 'Puyallup, WA 98374']",47.1662445068359,-122.290176391602
86,86,_yFROYfrY0YM4BP0kVAo7g,homehealthcare;retirement_homes,Wesley Lea Hill,False,12538766000,32049 109th Pl SE,,,Auburn,98092,US,WA,"['32049 109th Pl SE', 'Auburn, WA 98092']",47.314843609929106,-122.19581477343999
88,88,dZKfqFsuW7UnH3CSQFYsaw,retirement_homes,Arbor Village,False,12538561600,24121 116th Ave SE,,,Kent,98030,US,WA,"['24121 116th Ave SE', 'Kent, WA 98030']",47.3855453,-122.18821820000001
89,89,OkznDSfmiZYyBlVuyylxGw,retirement_homes,Angelwings Adult Family Home,False,12066605224,103 S 197th St,,,Des Moines,98148,US,WA,"['103 S 197th St', 'Des Moines, WA 98148']",47.42543,-122.33503999999999
92,92,N46T9U5dOWT5STFcZAhMQQ,retirement_homes,LARC at Kent,False,12532772713,1001 1st Ave N,,,Kent,98032,US,WA,"['1001 1st Ave N', 'Kent, WA 98032']",47.39249043727239,-122.23395346029301
93,93,N1iNXp683J4kEKz6Qdluww,retirement_homes,Bow Lake 55+ Residential Community,False,12062444755,18050 32nd Ave S,,,Seatac,98188,US,WA,"['18050 32nd Ave S', 'Seatac, WA 98188']",47.4398132,-122.28954350000001
134,134,wLQzkYN7oh_J7iNEUADWFw,retirement_homes,Touchmark On South Hill,False,15092100164,2929 S Waterford Dr,,,Spokane,99202,US,WA,"['2929 S Waterford Dr', 'Spokane, WA 99202']",47.6269300282001,-117.383173406124
135,135,g8hheIYOOYaWzNGROJi73g,retirement_homes,Affinity at South Hill,False,15095982651,3304 E 44th Ave,,,Spokane,99223,US,WA,"['3304 E 44th Ave', 'Spokane, WA 99223']",47.612850189209006,-117.36090087890601
136,136,HWDhXRn7BGTWJhEeJQi05A,retirement_homes,Evergreen Fountains Senior Living Community,False,15099223100,1201 N Evergreen Rd,,,Spokane,99216,US,WA,"['1201 N Evergreen Rd', 'Spokane, WA 99216']",47.6684287,-117.2201304
137,137,UD7msVJUyhSc510Y6Eb4aw,retirement_homes;rehabilitation_center,ManorCare Health Services-Spokane,False,15093268282,6025 N. Assembly,,,Spokane,99205,US,WA,"['6025 N. Assembly', 'Spokane, WA 99205']",47.714040000000004,-117.47691999999999
138,138,lCggipt0uxVXIhrYvz5UGA,retirement_homes;rehabilitation_center,Royal Park Health and Rehabilitation,False,15094892273,7411 N Nevada St,,,Spokane,99208,US,WA,"['7411 N Nevada St', 'Spokane, WA 99208']",47.7248818,-117.3967517
140,140,crxbIjDK9BUZmjD8dCuQJA,retirement_homes,Aspen Quality Care,False,15094649486,9626 N Colfax Rd,,,Spokane,99218,US,WA,"['9626 N Colfax Rd', 'Spokane, WA 99218']",47.7451286,-117.4084625
141,141,d0H12iWfddqNlFQGI35VVg,retirement_homes,Broadway Court Estates,False,15099210249,13505 E Broadway Ave,,,Spokane Valley,99216,US,WA,"['13505 E Broadway Ave', 'Spokane Valley, WA 99216']",47.6644749,-117.223348
142,142,6rM4aYEhoTkeq9zK71qGwg,retirement_homes,Bethany Place,False,15099240580,9111 E Upriver Dr,,,Spokane,99206,US,WA,"['9111 E Upriver Dr', 'Spokane, WA 99206']",47.697624206543,-117.281463623047
143,143,di8n8fWjY6b4iZ8WZdCxig,retirement_homes,Bay Pointe Retirement Community,False,13603739904,966 Oyster Bay Ct,,,Bremerton,98312,US,WA,"['966 Oyster Bay Ct', 'Bremerton, WA 98312']",47.5707176327705,-122.66732700169099
144,144,JglPPRxvPdbNzDefMhFXtA,retirement_homes,Canterbury Manor,False,13603770113,703 Callahan Drive,,,Bremerton,98310,US,WA,"['703 Callahan Drive', 'Bremerton, WA 98310']",47.58497,-122.62929
145,145,8AjPFi178dGimifXQwp1rQ,retirement_homes,Foster Meadows Adult Family Home,False,13606131710,8587 Covina Lp NE,,,Bremerton,98311,US,WA,"['8587 Covina Lp NE', 'Bremerton, WA 98311']",47.6406593322754,-122.644355773926
147,147,rND6vYTVTXz3jTxKAqxjmQ,retirement_homes,Vintage At Silverdale,False,13603089600,3291 NW Mount Vintage Way,,,Silverdale,98383,US,WA,"['3291 NW Mount Vintage Way', 'Silverdale, WA 98383']",47.658,-122.69751000000001
149,149,W6b0HM6T0gvkHmFGVPdwKQ,retirement_homes,Bainbridge Senior Living,False,12068423694,245 Madison Ave,,,Bainbridge Island,98110,US,WA,"['245 Madison Ave', 'Bainbridge Island, WA 98110']",47.6229229334593,-122.52177290618401
153,153,kU8InB_url3mkxesH4G64g,retirement_homes,Quail Run Retirement Community,False,15095292180,1701 Plaza Way,,,Walla Walla,99362,US,WA,"['1701 Plaza Way', 'Walla Walla, WA 99362']",46.04745,-118.34465
154,154,G3JInlmhm927pPP2tp_mQA,retirement_homes,Living Care Retirement Community,False,15099655260,3801 Summitview Ave,,,Yakima,98902,US,WA,"['3801 Summitview Ave', 'Yakima, WA 98902']",46.600902557373,-120.559730529785
156,156,D0-7gTnJxk22e42y77SdNw,retirement_homes,Peach Tree Retirement Center,False,15092481766,2800 W Viola Ave,,,Yakima,98902,US,WA,"['2800 W Viola Ave', 'Yakima, WA 98902']",46.581140000000005,-120.5471
172,172,yusPpVIv0IBsboxcyDf93Q,retirement_homes,GenCare Renton at The Lodge,False,14257938080,1600 Eagle Ridge Dr S,,,Renton,98055,US,WA,"['1600 Eagle Ridge Dr S', 'Renton, WA 98055']",47.466288,-122.20443799999998
177,177,RtAlL6wSqfxc8sWqy1QLgg,retirement_homes,Taylor's Adult Family Home,False,12067302119,639 S 150th St,,,Burien,98148,US,WA,"['639 S 150th St', 'Burien, WA 98148']",47.4681167602539,-122.324607849121
180,180,_I8Q5yKF-e4vEqJIiaOmKw,retirement_homes,Solstice Senior Living at Renton,False,14252263312,1414 Monroe Ave NE,,,Renton,98056,US,WA,"['1414 Monroe Ave NE', 'Renton, WA 98056']",47.50523,-122.17419
193,193,0iogN2Ux2irFHPno-D0TkQ,retirement_homes,Arrowhead Gardens,False,12064624971,9220 2nd Ave SW,,,Seattle,98106,US,WA,"['9220 2nd Ave SW', 'Seattle, WA 98106']",47.5208,-122.33511999999999
196,196,LutNg7_XtdB7UCOzRN98_A,retirement_homes,Daystar Retirement Village,False,12069376122,2615 SW Barton St,,,Seattle,98126,US,WA,"['2615 SW Barton St', 'Seattle, WA 98126']",47.520720000000004,-122.36708
200,200,EX04c-SQCCDjF05wE4QCZA,retirement_homes,Concejo Adult Family Home,False,12067609364,6320 S Fountain St,,,Seattle,98178,US,WA,"['6320 S Fountain St', 'Seattle, WA 98178']",47.503589630127,-122.252296447754
202,202,qY0qEYe3plVEXPI0KqnoNw,hospice;retirement_homes;c_and_mh,Valley Senior Care AFH -Adult Family Home,False,14252287934,12245 155th Ave SE,,,Renton,98059,US,WA,"['12245 155th Ave SE', 'Renton, WA 98059']",47.492649,-122.134872
205,205,0yPN36q9Ag1w7nfAcT1fCg,rehabilitation_center;retirement_homes,ManorCare Health Services-Lynnwood,False,14257759222,"3701 188th St., SW",,,Lynnwood,98037,US,WA,"['3701 188th St., SW', 'Lynnwood, WA 98037']",47.8288,-122.28365
208,208,GSw_L3yR6E4x71f47UrLzw,retirement_homes,Chateau Pacific Retirement,False,14257879693,3333 148th St SW,,,Lynnwood,98037,US,WA,"['3333 148th St SW', 'Lynnwood, WA 98037']",47.865181,-122.27958799999999
209,209,aT7a3pmcm30uLy9cb8PKAA,retirement_homes,GenCare Lynnwood at Scriber Gardens,False,14256737111,6024 200th St SW,,,Lynnwood,98036,US,WA,"['6024 200th St SW', 'Lynnwood, WA 98036']",47.817084,-122.315148
215,215,mX-UQYk7zT8kYY143EWrbw,retirement_homes,For Senior's Sake,False,12063640921,20157 6th Ave NE,,,Shoreline,98155,US,WA,"['20157 6th Ave NE', 'Shoreline, WA 98155']",47.776632899999996,-122.323416
218,218,6AaIN75F5aMTyLQ7eLoLxg,retirement_homes,The Legacy of Bothell,False,14257617739,305 240th St SW,,,Bothell,98021,US,WA,"['305 240th St SW', 'Bothell, WA 98021']",47.78135,-122.23751000000001
219,219,jDncjgKBHREYBnwVfQZA9Q,retirement_homes,Hiljay Homes,False,12065421910,111 NW 203rd St,,,Shoreline,98177,US,WA,"['111 NW 203rd St', 'Shoreline, WA 98177']",47.776340000000005,-122.35904
220,220,oLe7ucXfKiPgI6xTbSyOaQ,retirement_homes,Home Again,False,12066295649,18504 2nd Ave NW,,,Shoreline,98177,US,WA,"['18504 2nd Ave NW', 'Shoreline, WA 98177']",47.763484999999996,-122.359756
222,222,ZSuTVv0UredhPWZeWHYmAA,retirement_homes,Murillo Villa Adult Family Home,False,12066294598,23406 97th Pl W,,,Edmonds,98020,US,WA,"['23406 97th Pl W', 'Edmonds, WA 98020']",47.786714,-122.36379199999999
223,223,UbSp-USmgbR17EgPvBdK2w,retirement_homes,Emeritus at Spring Estates,False,14259532998,7221 NE 182nd St,,,Kenmore,98028,US,WA,"['7221 NE 182nd St', 'Kenmore, WA 98028']",47.760261,-122.24440700000001
224,224,YeS46pyIZ8czvimTOPzGpg,retirement_homes,Brookdale Silver Lake,False,14253376336,2015 Lake Heights Dr,,,Everett,98208,US,WA,"['2015 Lake Heights Dr', 'Everett, WA 98208']",47.89167785644529,-122.203994750977
227,227,tT_UFX0GAGEBJh5I1o0rZA,retirement_homes,Mt Baker Care Center,False,18886357347,2905 Connelly Ave,,,Bellingham,98225,US,WA,"['2905 Connelly Ave', 'Bellingham, WA 98225']",48.713321685790994,-122.47974395751999
228,228,GBue4SNeks4JkFr_VZzHPA,retirement_homes,Long-Term Care Solutions,False,13606472280,103 E Holly St,,,Bellingham,98228,US,WA,"['103 E Holly St', 'Bellingham, WA 98228']",48.74969,-122.47878999999999
229,229,fRJ5ZOwd05RFZBsEtWF49Q,retirement_homes,Solstice Senior Living at Bellingham,False,13606716060,2818 Old Fairhaven Pkwy,,,Bellingham,98225,US,WA,"['2818 Old Fairhaven Pkwy', 'Bellingham, WA 98225']",48.714049415438296,-122.47985057937599
231,231,YeRlD_scnx3sdGg3ikCiEg,retirement_homes,Langley Lions Senior Citizens Housing Society,False,16045307171,5470 203 Street,,,Langley,V3A 5V3,CA,BC,"['5470 203 Street', 'Langley, BC V3A 5V3', 'Canada']",49.101795,-122.6595315
234,234,JRb92ekDS5S8Py4G36kWvA,retirement_homes,Windermere Care Centre,False,16047368676,900 12th Avenue W,,,Vancouver,V5Z 1N3,CA,BC,"['900 12th Avenue W', 'Vancouver, BC V5Z 1N3', 'Canada']",49.260259999999995,-123.12533
235,235,4vq9pPgI2olozpvj-X2VIA,retirement_homes,Terraces On Seventh,False,16047388380,1570 West 7th Avenue,,,Vancouver,V6J 5M1,CA,BC,"['1570 West 7th Avenue', 'Vancouver, BC V6J 5M1', 'Canada']",49.26513,-123.13996999999999
236,236,3szsa6_nG7OwalTAtt7Diw,retirement_homes,Gilmore Gardens,False,16042717222,4088 Blundell Rd,,,Richmond,V7C 5V1,CA,BC,"['4088 Blundell Rd', 'Richmond, BC V7C 5V1', 'Canada']",49.155190000000005,-123.18008
238,238,VmZyh_SPkJYPSD-gTXm5Vw,retirement_homes,Cavell Gardens,False,16046371207,2835 Sophia Street,,,Vancouver,V5T 4V2,CA,BC,"['2835 Sophia Street', 'Vancouver, BC V5T 4V2', 'Canada']",49.259909,-123.098316
239,239,EqIVzhJHPJZmkK6o_MR5pg,retirement_homes,Nicola Lodge,False,16049450058,2240 Hawkins Street,,,Port Coquitlam,V3B 0M2,CA,BC,"['2240 Hawkins Street', 'Port Coquitlam, BC V3B 0M2', 'Canada']",49.2559674,-122.73817530000001
241,241,lYDVYO_PPuU9S-c6kwADng,retirement_homes,Westerleigh PARC Retirement Living,False,16049229888,725 - 22nd Street,,,West Vancouver,V7V 4B9,CA,BC,"['725 - 22nd Street', 'West Vancouver, BC V7V 4B9', 'Canada']",49.3317951,-123.17117490000001
245,245,YGE9Zx2C-B-6JmT3XYmvhw,retirement_homes,Arbutus Ridge,False,12507433282,3600 Ratcliffe Road,,,Cobble Hill,V0R 1L1,CA,BC,"['3600 Ratcliffe Road', 'Cobble Hill, BC V0R 1L1', 'Canada']",48.6910091404986,-123.54694302620199
246,246,GK7QXUtyXXwrTkozNpPIpw,retirement_homes,The Lodge At Broadmead,False,12506580311,4579 Chatterton Way,,,Victoria,V8X 4Y7,CA,BC,"['4579 Chatterton Way', 'Victoria, BC V8X 4Y7', 'Canada']",48.49656029999999,-123.3807889
249,249,2KmNVs_OiGoeiEv3fvcJQg,retirement_homes,Beacon Hill Villa for Seniors,False,12503835447,635 Superior Street,,,Victoria,V8V 1V1,CA,BC,"['635 Superior Street', 'Victoria, BC V8V 1V1', 'Canada']",48.4182642,-123.36735290000001
261,261,G8Mmmyqd6W2qmaDmAbwv4Q,retirement_homes,Providence Marianwood,False,14253912800,3725 Providence Point Dr SE,,,Issaquah,98029,US,WA,"['3725 Providence Point Dr SE', 'Issaquah, WA 98029']",47.5756912231445,-122.03790283203101
262,262,A2P31CRukcec0zS7-w4YLw,retirement_homes,The Garden Club,False,14254904398,13350 SE 26th St,,,Bellevue,98005,US,WA,"['13350 SE 26th St', 'Bellevue, WA 98005']",47.588059,-122.16391499999999
267,267,ESDi1TgZ3gQZgTTJeCqqpA,hospice;retirement_homes,Olgino's Adult Family Home,False,12065199559,24328 47th Ave SE,,,Bothell,98021,US,WA,"['24328 47th Ave SE', 'Bothell, WA 98021']",47.776559999999996,-122.1699
268,268,Z5iM61MXERUy6czmnR9SoQ,retirement_homes,Loving Adult Family Home,False,12063911264,21807 45th Ave SE,,,Bothell,98021,US,WA,"['21807 45th Ave SE', 'Bothell, WA 98021']",47.7994,-122.17228
269,269,HuGDqxIabvjuqyYUwI-CcQ,retirement_homes,Timber Ridge at Talus,False,14254275200,100 Timber Ridge Way,,,Issaquah,98027,US,WA,"['100 Timber Ridge Way', 'Issaquah, WA 98027']",47.531690000000005,-122.06636
270,270,Xf11MOZdYhN6-ifZ70ScxA,retirement_homes,Emerald Heights,False,14255568100,10901 176th Cir NE,,,Redmond,98052,US,WA,"['10901 176th Cir NE', 'Redmond, WA 98052']",47.696953,-122.105659
276,276,DuVJ4VtGUxLUJvSu1QU2gg,retirement_homes,Emeritus at Monroe,False,13606373927,15465 179th Ave SE,,,Monroe,98272,US,WA,"['15465 179th Ave SE', 'Monroe, WA 98272']",47.857637,-121.99063899999999
282,282,PqSFsHL5gOvLHzvfDJVV3w,retirement_homes;memorycare,Sagebrook Senior Living at Bellevue,False,14256414900,15750 NE 15th St,,,Bellevue,98008,US,WA,"['15750 NE 15th St', 'Bellevue, WA 98008']",47.623521000000004,-122.130058
294,294,Ykhhjqw6An1P1DJA1mBI8w,retirement_homes,Senior Services of Snohomish County,False,14253551112,8225 44th Ave W,Ste O,,Mukilteo,98275,US,WA,"['8225 44th Ave W', 'Ste O', 'Mukilteo, WA 98275']",47.92347,-122.29123
307,307,7HfayRoKcgq2nHteKC79zA,memorycare;retirement_homes,Sunrise of Bothell,False,14254873245,10605 NE 185th Street,,,Bothell,98011,US,WA,"['10605 NE 185th Street', 'Bothell, WA 98011']",47.761720000000004,-122.19882
318,318,SBBzZ8coOh6_ZqWsQmBHUg,retirement_homes,BETHANY AT PACIFIC,False,14252595508,916 Pacific Ave,,,Everett,98201,US,WA,"['916 Pacific Ave', 'Everett, WA 98201']",47.9755516052246,-122.216506958008
323,323,8Hl3YRtQhA5LWsC1r4K3cg,retirement_homes,Cascadian Place,False,14253667805,3915 Colby Ave,,,Everett,98201,US,WA,"['3915 Colby Ave', 'Everett, WA 98201']",47.9652561,-122.20722759999998
326,326,jbyhd_TrLHO5Mw-CsB3WoA,retirement_homes,The Savoy at Lake City,False,12064828808,13730 Lake City Way NE,,,Seattle,98125,US,WA,"['13730 Lake City Way NE', 'Seattle, WA 98125']",47.729440000000004,-122.29188
327,327,jYtrWibBoCchFE_xki8fiQ,retirement_homes,Joy Adult Family Home,False,12063649436,15553 27th Ave NE,,,Shoreline,98155,US,WA,"['15553 27th Ave NE', 'Shoreline, WA 98155']",47.74253,-122.29961999999999
328,328,EB7mKcprPGTe1_r0aOQGTw,retirement_homes,Broadview Adult Family Home,False,12062496588,103 NW 140th St,,,Seattle,98177,US,WA,"['103 NW 140th St', 'Seattle, WA 98177']",47.73035,-122.35864
330,330,kv4d8UMx-N8CgmKEhAoFOw,retirement_homes,GenCare Lake City at Remington Place,False,12069658574,3025 NE 137th St,,,Seattle,98125,US,WA,"['3025 NE 137th St', 'Seattle, WA 98125']",47.72742,-122.29535
333,333,Us1IgsvStVxjpYZB1ol3eA,retirement_homes,The Lodge At Sherwood Village,False,13606813100,660 Evergreen Farm Way,,,Sequim,98382,US,WA,"['660 Evergreen Farm Way', 'Sequim, WA 98382']",48.093421,-123.11585600000001
334,334,KV6sl-9GAV4igUMR5Vogkg,retirement_homes,Dungeness Courte Alzheimer's Community,False,13605829309,651 Garry Oak Dr,,,Sequim,98382,US,WA,"['651 Garry Oak Dr', 'Sequim, WA 98382']",48.0863428115845,-123.114687278867
337,337,RBQwo5nOnFGwbIgZwkC0UA,retirement_homes,Bayview Retirement Community,False,12062847330,11 W Aloha St,,,Seattle,98119,US,WA,"['11 W Aloha St', 'Seattle, WA 98119']",47.6268375,-122.35736999999999
339,339,jGV7aPMPY51ldz2YD9bIPw,retirement_homes,GenCare Seattle: Ballard Landmark,False,12067824000,5433 Leary Ave NW,,,Seattle,98107,US,WA,"['5433 Leary Ave NW', 'Seattle, WA 98107']",47.667859867215206,-122.383639812469
342,342,kvzaGMmAP-ypLUY4CpBCVg,retirement_homes,the Hearthstone,False,12065259666,6720 E Green Lake Way N,,,Seattle,98103,US,WA,"['6720 E Green Lake Way N', 'Seattle, WA 98103']",47.67808,-122.32916999999999
345,345,bC-m4INaWy5hEghxISGosQ,retirement_homes,Mirabella Seattle,False,12062541400,116 Fairview Ave N,,,Seattle,98109,US,WA,"['116 Fairview Ave N', 'Seattle, WA 98109']",47.619236,-122.33402079999999
346,346,UBWGf9dIq8jm5vksKCRpvw,retirement_homes,European Senior Care,False,12069313997,3716 55th Ave SW,,,Seattle,98116,US,WA,"['3716 55th Ave SW', 'Seattle, WA 98116']",47.5705795288086,-122.402481079102
347,347,asJ1hJrZ55r0oohQ9JSq2Q,retirement_homes,Northaven Retirement Apartments,False,12063628077,11045 8th Ave NE,,,Seattle,98125,US,WA,"['11045 8th Ave NE', 'Seattle, WA 98125']",47.7099189758301,-122.32159423828101
353,353,qU-mPBiCG2EIg8-mti-rnw,retirement_homes,Ida Culver House Ravenna,False,12064523188,2315 NE 65th St,,,Seattle,98115,US,WA,"['2315 NE 65th St', 'Seattle, WA 98115']",47.6754054,-122.30159350000001
365,365,nMDtg4bTWDn1vBK1T_3dfA,retirement_homes,Nikkei Manor,False,12067266460,700 6th Ave S,Apt 222,,Seattle,98104,US,WA,"['700 6th Ave S', 'Apt 222', 'Seattle, WA 98104']",47.5962924957275,-122.326293513179
367,367,2bNQ4ksNK4JZnOS_RfA0qg,retirement_homes,Skyline,False,12064071700,725 9th Ave,,,Seattle,98104,US,WA,"['725 9th Ave', 'Seattle, WA 98104']",47.60652,-122.32628999999999
368,368,1nUG9rHT22vOBuGLVAh-VQ,retirement_homes,University House Wallingford,False,12064523209,4400 Stone Way N,,,Seattle,98103,US,WA,"['4400 Stone Way N', 'Seattle, WA 98103']",47.660314,-122.34140900000001
369,369,JMqHA1nkk7fX86Cdq0FE-w,retirement_homes,Pearly Jones Home,False,12062844088,2830 26th Ave W,,,Seattle,98199,US,WA,"['2830 26th Ave W', 'Seattle, WA 98199']",47.6456,-122.3898
370,370,ABxLkSGcTws5iJ0TYueVCw,retirement_homes,Providence Heritage House At the Market,False,12063824119,1533 Western Ave,Apt 208,,Seattle,98101,US,WA,"['1533 Western Ave', 'Apt 208', 'Seattle, WA 98101']",47.6090138,-122.34196670000001
371,371,5UCj8GaGEmi9pzyjNFpKUg,retirement_homes,Murano Senior Living,False,12062024620,620 Terry Ave,,,Seattle,98104,US,WA,"['620 Terry Ave', 'Seattle, WA 98104']",47.60667,-122.323921
376,376,6SGAqzfEz_d_DIlAImgfvA,retirement_homes,Brookdale Admiral Heights,False,12068661711,2326 California Ave SW,,,Seattle,98116,US,WA,"['2326 California Ave SW', 'Seattle, WA 98116']",47.58210754394529,-122.38610076904301
377,377,cxQwD_Fbo8WwENiTpjp7zA,retirement_homes,Nikkei Concerns,False,12063237100,1601 E Yesler Way,,,Seattle,98122,US,WA,"['1601 E Yesler Way', 'Seattle, WA 98122']",47.601318400000004,-122.31088259999999
379,379,TMAd5B1EPbv705Slzq60eQ,retirement_homes,The Kenney,False,12069372800,7125 Fauntleroy Way SW,,,Seattle,98136,US,WA,"['7125 Fauntleroy Way SW', 'Seattle, WA 98136']",47.539134979248,-122.392036437988
380,380,jPE5_31W4LUB-C2bvxJlnA,retirement_homes,Emeritus Senior Living,False,12062982909,3131 Elliot Ave,Ste 500,,Seattle,98121,US,WA,"['3131 Elliot Ave', 'Ste 500', 'Seattle, WA 98121']",47.6179,-122.35811000000001
383,383,TbTR9iqSINOBOsikx3jRtw,retirement_homes,The Cannon House,False,12067091777,113 23rd Ave S,,,Seattle,98144,US,WA,"['113 23rd Ave S', 'Seattle, WA 98144']",47.6011499,-122.30256000000001
391,391,N7T9DooJp8xxgrMhWhQTdQ,retirement_homes,Presbyterian Retirement Communities Northwest,False,12068262111,715 9th Ave,Ste 400,,Seattle,98104,US,WA,"['715 9th Ave', 'Ste 400', 'Seattle, WA 98104']",47.60638,-122.32585
398,398,Uijven1jF5tKekB-sYWsfg,homehealthcare;retirement_homes,The Langland House Adult Family Home,False,12067181700,9619 15th Ave NW,,,Seattle,98117,US,WA,"['9619 15th Ave NW', 'Seattle, WA 98117']",47.69962,-122.37716
401,401,2kZb4hRgtfZIcBSY_ChNmQ,retirement_homes,Sagebrook Senior Living At Ballard,False,12067891900,1710 NW 57th St,,,Seattle,98107,US,WA,"['1710 NW 57th St', 'Seattle, WA 98107']",47.6704025268555,-122.379829406738
404,404,fUMAdG78ygd322TuLGhSPA,retirement_homes,Era Living,False,12064708000,400 Union St,,,Seattle,98101,US,WA,"['400 Union St', 'Seattle, WA 98101']",47.6095191,-122.3354351
406,406,1JPhSKqfgpRVg4PezR-GRQ,retirement_homes,Emeritus,False,12068661710,4611 35th Ave SW,,,Seattle,98126,US,WA,"['4611 35th Ave SW', 'Seattle, WA 98126']",47.5619344905931,-122.376219924615
408,408,vRlPs9u3s7jrWrhjzDu7qQ,retirement_homes,Lilac Adult Family Home,False,12067677060,4535 14th Ave S,,,Seattle,98108,US,WA,"['4535 14th Ave S', 'Seattle, WA 98108']",47.562495,-122.31516200000002
412,412,87zIvD2t55KJqpH-GLVplg,retirement_homes,Bridge Park,False,18448832593,3204 SW Morgan St,,,Seattle,98126,US,WA,"['3204 SW Morgan St', 'Seattle, WA 98126']",47.5453797621204,-122.373479604721
424,424,8Z-gtmB8RH-i_DWa6KeNbA,retirement_homes,Genessis Adult Family Home,False,18669408918,7528 124th Ave NE,,,Kirkland,98033,US,WA,"['7528 124th Ave NE', 'Kirkland, WA 98033']",47.672540000000005,-122.17428999999998
425,425,bi2mfa6X026vKwY2-wUIzw,retirement_homes,The Bellettini,False,14254500800,1115 108th Ave NE,,,Bellevue,98004,US,WA,"['1115 108th Ave NE', 'Bellevue, WA 98004']",47.6206,-122.19666000000001
435,435,eV4OK4QctQyBGjuVi0Z8VQ,retirement_homes,Madison House,False,14252439985,12215 NE 128th St,,,Kirkland,98034,US,WA,"['12215 NE 128th St', 'Kirkland, WA 98034']",47.7134799,-122.17698
441,441,JhnURSMnCtzf1zTEiH21dg,retirement_homes,The Gardens At Town Square,False,14256881900,933 111th Ave NE,,,Bellevue,98004,US,WA,"['933 111th Ave NE', 'Bellevue, WA 98004']",47.6187192,-122.192048
459,459,PppydeyZ9pqaA186xLmDvw,hospice;retirement_homes,Emeritus at Kirkland,False,14259474978,6505 Lakeview Drive Northeast,,,Kirkland,98033,US,WA,"['6505 Lakeview Drive Northeast', 'Kirkland, WA 98033']",47.664654,-122.20533
471,471,xVI1mrukDilL3n4DCXuTeA,retirement_homes,Bellevue Heights South,False,14256417262,12033 SE 42nd Ct,,,Bellevue,98006,US,WA,"['12033 SE 42nd Ct', 'Bellevue, WA 98006']",47.571376,-122.178634
491,491,yY89Zsubymn7zqsYT_cOJw,retirement_homes,Twilight Adult Family Homes,False,12062365166,3321 72nd Ave SE,,,Mercer Island,98040,US,WA,"['3321 72nd Ave SE', 'Mercer Island, WA 98040']",47.580659999999995,-122.24348
505,505,89fpAqFmBiZIRuksmu4T3w,retirement_homes,Aljoya Mercer Island,False,12064523195,2430 76th Ave SE,,,Mercer Island,98040,US,WA,"['2430 76th Ave SE', 'Mercer Island, WA 98040']",47.5881815,-122.2374159
512,512,t_Uhv5wz9udLf1uUl20hTQ,retirement_homes,Milestone Decisions,False,12088838262,611 S Main St,,,Moscow,83843,US,ID,"['611 S Main St', 'Moscow, ID 83843']",46.72964,-117.00178000000001
516,516,KSobzfxfW6BBAKYgR_UYyw,retirement_homes,Bishop Place Senior Living,False,15093349488,815 SE Klemgard,,,Pullman,99163,US,WA,"['815 SE Klemgard', 'Pullman, WA 99163']",46.7157997190952,-117.17087052762501
520,520,AFuVE7HSe9xjAeoxXBYzhQ,retirement_homes,Guardian Angel Homes - Liberty Lake,False,15098939300,23102 E Mission Ave,,,Liberty Lake,99019,US,WA,"['23102 E Mission Ave', 'Liberty Lake, WA 99019']",47.670331,-117.09427600000001
521,521,mCJoYqvGWyDmBY0TJ9wh7g,retirement_homes,Creekside Inn,False,12084954896,240 E Kathleen Ave,,,Coeur d'Alene,83815,US,ID,"['240 E Kathleen Ave', ""Coeur d'Alene, ID 83815""]",47.714903,-116.783152
527,527,37IhXMzsuGMrHh4f0Q6KAQ,retirement_homes,Cedar Gardens Adult Family Home,False,13605016622,26 W Pine Ln,,,Longview,98632,US,WA,"['26 W Pine Ln', 'Longview, WA 98632']",46.169059999999995,-122.98673000000001
528,528,zyndN10whDYHHW7UbdVwrg,retirement_homes,Canterbury Park,False,13602005975,1335 3rd Ave,,,Longview,98632,US,WA,"['1335 3rd Ave', 'Longview, WA 98632']",46.1359977722168,-122.922882080078
656,656,gqWDuEmZxsV3qQ8CzFmJHg,retirement_homes,Jamie's Place & Mountain View,False,15099964417,109 Norfolk Rd,,,Winthrop,98862,US,WA,"['109 Norfolk Rd', 'Winthrop, WA 98862']",48.470529268183896,-120.180183649063
692,692,HELFADnxnd2dS28_B1V40A,retirement_homes,Highgate Senior Living,False,13605717272,9803 NE Hazel Dell Ave,,,Vancouver,98665,US,WA,"['9803 NE Hazel Dell Ave', 'Vancouver, WA 98665']",45.692676,-122.668995
693,693,t4sZXJQ8hQ-JVtwypLCQhg,retirement_homes,The Quarry Senior Living,False,13609446000,415 SE 177th Ave,,,Vancouver,98683,US,WA,"['415 SE 177th Ave', 'Vancouver, WA 98683']",45.6190032958984,-122.489585876465
694,694,hMUmeTrCp7SppWz1sAxwyw,rehabilitation_center;retirement_homes,ManorCare Health Services-Salmon Creek,False,13605745247,2811 N.E. 139th Street,,,Vancouver,98686,US,WA,"['2811 N.E. 139th Street', 'Vancouver, WA 98686']",45.72104,-122.64204
696,696,qz5Fgz1rNPXcatG8qF3SQw,retirement_homes,Kamlu Retirement Inn-Vancouver,False,13602484823,1000 NE 82nd Ave,,,Vancouver,98664,US,WA,"['1000 NE 82nd Ave', 'Vancouver, WA 98664']",45.628598,-122.58939170000001
697,697,PLv5V2NVyEISqRvSPGCKTA,retirement_homes;nonprofit,Knights Of Pythias Retirement Center,False,13606964375,3409 Main St,,,Vancouver,98663,US,WA,"['3409 Main St', 'Vancouver, WA 98663']",45.6465467649201,-122.667396068573
698,698,ssgiBnaeWT8ZNhsid8fEbQ,hospice;retirement_homes,Emeritus at Fisher's Landing,False,13608590286,17171 Southeast 22nd Drive,,,Vancouver,98683,US,WA,"['17171 Southeast 22nd Drive', 'Vancouver, WA 98683']",45.60423,-122.49716000000001
699,699,6xgQ5BPM8MAGJBsOFGMJBg,hospice;retirement_homes,Stonebridge,False,13608590285,7900 NE Vancouver Mall Dr,,,Vancouver,98662,US,WA,"['7900 NE Vancouver Mall Dr', 'Vancouver, WA 98662']",45.658573150634794,-122.591796875
701,701,SffcPhjqI8TLp2Ht3q-GNw,retirement_homes,The Heights At Columbia Knoll,False,15032031094,8320 NE Sandy Blvd,Apt 256,,Portland,97220,US,OR,"['8320 NE Sandy Blvd', 'Apt 256', 'Portland, OR 97220']",45.5525401,-122.57801189999999
702,702,F2UeYVj1cM_ijD8q-FQleg,retirement_homes,Assumption Village,False,19713133083,9121 N Burr Ave,,,Portland,97203,US,OR,"['9121 N Burr Ave', 'Portland, OR 97203']",45.59101,-122.74073999999999
703,703,LJYd3bTHcxZ1pdBJyVW9Ww,retirement_homes,The Bedford,False,13602484731,13303 SE Mcgillivray Blvd,,,Vancouver,98683,US,WA,"['13303 SE Mcgillivray Blvd', 'Vancouver, WA 98683']",45.609859,-122.535901
704,704,tkR4KN6AiLF6VoABw0N8uw,retirement_homes,Burbery Adult Family Home,False,13604339754,14116 NE 36th St,,,Vancouver,98682,US,WA,"['14116 NE 36th St', 'Vancouver, WA 98682']",45.6482543945312,-122.527053833008
706,706,M3bgsTjp82sVsKN1dFvxPw,retirement_homes,The Hampton At Salmon Creek Memory Care Community,False,13602000776,2305 NE 129th St,,,Vancouver,98686,US,WA,"['2305 NE 129th St', 'Vancouver, WA 98686']",45.7140388,-122.64771270000001
707,707,7VMFyxGitlwJhiEaNsG2Ew,retirement_homes,The GoodLife Adult Family Home,False,13608926003,14007 SE 28th St,,,Vancouver,98683,US,WA,"['14007 SE 28th St', 'Vancouver, WA 98683']",45.600969899999996,-122.52756000000001
709,709,lEBDrO64XCOROlqzgaixKw,retirement_homes,Parkview Christian Retirement Community,False,15032557160,1825 NE 108th Ave,,,Portland,97220,US,OR,"['1825 NE 108th Ave', 'Portland, OR 97220']",45.5356295,-122.5519615
710,710,b3qAwtJNZyPE3fBIZo4SFg,retirement_homes,Parkrose Chateau,False,15035059921,3141 NE 148th Ave,,,Portland,97230,US,OR,"['3141 NE 148th Ave', 'Portland, OR 97230']",45.5452822634565,-122.511331691203
712,712,F9WprgOPVOlbHYXxcZ4Sug,retirement_homes,Courtyard Fountains Retirement Community,False,18887206169,1545 SE 223rd Ave,,,Gresham,97030,US,OR,"['1545 SE 223rd Ave', 'Gresham, OR 97030']",45.5120964050293,-122.434799194336
715,715,gsbjN3R5D2lY6OJQZ9xG5w,retirement_homes,Courtyard At Mt. Tabor,False,15037880896,6125 SE Division St,,,Portland,97206,US,OR,"['6125 SE Division St', 'Portland, OR 97206']",45.50593,-122.60011999999999
716,716,1r7l-c1ZdzskMkEMwswQuw,retirement_homes,Laurelhurst Village,False,15035354700,3060 SE Stark St,,,Portland,97214,US,OR,"['3060 SE Stark St', 'Portland, OR 97214']",45.519090000000006,-122.63298
717,717,dem12LySxk9j6oFNqsJNDA,retirement_homes,CherryWood Village Retirement Community,False,15034080404,1417 SE 107th Ave,,,Portland,97216,US,OR,"['1417 SE 107th Ave', 'Portland, OR 97216']",45.51366176773911,-122.553319927786
719,719,6YQ4I1hpyNaQnuKhHNoJsA,retirement_homes,Cornerstone Care Option,False,15037616621,12640 SE Bush St,,,Portland,97236,US,OR,"['12640 SE Bush St', 'Portland, OR 97236']",45.493759999999995,-122.53322
720,720,FruQkoJ5B913DPHrCSAN0A,retirement_homes,Farmington Square Gresham,False,15037662621,1655 NE 18th St,,,Gresham,97030,US,OR,"['1655 NE 18th St', 'Gresham, OR 97030']",45.5111671,-122.41578329999999
723,723,V1dQ2FhoCXMWfIqrskzPxQ,retirement_homes;personalcare;homehealthcare,Casa Shattuck Senior Care,False,15037647963,4711 SW Shattuck Rd,,,Portland,97221,US,OR,"['4711 SW Shattuck Rd', 'Portland, OR 97221']",45.489442,-122.73029199999999
724,724,vmYuxAJZArAFmzs3m8Ll3Q,retirement_homes,Elite Care,False,15036535656,4444 SEe Oatfield Hill Rd,,Oatfield Estates,Portland,97267,US,OR,"['4444 SEe Oatfield Hill Rd', 'Oatfield Estates', 'Portland, OR 97267']",45.4148555,-122.617052
725,725,sgDDg4vdd6xuUIYBPeUdTw,retirement_homes,Glenmoore Gracious Retirement Living,False,15033749564,12154 SE 114th Ct,,,Happy Valley,97086,US,OR,"['12154 SE 114th Ct', 'Happy Valley, OR 97086']",45.434021,-122.5460892
726,726,WcnaISQ29uHBXt1vDx7y9g,retirement_homes,Alpine House-Senior Skilled Care Living,False,15036469068,6760 SW Griffin Dr,,,Portland,97223,US,OR,"['6760 SW Griffin Dr', 'Portland, OR 97223']",45.473473,-122.747032
727,727,G1OgZ34Uq_UMQQXh23Q4ZA,retirement_homes;physicaltherapy;rehabilitation_center,Mirabella Portland,False,15036886400,3550 SW Bond Ave,,,Portland,97239,US,OR,"['3550 SW Bond Ave', 'Portland, OR 97239']",45.4974365234375,-122.670249938965
728,728,UBWc7kzew0QIpBE82_tp8g,nonprofit;retirement_homes,Fairlawn Good Samaritan Village,False,15036671965,1280 NE Kane Dr Ofc,,,Gresham,97030,US,OR,"['1280 NE Kane Dr Ofc', 'Gresham, OR 97030']",45.506393,-122.39819299999999
733,733,_UcAQEOlj0kSH0gEgQ9ssA,retirement_homes,Somerset Lodge,False,15036575659,8330 Cason Rd,,,Gladstone,97027,US,OR,"['8330 Cason Rd', 'Gladstone, OR 97027']",45.3894170229998,-122.583369238932
735,735,kjTYW5nNeDcsfIyFm0WFWQ,retirement_homes,The Stafford Retirement Community,False,15036364589,1200 Overlook Dr,,,Lake Oswego,97034,US,OR,"['1200 Overlook Dr', 'Lake Oswego, OR 97034']",45.3964649,-122.6906896
736,736,n-TtTnXnJhtErenNkiIZsg,retirement_homes,Willamette View,False,15036546581,12705 SE River Rd,,,Portland,97222,US,OR,"['12705 SE River Rd', 'Portland, OR 97222']",45.4302155,-122.6439463
737,737,FcnmdHFd8e1hay80NOXWGA,retirement_homes,Mary's Woods At Marylhurst,False,15036752004,17400 Holy Names Dr,,,Lake Oswego,97034,US,OR,"['17400 Holy Names Dr', 'Lake Oswego, OR 97034']",45.401315999999994,-122.6504
738,738,jxZBVWBXZjlbY-SXZfCEWQ,rehabilitation_center;retirement_homes,PRESTIGE POST-ACUTE & REHABILITATION CTR-GRESHAM,False,15036665600,405 NE 5th St,,,Gresham,97030,US,OR,"['405 NE 5th St', 'Gresham, OR 97030']",45.501880645752,-122.42711639404301
740,740,ZXnxVgPl2DjW65uz7lWmoQ,retirement_homes;physicaltherapy;rehabilitation_center,Holladay Park Plaza,False,15032886671,1300 NE 16th Ave,,,Portland,97232,US,OR,"['1300 NE 16th Ave', 'Portland, OR 97232']",45.531608608526,-122.649306914203
741,741,KAYnP4gaHDRncsDpD6_xjA,retirement_homes;nonprofit,Terwilliger Plaza,False,15032264911,2545 SW Terwilliger Blvd,,,Portland,97201,US,OR,"['2545 SW Terwilliger Blvd', 'Portland, OR 97201']",45.50446167,-122.68486833
742,742,FE_dW5ebuIcLPsogkWVbTQ,retirement_homes,A Caring Heart,False,13606088177,18405 NE Cedar Dr,,,Battle Ground,98604,US,WA,"['18405 NE Cedar Dr', 'Battle Ground, WA 98604']",45.755542,-122.52219299999999
743,743,l1l-_kguRfZbvmIknrV3Ng,retirement_homes,Friendship Health Center Holgate Center Complex,False,15032311411,3320 SE Holgate Blvd,,,Portland,97202,US,OR,"['3320 SE Holgate Blvd', 'Portland, OR 97202']",45.4901237487793,-122.631187438965
745,745,fQQMzZs2oF3mIse1rAYhVA,retirement_homes,Cherry Blossom Cottage,False,15032569777,11177 SE Cherry Blossom Dr,,,Portland,97216,US,OR,"['11177 SE Cherry Blossom Dr', 'Portland, OR 97216']",45.512771,-122.548239
746,746,zIMWqRNODxrr15mYg_xLZQ,retirement_homes,"Choice Senior Services, LLC",False,15033537870,8201 SE 17th Ave,,,Portland,97202,US,OR,"['8201 SE 17th Ave', 'Portland, OR 97202']",45.46345,-122.64733999999999
748,748,bUSxRRiJcXVPBjFUvBfXFw,nonprofit;retirement_homes,Rose Villa,False,15036543171,13505 SE River Rd,,,Portland,97222,US,OR,"['13505 SE River Rd', 'Portland, OR 97222']",45.425482,-122.6459926
749,749,2U0eByisURarNoFmKT8KWQ,hospice;retirement_homes,Chestnut Lane,False,15036740364,1219 NE Sixth Street,,,Gresham,97030,US,OR,"['1219 NE Sixth Street', 'Gresham, OR 97030']",45.5017,-122.4198
752,752,8lb1VpHnFr5VXydyMlec5w,retirement_homes,RiverCrest Living,False,15032601490,309 Warner Milne Rd,,,Oregon City,97045,US,OR,"['309 Warner Milne Rd', 'Oregon City, OR 97045']",45.337070000000004,-122.59485600000001
753,753,-ZtVFxUwtoyJgn3aRfvFXw,retirement_homes;assistedliving,The Springs at Wilsonville,False,15035829414,7600 SW Vlahos Dr,,,Wilsonville,97070,US,OR,"['7600 SW Vlahos Dr', 'Wilsonville, OR 97070']",45.309669899999996,-122.75511999999999
755,755,U5OJ-eUTlarD-q-iC1kRWQ,retirement_homes,La Bella Vila,False,15034532564,6332 SW Haines St,,,Portland,97219,US,OR,"['6332 SW Haines St', 'Portland, OR 97219']",45.436710357665994,-122.742446899414
756,756,lUZdURXV5-B1Tsy3bH58ow,retirement_homes,Green Meadows Care Home,False,13608332485,26500 SE 5th St,,,Camas,98607,US,WA,"['26500 SE 5th St', 'Camas, WA 98607']",45.620213,-122.400925
758,758,v-gWt58dzh6c120EXiIrVg,retirement_homes;memorycare,McLoughlin Place Senior Living,False,15036553337,1153 Molalla Ave,,,Oregon City,97045,US,OR,"['1153 Molalla Ave', 'Oregon City, OR 97045']",45.338531,-122.5907945
765,765,Up4tnpzbdQG4Te17rLRsQg,retirement_homes,Brookdale Wilsonville,False,15034871524,8170 SW Vlahos Dr,,,Wilsonville,97070,US,OR,"['8170 SW Vlahos Dr', 'Wilsonville, OR 97070']",45.3095703,-122.75927730000001
766,766,gvGs22g1faZOO9Mn4NUK_A,retirement_homes,Firwood Gardens,False,15032520085,819 NE 122nd Ave,,,Portland,97230,US,OR,"['819 NE 122nd Ave', 'Portland, OR 97230']",45.528472900390604,-122.53849029541
767,767,VvQbmX2BxwZXdAew01FFfg,retirement_homes,Rainbow Vista,False,15036675575,1350 W Powell Blvd,,,Gresham,97030,US,OR,"['1350 W Powell Blvd', 'Gresham, OR 97030']",45.4966506958008,-122.44544219970699
769,769,gtNj9vg5GmLFDfbfreio-g,retirement_homes,Courtyard Village At Raleigh Hills,False,15032975500,4875 SW 78th Ave,,,Portland,97225,US,OR,"['4875 SW 78th Ave', 'Portland, OR 97225']",45.484349,-122.75823259999999
772,772,2dSB-HG9GFY9EH34i03A5w,retirement_homes,West Linn Adult Community Center,False,15035574704,1180 Rosemont Rd,,,West Linn,97068,US,OR,"['1180 Rosemont Rd', 'West Linn, OR 97068']",45.3697898,-122.6489377
775,775,kMPeQdpOCa_7GM_gcE_IjQ,retirement_homes,The Hazelwood Retirement Community,False,15032554757,11939 NE Davis St,,,Portland,97220,US,OR,"['11939 NE Davis St', 'Portland, OR 97220']",45.5244,-122.53953999999999
777,777,QNL_zZ_fL3zUn1pr-6Xf8w,retirement_homes,Gresham Manor,False,15034685524,2895 SE Powell Valley Rd,,,Gresham,97080,US,OR,"['2895 SE Powell Valley Rd', 'Gresham, OR 97080']",45.49344779999999,-122.40311229999999
779,779,7PVvHQYzdif5n6UVqrtmuA,retirement_homes,Homewoods On the Willamette,False,15036593600,17971 SE River Rd,,,Milwaukie,97267,US,OR,"['17971 SE River Rd', 'Milwaukie, OR 97267']",45.392497999999996,-122.62373600000001
781,781,NIw9iEZ4yOb1X0EyTQcIHA,retirement_homes,Holiday Retirement Corporate Office,False,18003220999,631 W Morse Blvd,,,Winter Park,32789,US,FL,"['631 W Morse Blvd', 'Winter Park, FL 32789']",28.597982000000002,-81.3570861577865
785,785,QguuzwLrrDDIu95FwercAA,retirement_homes,Laurelhurst House,False,15032345050,15 SE 55th Ave,,,Portland,97215,US,OR,"['15 SE 55th Ave', 'Portland, OR 97215']",45.522662624716794,-122.607574090362
786,786,amCPqkLowy9hl6JrCV7NOQ,retirement_homes,Hillside Senior Care,False,19712245151,14975 SE 131st Dr,,,Clackamas,97015,US,OR,"['14975 SE 131st Dr', 'Clackamas, OR 97015']",45.4142456054688,-122.529037475586
787,787,Qt9hOfmFAAH4lN9YhkCTVA,hospice;retirement_homes,Emeritus at Oswego Springs,False,15034871521,11552 SW Lesser Rd.,,,Portland,97219,US,OR,"['11552 SW Lesser Rd.', 'Portland, OR 97219']",45.44206,-122.737233
788,788,uHNnphMD-zqtmbehJOTvgA,hospice;retirement_homes,Brookdale River Valley Senior Living,False,15034054156,19200 SW 65th Ave,,,Tualatin,97062,US,OR,"['19200 SW 65th Ave', 'Tualatin, OR 97062']",45.38086,-122.74238000000001
820,820,8SZ7QAZNZ63UQDxGgZoaoA,retirement_homes,Brookside Landing,False,12084762000,431 Johnson Ave,,,Orofino,83544,US,ID,"['431 Johnson Ave', 'Orofino, ID 83544']",46.476589202880895,-116.25260925293001
834,834,zCOxCmATUDkaX3bmZGtKzA,retirement_homes,Elizabethan Manor,False,15412767157,44882 Mission Rd,,,Pendleton,97801,US,OR,"['44882 Mission Rd', 'Pendleton, OR 97801']",45.668040000000005,-118.74218
835,835,wo-YMPD9KCrOFoBz-NrU1A,retirement_homes,Suttle Care & Retirement,False,15412780174,1601 SW 24th St,,,Pendleton,97801,US,OR,"['1601 SW 24th St', 'Pendleton, OR 97801']",45.65145,-118.80891000000001
1893,1893,Ocdu6M6ppL3ZUMqbGn6Txg,retirement_homes,Rock Creek,False,15038280392,10205 NE Cornell Rd,,,Hillsboro,97124,US,OR,"['10205 NE Cornell Rd', 'Hillsboro, OR 97124']",45.5349875,-122.87469679999998
1897,1897,v6b4xOEgEymR6P3m4k1U0A,retirement_homes,Clare Bridge of Beaverton,False,15034391653,16655 NW Walker Rd,,,Beaverton,97006,US,OR,"['16655 NW Walker Rd', 'Beaverton, OR 97006']",45.52023,-122.84813999999999
1899,1899,fOuSnEr5NoROw7fCqaulpw,retirement_homes,Avamere At Bethany,False,15036902402,16360 NW Avamere Ct,,,Portland,97229,US,OR,"['16360 NW Avamere Ct', 'Portland, OR 97229']",45.54945,-122.84653999999999
1903,1903,wkeMsgswIq4xjhCsYfP40Q,retirement_homes;apartments,Avamere atHillsboro,False,15036939944,2000 SE 30th Ave,,,Hillsboro,97123,US,OR,"['2000 SE 30th Ave', 'Hillsboro, OR 97123']",45.504974,-122.950172
3267,3267,sYfwAawbs2arLYGz8MwF7A,retirement_homes;hospice,Radiant Senior Living,False,15035952810,10220 SW Greenburg Rd,Ste 201,,Portland,97223,US,OR,"['10220 SW Greenburg Rd', 'Ste 201', 'Portland, OR 97223']",45.4460602,-122.7741013
3286,3286,O7RAjV3GgFMXXMTN44wDZQ,retirement_homes,Hope Village,False,15032664673,1535 S Ivy St,,,Canby,97013,US,OR,"['1535 S Ivy St', 'Canby, OR 97013']",45.25005,-122.68923000000001
3294,3294,J-E0mhOG0Wwro8HkW79nFg,retirement_homes,SpringRidge at Charbonneau,False,15039254143,32200 SW French Prairie Rd,,,Wilsonville,97070,US,OR,"['32200 SW French Prairie Rd', 'Wilsonville, OR 97070']",45.2880506449189,-122.76770107293501
3298,3298,vxomUInSCTfaCKlKE5fxhA,hospice;retirement_homes,Emeritus at Park Place,False,15033760785,8445 SW Hemlock,,,Portland,97223,US,OR,"['8445 SW Hemlock', 'Portland, OR 97223']",45.451159999999994,-122.76386200000002
